EventId,Type,Severity,StartTime(UTC),EndTime(UTC),Precipitation(in),TimeZone,AirportCode,LocationLat,LocationLng,City,County,State,ZipCode
W-7405485,Rain,Light,2022-01-01 00:53:00+00:00,2022-01-01 01:53:00+00:00,0.0,US/Eastern,KTMB,25.6423,-80.4347,Miami,Miami-Dade,FL,33186.0
W-7405486,Rain,Light,2022-01-01 11:53:00+00:00,2022-01-01 12:23:00+00:00,0.0,US/Eastern,KTMB,25.6423,-80.4347,Miami,Miami-Dade,FL,33186.0
W-7405487,Rain,Light,2022-01-01 12:32:00+00:00,2022-01-01 12:53:00+00:00,0.0,US/Eastern,KTMB,25.6423,-80.4347,Miami,Miami-Dade,FL,33186.0
W-7405488,Rain,Light,2022-01-03 16:33:00+00:00,2022-01-03 16:53:00+00:00,0.0,US/Eastern,KTMB,25.6423,-80.4347,Miami,Miami-Dade,FL,33186.0
W-7405489,Cold,Severe,2022-01-04 00:53:00+00:00,2022-01-04 21:53:00+00:00,0.0,US/Eastern,KTMB,25.6423,-80.4347,Miami,Miami-Dade,FL,33186.0
W-7405490,Rain,Light,2022-01-05 10:53:00+00:00,2022-01-05 12:46:00+00:00,0.12,US/Eastern,KTMB,25.6423,-80.4347,Miami,Miami-Dade,FL,33186.0
W-7405491,Cold,Severe,2022-01-05 17:53:00+00:00,2022-01-05 20:53:00+00:00,0.0,US/Eastern,KTMB,25.6423,-80.4347,Miami,Miami-Dade,FL,33186.0
W-7405492,Cold,Severe,2022-01-06 08:53:00+00:00,2022-01-06 10:53:00+00:00,0.0,US/Eastern,KTMB,25.6423,-80.4347,Miami,Miami-Dade,FL,33186.0
W-7405493,Cold,Severe,2022-01-06 11:53:00+00:00,2022-01-06 15:53:00+00:00,0.0,US/Eastern,KTMB,25.6423,-80.4347,Miami,Miami-Dade,FL,33186.0
W-7405494,Cold,Severe,2022-01-06 16:53:00+00:00,2022-01-06 17:53:00+00:00,0.0,US/Eastern,KTMB,25.6423,-80.4347,Miami,Miami-Dade,FL,33186.0
W-7405495,Cold,Severe,2022-01-06 18:53:00+00:00,2022-01-06 19:53:00+00:00,0.0,US/Eastern,KTMB,25.6423,-80.4347,Miami,Miami-Dade,FL,33186.0
W-7405496,Cold,Severe,2022-01-06 20:53:00+00:00,2022-01-08 14:53:00+00:00,0.0,US/Eastern,KTMB,25.6423,-80.4347,Miami,Miami-Dade,FL,33186.0
W-7405497,Cold,Severe,2022-01-08 17:53:00+00:00,2022-01-13 19:53:00+00:00,0.0,US/Eastern,KTMB,25.6423,-80.4347,Miami,Miami-Dade,FL,33186.0
W-7405498,Cold,Severe,2022-01-13 20:53:00+00:00,2022-01-15 00:53:00+00:00,0.0,US/Eastern,KTMB,25.6423,-80.4347,Miami,Miami-Dade,FL,33186.0
W-7405499,Fog,Severe,2022-01-15 09:34:00+00:00,2022-01-15 10:06:00+00:00,0.0,US/Eastern,KTMB,25.6423,-80.4347,Miami,Miami-Dade,FL,33186.0
W-7405500,Precipitation,UNK,2022-01-16 17:50:00+00:00,2022-01-16 18:12:00+00:00,0.42,US/Eastern,KTMB,25.6423,-80.4347,Miami,Miami-Dade,FL,33186.0
W-7405501,Rain,Light,2022-01-16 18:12:00+00:00,2022-01-16 18:25:00+00:00,0.01,US/Eastern,KTMB,25.6423,-80.4347,Miami,Miami-Dade,FL,33186.0
W-7405502,Rain,Light,2022-01-16 18:40:00+00:00,2022-01-16 20:20:00+00:00,0.22,US/Eastern,KTMB,25.6423,-80.4347,Miami,Miami-Dade,FL,33186.0
W-7405503,Rain,Light,2022-01-16 21:15:00+00:00,2022-01-16 21:50:00+00:00,0.0,US/Eastern,KTMB,25.6423,-80.4347,Miami,Miami-Dade,FL,33186.0
W-7405504,Rain,Light,2022-01-19 13:53:00+00:00,2022-01-19 14:53:00+00:00,0.0,US/Eastern,KTMB,25.6423,-80.4347,Miami,Miami-Dade,FL,33186.0
W-7405505,Rain,Light,2022-01-20 11:53:00+00:00,2022-01-20 13:53:00+00:00,0.0,US/Eastern,KTMB,25.6423,-80.4347,Miami,Miami-Dade,FL,33186.0
W-7405506,Rain,Light,2022-01-20 17:53:00+00:00,2022-01-20 19:53:00+00:00,0.04,US/Eastern,KTMB,25.6423,-80.4347,Miami,Miami-Dade,FL,33186.0
W-7405507,Rain,Light,2022-01-20 20:12:00+00:00,2022-01-20 20:53:00+00:00,0.09,US/Eastern,KTMB,25.6423,-80.4347,Miami,Miami-Dade,FL,33186.0
W-7405508,Rain,Light,2022-01-20 21:36:00+00:00,2022-01-20 22:53:00+00:00,0.14,US/Eastern,KTMB,25.6423,-80.4347,Miami,Miami-Dade,FL,33186.0
W-7405509,Rain,Light,2022-01-21 03:53:00+00:00,2022-01-21 04:06:00+00:00,0.0,US/Eastern,KTMB,25.6423,-80.4347,Miami,Miami-Dade,FL,33186.0
W-7405510,Cold,Severe,2022-01-21 06:26:00+00:00,2022-01-21 12:53:00+00:00,0.0,US/Eastern,KTMB,25.6423,-80.4347,Miami,Miami-Dade,FL,33186.0
W-7405511,Cold,Severe,2022-01-21 13:53:00+00:00,2022-01-21 14:53:00+00:00,0.0,US/Eastern,KTMB,25.6423,-80.4347,Miami,Miami-Dade,FL,33186.0
W-7405512,Cold,Severe,2022-01-22 02:53:00+00:00,2022-01-22 12:17:00+00:00,0.0,US/Eastern,KTMB,25.6423,-80.4347,Miami,Miami-Dade,FL,33186.0
W-7405513,Rain,Light,2022-01-22 19:53:00+00:00,2022-01-22 20:53:00+00:00,0.0,US/Eastern,KTMB,25.6423,-80.4347,Miami,Miami-Dade,FL,33186.0
W-7405514,Rain,Light,2022-01-23 00:53:00+00:00,2022-01-23 01:53:00+00:00,0.0,US/Eastern,KTMB,25.6423,-80.4347,Miami,Miami-Dade,FL,33186.0
W-7405515,Rain,Light,2022-01-23 02:53:00+00:00,2022-01-23 03:53:00+00:00,0.0,US/Eastern,KTMB,25.6423,-80.4347,Miami,Miami-Dade,FL,33186.0
W-7405516,Rain,Light,2022-01-23 04:32:00+00:00,2022-01-23 05:08:00+00:00,0.01,US/Eastern,KTMB,25.6423,-80.4347,Miami,Miami-Dade,FL,33186.0
W-7405517,Rain,Light,2022-01-23 06:53:00+00:00,2022-01-23 07:53:00+00:00,0.0,US/Eastern,KTMB,25.6423,-80.4347,Miami,Miami-Dade,FL,33186.0
W-7405518,Rain,Light,2022-01-26 07:53:00+00:00,2022-01-26 08:53:00+00:00,0.0,US/Eastern,KTMB,25.6423,-80.4347,Miami,Miami-Dade,FL,33186.0
W-7405519,Rain,Light,2022-01-26 17:21:00+00:00,2022-01-26 17:28:00+00:00,0.0,US/Eastern,KTMB,25.6423,-80.4347,Miami,Miami-Dade,FL,33186.0
W-7405520,Rain,Light,2022-01-27 02:31:00+00:00,2022-01-27 03:53:00+00:00,0.07,US/Eastern,KTMB,25.6423,-80.4347,Miami,Miami-Dade,FL,33186.0
W-7405521,Fog,Severe,2022-01-27 05:53:00+00:00,2022-01-27 06:07:00+00:00,0.0,US/Eastern,KTMB,25.6423,-80.4347,Miami,Miami-Dade,FL,33186.0
W-7405522,Fog,Severe,2022-01-27 08:15:00+00:00,2022-01-27 08:26:00+00:00,0.0,US/Eastern,KTMB,25.6423,-80.4347,Miami,Miami-Dade,FL,33186.0
W-7405523,Fog,Severe,2022-01-28 10:31:00+00:00,2022-01-28 11:09:00+00:00,0.0,US/Eastern,KTMB,25.6423,-80.4347,Miami,Miami-Dade,FL,33186.0
W-7405524,Rain,Light,2022-01-31 18:53:00+00:00,2022-01-31 21:53:00+00:00,0.0,US/Eastern,KTMB,25.6423,-80.4347,Miami,Miami-Dade,FL,33186.0
W-7405525,Rain,Light,2022-02-01 12:53:00+00:00,2022-02-01 13:53:00+00:00,0.0,US/Eastern,KTMB,25.6423,-80.4347,Miami,Miami-Dade,FL,33186.0
W-7405526,Fog,Severe,2022-02-05 09:33:00+00:00,2022-02-05 11:00:00+00:00,0.0,US/Eastern,KTMB,25.6423,-80.4347,Miami,Miami-Dade,FL,33186.0
W-7405527,Fog,Severe,2022-02-05 11:36:00+00:00,2022-02-05 12:26:00+00:00,0.0,US/Eastern,KTMB,25.6423,-80.4347,Miami,Miami-Dade,FL,33186.0
W-7405528,Fog,Severe,2022-02-06 12:10:00+00:00,2022-02-06 13:00:00+00:00,0.0,US/Eastern,KTMB,25.6423,-80.4347,Miami,Miami-Dade,FL,33186.0
W-7405529,Rain,Light,2022-02-06 13:00:00+00:00,2022-02-06 13:14:00+00:00,0.0,US/Eastern,KTMB,25.6423,-80.4347,Miami,Miami-Dade,FL,33186.0
W-7405530,Fog,Severe,2022-02-06 13:14:00+00:00,2022-02-06 13:29:00+00:00,0.0,US/Eastern,KTMB,25.6423,-80.4347,Miami,Miami-Dade,FL,33186.0
W-7405531,Cold,Severe,2022-02-07 07:53:00+00:00,2022-02-07 15:53:00+00:00,0.0,US/Eastern,KTMB,25.6423,-80.4347,Miami,Miami-Dade,FL,33186.0
W-7405532,Cold,Severe,2022-02-07 22:53:00+00:00,2022-02-08 02:53:00+00:00,0.0,US/Eastern,KTMB,25.6423,-80.4347,Miami,Miami-Dade,FL,33186.0
W-7405533,Fog,Severe,2022-02-08 09:34:00+00:00,2022-02-08 09:44:00+00:00,0.0,US/Eastern,KTMB,25.6423,-80.4347,Miami,Miami-Dade,FL,33186.0
W-7405534,Fog,Severe,2022-02-08 10:14:00+00:00,2022-02-08 13:22:00+00:00,0.0,US/Eastern,KTMB,25.6423,-80.4347,Miami,Miami-Dade,FL,33186.0
W-7405535,Rain,Light,2022-02-08 22:34:00+00:00,2022-02-08 23:53:00+00:00,0.0,US/Eastern,KTMB,25.6423,-80.4347,Miami,Miami-Dade,FL,33186.0
W-7405536,Rain,Light,2022-02-09 13:24:00+00:00,2022-02-09 14:44:00+00:00,0.07,US/Eastern,KTMB,25.6423,-80.4347,Miami,Miami-Dade,FL,33186.0
W-7405537,Rain,Moderate,2022-02-09 14:44:00+00:00,2022-02-09 15:53:00+00:00,0.27,US/Eastern,KTMB,25.6423,-80.4347,Miami,Miami-Dade,FL,33186.0
W-7405538,Rain,Light,2022-02-09 15:53:00+00:00,2022-02-09 16:32:00+00:00,0.0,US/Eastern,KTMB,25.6423,-80.4347,Miami,Miami-Dade,FL,33186.0
W-7405539,Rain,Light,2022-02-09 16:53:00+00:00,2022-02-09 18:34:00+00:00,0.05,US/Eastern,KTMB,25.6423,-80.4347,Miami,Miami-Dade,FL,33186.0
W-7405540,Rain,Light,2022-02-09 19:53:00+00:00,2022-02-09 20:23:00+00:00,0.0,US/Eastern,KTMB,25.6423,-80.4347,Miami,Miami-Dade,FL,33186.0
W-7405541,Rain,Light,2022-02-09 20:53:00+00:00,2022-02-09 21:53:00+00:00,0.0,US/Eastern,KTMB,25.6423,-80.4347,Miami,Miami-Dade,FL,33186.0
W-7405542,Rain,Light,2022-02-10 16:53:00+00:00,2022-02-10 17:53:00+00:00,0.0,US/Eastern,KTMB,25.6423,-80.4347,Miami,Miami-Dade,FL,33186.0
W-7405543,Rain,Light,2022-02-11 22:53:00+00:00,2022-02-11 23:53:00+00:00,0.03,US/Eastern,KTMB,25.6423,-80.4347,Miami,Miami-Dade,FL,33186.0
W-7405544,Fog,Severe,2022-02-12 06:36:00+00:00,2022-02-12 06:43:00+00:00,0.0,US/Eastern,KTMB,25.6423,-80.4347,Miami,Miami-Dade,FL,33186.0
W-7405545,Fog,Severe,2022-02-12 08:47:00+00:00,2022-02-12 09:04:00+00:00,0.0,US/Eastern,KTMB,25.6423,-80.4347,Miami,Miami-Dade,FL,33186.0
W-7405546,Fog,Severe,2022-02-12 09:16:00+00:00,2022-02-12 09:37:00+00:00,0.0,US/Eastern,KTMB,25.6423,-80.4347,Miami,Miami-Dade,FL,33186.0
W-7405547,Fog,Severe,2022-02-12 11:59:00+00:00,2022-02-12 12:09:00+00:00,0.0,US/Eastern,KTMB,25.6423,-80.4347,Miami,Miami-Dade,FL,33186.0
W-7405548,Rain,Light,2022-02-13 09:53:00+00:00,2022-02-13 11:53:00+00:00,0.02,US/Eastern,KTMB,25.6423,-80.4347,Miami,Miami-Dade,FL,33186.0
W-7405549,Rain,Light,2022-02-13 12:53:00+00:00,2022-02-13 13:05:00+00:00,0.0,US/Eastern,KTMB,25.6423,-80.4347,Miami,Miami-Dade,FL,33186.0
W-7405550,Rain,Light,2022-02-13 13:35:00+00:00,2022-02-13 14:06:00+00:00,0.18,US/Eastern,KTMB,25.6423,-80.4347,Miami,Miami-Dade,FL,33186.0
W-7405551,Precipitation,UNK,2022-02-13 14:12:00+00:00,2022-02-13 14:15:00+00:00,0.19,US/Eastern,KTMB,25.6423,-80.4347,Miami,Miami-Dade,FL,33186.0
W-7405552,Rain,Moderate,2022-02-13 14:15:00+00:00,2022-02-13 14:53:00+00:00,0.48,US/Eastern,KTMB,25.6423,-80.4347,Miami,Miami-Dade,FL,33186.0
W-7405553,Rain,Heavy,2022-02-13 14:53:00+00:00,2022-02-13 15:53:00+00:00,0.29,US/Eastern,KTMB,25.6423,-80.4347,Miami,Miami-Dade,FL,33186.0
W-7405554,Rain,Light,2022-02-13 15:53:00+00:00,2022-02-13 16:29:00+00:00,0.05,US/Eastern,KTMB,25.6423,-80.4347,Miami,Miami-Dade,FL,33186.0
W-7405555,Rain,Light,2022-02-13 16:53:00+00:00,2022-02-13 17:53:00+00:00,0.0,US/Eastern,KTMB,25.6423,-80.4347,Miami,Miami-Dade,FL,33186.0
W-7405556,Cold,Severe,2022-02-16 00:53:00+00:00,2022-02-16 01:53:00+00:00,0.0,US/Eastern,KTMB,25.6423,-80.4347,Miami,Miami-Dade,FL,33186.0
W-7405557,Cold,Severe,2022-02-16 02:53:00+00:00,2022-02-16 18:41:00+00:00,0.0,US/Eastern,KTMB,25.6423,-80.4347,Miami,Miami-Dade,FL,33186.0
W-7405558,Rain,Light,2022-02-16 19:53:00+00:00,2022-02-16 20:02:00+00:00,0.0,US/Eastern,KTMB,25.6423,-80.4347,Miami,Miami-Dade,FL,33186.0
W-7405559,Rain,Light,2022-02-16 22:03:00+00:00,2022-02-16 22:33:00+00:00,0.0,US/Eastern,KTMB,25.6423,-80.4347,Miami,Miami-Dade,FL,33186.0
W-7405560,Rain,Light,2022-02-17 05:53:00+00:00,2022-02-17 06:53:00+00:00,0.0,US/Eastern,KTMB,25.6423,-80.4347,Miami,Miami-Dade,FL,33186.0
W-7405561,Rain,Light,2022-02-17 16:53:00+00:00,2022-02-17 17:53:00+00:00,0.0,US/Eastern,KTMB,25.6423,-80.4347,Miami,Miami-Dade,FL,33186.0
W-7405562,Rain,Light,2022-02-18 00:44:00+00:00,2022-02-18 00:53:00+00:00,0.0,US/Eastern,KTMB,25.6423,-80.4347,Miami,Miami-Dade,FL,33186.0
W-7405563,Rain,Light,2022-02-18 21:53:00+00:00,2022-02-18 22:21:00+00:00,0.0,US/Eastern,KTMB,25.6423,-80.4347,Miami,Miami-Dade,FL,33186.0
W-7405564,Rain,Light,2022-02-19 22:53:00+00:00,2022-02-20 01:37:00+00:00,0.0,US/Eastern,KTMB,25.6423,-80.4347,Miami,Miami-Dade,FL,33186.0
W-7405565,Rain,Light,2022-02-21 10:01:00+00:00,2022-02-21 10:53:00+00:00,0.0,US/Eastern,KTMB,25.6423,-80.4347,Miami,Miami-Dade,FL,33186.0
W-7405566,Fog,Severe,2022-02-27 10:38:00+00:00,2022-02-27 10:46:00+00:00,0.0,US/Eastern,KTMB,25.6423,-80.4347,Miami,Miami-Dade,FL,33186.0
W-7405567,Rain,Light,2022-02-28 00:53:00+00:00,2022-02-28 01:37:00+00:00,0.0,US/Eastern,KTMB,25.6423,-80.4347,Miami,Miami-Dade,FL,33186.0
W-7405568,Rain,Light,2022-03-02 13:18:00+00:00,2022-03-02 15:53:00+00:00,0.01,US/Eastern,KTMB,25.6423,-80.4347,Miami,Miami-Dade,FL,33186.0
W-7405569,Fog,Moderate,2022-03-02 15:53:00+00:00,2022-03-02 16:53:00+00:00,0.0,US/Eastern,KTMB,25.6423,-80.4347,Miami,Miami-Dade,FL,33186.0
W-7405570,Rain,Light,2022-03-02 17:53:00+00:00,2022-03-02 18:53:00+00:00,0.0,US/Eastern,KTMB,25.6423,-80.4347,Miami,Miami-Dade,FL,33186.0
W-7405571,Rain,Light,2022-03-02 20:53:00+00:00,2022-03-02 21:53:00+00:00,0.0,US/Eastern,KTMB,25.6423,-80.4347,Miami,Miami-Dade,FL,33186.0
W-7405572,Rain,Light,2022-03-03 11:53:00+00:00,2022-03-03 12:53:00+00:00,0.0,US/Eastern,KTMB,25.6423,-80.4347,Miami,Miami-Dade,FL,33186.0
W-7405573,Cold,Severe,2022-03-05 02:53:00+00:00,2022-03-05 18:53:00+00:00,0.0,US/Eastern,KTMB,25.6423,-80.4347,Miami,Miami-Dade,FL,33186.0
W-7405574,Rain,Light,2022-03-06 17:53:00+00:00,2022-03-06 19:15:00+00:00,0.0,US/Eastern,KTMB,25.6423,-80.4347,Miami,Miami-Dade,FL,33186.0
W-7405575,Rain,Light,2022-03-07 03:53:00+00:00,2022-03-07 04:53:00+00:00,0.0,US/Eastern,KTMB,25.6423,-80.4347,Miami,Miami-Dade,FL,33186.0
W-7405576,Rain,Light,2022-03-10 17:30:00+00:00,2022-03-10 18:53:00+00:00,0.01,US/Eastern,KTMB,25.6423,-80.4347,Miami,Miami-Dade,FL,33186.0
W-7405577,Fog,Severe,2022-03-11 07:21:00+00:00,2022-03-11 07:48:00+00:00,0.0,US/Eastern,KTMB,25.6423,-80.4347,Miami,Miami-Dade,FL,33186.0
W-7405578,Cold,Severe,2022-03-12 06:53:00+00:00,2022-03-12 15:53:00+00:00,0.0,US/Eastern,KTMB,25.6423,-80.4347,Miami,Miami-Dade,FL,33186.0
W-7405579,Rain,Light,2022-03-12 20:51:00+00:00,2022-03-12 21:17:00+00:00,0.0,US/Eastern,KTMB,25.6423,-80.4347,Miami,Miami-Dade,FL,33186.0
W-7405580,Rain,Light,2022-03-14 21:53:00+00:00,2022-03-14 22:00:00+00:00,0.0,US/Eastern,KTMB,25.6423,-80.4347,Miami,Miami-Dade,FL,33186.0
W-7405581,Rain,Light,2022-03-14 22:48:00+00:00,2022-03-14 23:53:00+00:00,0.0,US/Eastern,KTMB,25.6423,-80.4347,Miami,Miami-Dade,FL,33186.0
W-7405582,Rain,Light,2022-03-15 01:21:00+00:00,2022-03-15 01:38:00+00:00,0.0,US/Eastern,KTMB,25.6423,-80.4347,Miami,Miami-Dade,FL,33186.0
W-7405583,Rain,Light,2022-03-15 01:53:00+00:00,2022-03-15 06:50:00+00:00,0.09,US/Eastern,KTMB,25.6423,-80.4347,Miami,Miami-Dade,FL,33186.0
W-7405584,Rain,Light,2022-03-15 08:53:00+00:00,2022-03-15 09:53:00+00:00,0.03,US/Eastern,KTMB,25.6423,-80.4347,Miami,Miami-Dade,FL,33186.0
W-7405585,Rain,Light,2022-03-15 11:18:00+00:00,2022-03-15 11:36:00+00:00,0.0,US/Eastern,KTMB,25.6423,-80.4347,Miami,Miami-Dade,FL,33186.0
W-7405586,Rain,Light,2022-03-15 14:15:00+00:00,2022-03-15 14:32:00+00:00,0.0,US/Eastern,KTMB,25.6423,-80.4347,Miami,Miami-Dade,FL,33186.0
W-7405587,Rain,Light,2022-03-15 15:33:00+00:00,2022-03-15 15:53:00+00:00,0.01,US/Eastern,KTMB,25.6423,-80.4347,Miami,Miami-Dade,FL,33186.0
W-7405588,Rain,Light,2022-03-15 16:53:00+00:00,2022-03-15 17:51:00+00:00,0.03,US/Eastern,KTMB,25.6423,-80.4347,Miami,Miami-Dade,FL,33186.0
W-7405589,Rain,Light,2022-03-15 20:53:00+00:00,2022-03-15 21:53:00+00:00,0.08,US/Eastern,KTMB,25.6423,-80.4347,Miami,Miami-Dade,FL,33186.0
W-7405590,Fog,Severe,2022-03-17 07:40:00+00:00,2022-03-17 08:00:00+00:00,0.0,US/Eastern,KTMB,25.6423,-80.4347,Miami,Miami-Dade,FL,33186.0
W-7405591,Rain,Light,2022-03-17 17:53:00+00:00,2022-03-17 18:44:00+00:00,0.03,US/Eastern,KTMB,25.6423,-80.4347,Miami,Miami-Dade,FL,33186.0
W-7405592,Rain,Moderate,2022-03-17 18:44:00+00:00,2022-03-17 19:00:00+00:00,0.22,US/Eastern,KTMB,25.6423,-80.4347,Miami,Miami-Dade,FL,33186.0
W-7405593,Rain,Light,2022-03-17 19:00:00+00:00,2022-03-17 19:53:00+00:00,0.0,US/Eastern,KTMB,25.6423,-80.4347,Miami,Miami-Dade,FL,33186.0
W-7405594,Fog,Severe,2022-03-18 08:12:00+00:00,2022-03-18 08:28:00+00:00,0.0,US/Eastern,KTMB,25.6423,-80.4347,Miami,Miami-Dade,FL,33186.0
W-7405595,Fog,Severe,2022-03-18 08:42:00+00:00,2022-03-18 12:01:00+00:00,0.0,US/Eastern,KTMB,25.6423,-80.4347,Miami,Miami-Dade,FL,33186.0
W-7405596,Fog,Severe,2022-03-20 08:51:00+00:00,2022-03-20 09:05:00+00:00,0.0,US/Eastern,KTMB,25.6423,-80.4347,Miami,Miami-Dade,FL,33186.0
W-7405597,Rain,Light,2022-03-20 21:53:00+00:00,2022-03-20 22:18:00+00:00,0.0,US/Eastern,KTMB,25.6423,-80.4347,Miami,Miami-Dade,FL,33186.0
W-7405598,Rain,Light,2022-03-21 02:32:00+00:00,2022-03-21 03:53:00+00:00,0.02,US/Eastern,KTMB,25.6423,-80.4347,Miami,Miami-Dade,FL,33186.0
W-7405599,Rain,Light,2022-03-23 15:53:00+00:00,2022-03-23 16:53:00+00:00,0.0,US/Eastern,KTMB,25.6423,-80.4347,Miami,Miami-Dade,FL,33186.0
W-7405600,Rain,Light,2022-03-25 06:53:00+00:00,2022-03-25 07:53:00+00:00,0.01,US/Eastern,KTMB,25.6423,-80.4347,Miami,Miami-Dade,FL,33186.0
W-7405601,Precipitation,UNK,2022-03-25 09:06:00+00:00,2022-03-25 09:19:00+00:00,0.84,US/Eastern,KTMB,25.6423,-80.4347,Miami,Miami-Dade,FL,33186.0
W-7405602,Rain,Heavy,2022-03-25 09:19:00+00:00,2022-03-25 10:05:00+00:00,3.65,US/Eastern,KTMB,25.6423,-80.4347,Miami,Miami-Dade,FL,33186.0
W-7405603,Rain,Light,2022-03-25 10:05:00+00:00,2022-03-25 10:22:00+00:00,0.02,US/Eastern,KTMB,25.6423,-80.4347,Miami,Miami-Dade,FL,33186.0
W-7405604,Rain,Light,2022-03-31 09:53:00+00:00,2022-03-31 10:04:00+00:00,0.0,US/Eastern,KTMB,25.6423,-80.4347,Miami,Miami-Dade,FL,33186.0
W-7405605,Rain,Light,2022-03-31 16:53:00+00:00,2022-03-31 17:53:00+00:00,0.0,US/Eastern,KTMB,25.6423,-80.4347,Miami,Miami-Dade,FL,33186.0
W-7405606,Rain,Light,2022-04-03 07:53:00+00:00,2022-04-03 09:53:00+00:00,0.1,US/Eastern,KTMB,25.6423,-80.4347,Miami,Miami-Dade,FL,33186.0
W-7405607,Precipitation,UNK,2022-04-03 23:34:00+00:00,2022-04-04 00:00:00+00:00,0.8,US/Eastern,KTMB,25.6423,-80.4347,Miami,Miami-Dade,FL,33186.0
W-7405608,Rain,Light,2022-04-04 14:33:00+00:00,2022-04-04 14:53:00+00:00,0.0,US/Eastern,KTMB,25.6423,-80.4347,Miami,Miami-Dade,FL,33186.0
W-7405609,Rain,Light,2022-04-04 17:00:00+00:00,2022-04-04 17:17:00+00:00,0.0,US/Eastern,KTMB,25.6423,-80.4347,Miami,Miami-Dade,FL,33186.0
W-7405610,Rain,Light,2022-04-04 21:19:00+00:00,2022-04-04 21:38:00+00:00,0.0,US/Eastern,KTMB,25.6423,-80.4347,Miami,Miami-Dade,FL,33186.0
W-7405611,Rain,Light,2022-04-04 22:01:00+00:00,2022-04-04 23:53:00+00:00,0.0,US/Eastern,KTMB,25.6423,-80.4347,Miami,Miami-Dade,FL,33186.0
W-7405612,Rain,Light,2022-04-13 18:34:00+00:00,2022-04-13 18:41:00+00:00,0.0,US/Eastern,KTMB,25.6423,-80.4347,Miami,Miami-Dade,FL,33186.0
W-7405613,Rain,Heavy,2022-04-15 16:32:00+00:00,2022-04-15 16:57:00+00:00,1.87,US/Eastern,KTMB,25.6423,-80.4347,Miami,Miami-Dade,FL,33186.0
W-7405614,Rain,Light,2022-04-15 16:57:00+00:00,2022-04-15 18:45:00+00:00,0.08,US/Eastern,KTMB,25.6423,-80.4347,Miami,Miami-Dade,FL,33186.0
W-7405615,Precipitation,UNK,2022-04-15 18:45:00+00:00,2022-04-15 19:05:00+00:00,1.72,US/Eastern,KTMB,25.6423,-80.4347,Miami,Miami-Dade,FL,33186.0
W-7405616,Rain,Moderate,2022-04-15 19:05:00+00:00,2022-04-15 19:29:00+00:00,0.17,US/Eastern,KTMB,25.6423,-80.4347,Miami,Miami-Dade,FL,33186.0
W-7405617,Precipitation,UNK,2022-04-15 19:29:00+00:00,2022-04-15 20:53:00+00:00,1.02,US/Eastern,KTMB,25.6423,-80.4347,Miami,Miami-Dade,FL,33186.0
W-7405618,Rain,Light,2022-04-15 23:53:00+00:00,2022-04-16 01:29:00+00:00,0.01,US/Eastern,KTMB,25.6423,-80.4347,Miami,Miami-Dade,FL,33186.0
W-7405619,Rain,Light,2022-04-18 15:53:00+00:00,2022-04-18 16:53:00+00:00,0.0,US/Eastern,KTMB,25.6423,-80.4347,Miami,Miami-Dade,FL,33186.0
W-7405620,Rain,Light,2022-04-18 22:53:00+00:00,2022-04-18 23:53:00+00:00,0.01,US/Eastern,KTMB,25.6423,-80.4347,Miami,Miami-Dade,FL,33186.0
W-7405621,Precipitation,UNK,2022-04-18 23:53:00+00:00,2022-04-19 00:23:00+00:00,0.28,US/Eastern,KTMB,25.6423,-80.4347,Miami,Miami-Dade,FL,33186.0
W-7405622,Rain,Light,2022-04-22 08:53:00+00:00,2022-04-22 11:53:00+00:00,0.05,US/Eastern,KTMB,25.6423,-80.4347,Miami,Miami-Dade,FL,33186.0
W-7405623,Rain,Light,2022-04-22 20:53:00+00:00,2022-04-22 21:53:00+00:00,0.0,US/Eastern,KTMB,25.6423,-80.4347,Miami,Miami-Dade,FL,33186.0
W-7405624,Precipitation,UNK,2022-04-28 23:10:00+00:00,2022-04-28 23:53:00+00:00,0.21,US/Eastern,KTMB,25.6423,-80.4347,Miami,Miami-Dade,FL,33186.0
W-7405625,Rain,Heavy,2022-04-28 23:53:00+00:00,2022-04-29 00:53:00+00:00,0.71,US/Eastern,KTMB,25.6423,-80.4347,Miami,Miami-Dade,FL,33186.0
W-7405626,Precipitation,UNK,2022-04-29 00:53:00+00:00,2022-04-29 01:53:00+00:00,0.26,US/Eastern,KTMB,25.6423,-80.4347,Miami,Miami-Dade,FL,33186.0
W-7405627,Rain,Light,2022-04-29 03:53:00+00:00,2022-04-29 04:53:00+00:00,0.0,US/Eastern,KTMB,25.6423,-80.4347,Miami,Miami-Dade,FL,33186.0
W-7405628,Rain,Light,2022-04-30 13:23:00+00:00,2022-04-30 13:28:00+00:00,0.0,US/Eastern,KTMB,25.6423,-80.4347,Miami,Miami-Dade,FL,33186.0
W-7405629,Rain,Light,2022-04-30 13:48:00+00:00,2022-04-30 13:53:00+00:00,0.0,US/Eastern,KTMB,25.6423,-80.4347,Miami,Miami-Dade,FL,33186.0
W-7405630,Rain,Light,2022-05-01 10:53:00+00:00,2022-05-01 11:53:00+00:00,0.0,US/Eastern,KTMB,25.6423,-80.4347,Miami,Miami-Dade,FL,33186.0
W-7405631,Rain,Light,2022-05-03 12:20:00+00:00,2022-05-03 12:36:00+00:00,0.0,US/Eastern,KTMB,25.6423,-80.4347,Miami,Miami-Dade,FL,33186.0
W-7405632,Rain,Light,2022-05-05 03:51:00+00:00,2022-05-05 04:03:00+00:00,0.13,US/Eastern,KTMB,25.6423,-80.4347,Miami,Miami-Dade,FL,33186.0
W-7405633,Precipitation,UNK,2022-05-05 04:53:00+00:00,2022-05-05 05:53:00+00:00,0.19,US/Eastern,KTMB,25.6423,-80.4347,Miami,Miami-Dade,FL,33186.0
W-7405634,Rain,Moderate,2022-05-05 23:07:00+00:00,2022-05-05 23:53:00+00:00,0.11,US/Eastern,KTMB,25.6423,-80.4347,Miami,Miami-Dade,FL,33186.0
W-7405635,Precipitation,UNK,2022-05-05 23:53:00+00:00,2022-05-06 00:53:00+00:00,0.43,US/Eastern,KTMB,25.6423,-80.4347,Miami,Miami-Dade,FL,33186.0
W-7405636,Rain,Light,2022-05-06 05:53:00+00:00,2022-05-06 06:53:00+00:00,0.0,US/Eastern,KTMB,25.6423,-80.4347,Miami,Miami-Dade,FL,33186.0
W-7405637,Rain,Light,2022-05-06 13:53:00+00:00,2022-05-06 14:53:00+00:00,0.0,US/Eastern,KTMB,25.6423,-80.4347,Miami,Miami-Dade,FL,33186.0
W-7405638,Rain,Light,2022-05-06 20:53:00+00:00,2022-05-06 21:53:00+00:00,0.0,US/Eastern,KTMB,25.6423,-80.4347,Miami,Miami-Dade,FL,33186.0
W-7405639,Rain,Light,2022-05-12 22:40:00+00:00,2022-05-12 23:29:00+00:00,0.0,US/Eastern,KTMB,25.6423,-80.4347,Miami,Miami-Dade,FL,33186.0
W-7405640,Rain,Light,2022-05-13 00:53:00+00:00,2022-05-13 03:53:00+00:00,0.09,US/Eastern,KTMB,25.6423,-80.4347,Miami,Miami-Dade,FL,33186.0
W-7405641,Rain,Light,2022-05-13 18:53:00+00:00,2022-05-13 19:53:00+00:00,0.0,US/Eastern,KTMB,25.6423,-80.4347,Miami,Miami-Dade,FL,33186.0
W-7405642,Rain,Light,2022-05-13 20:53:00+00:00,2022-05-13 21:53:00+00:00,0.0,US/Eastern,KTMB,25.6423,-80.4347,Miami,Miami-Dade,FL,33186.0
W-7405643,Rain,Light,2022-05-14 08:53:00+00:00,2022-05-14 09:53:00+00:00,0.0,US/Eastern,KTMB,25.6423,-80.4347,Miami,Miami-Dade,FL,33186.0
W-7405644,Rain,Light,2022-05-14 20:53:00+00:00,2022-05-14 21:27:00+00:00,0.0,US/Eastern,KTMB,25.6423,-80.4347,Miami,Miami-Dade,FL,33186.0
W-7405645,Rain,Light,2022-05-14 21:46:00+00:00,2022-05-14 22:51:00+00:00,0.0,US/Eastern,KTMB,25.6423,-80.4347,Miami,Miami-Dade,FL,33186.0
W-7405646,Rain,Light,2022-05-14 23:06:00+00:00,2022-05-14 23:53:00+00:00,0.02,US/Eastern,KTMB,25.6423,-80.4347,Miami,Miami-Dade,FL,33186.0
W-7405647,Precipitation,UNK,2022-05-15 21:43:00+00:00,2022-05-15 21:53:00+00:00,0.31,US/Eastern,KTMB,25.6423,-80.4347,Miami,Miami-Dade,FL,33186.0
W-7405648,Rain,Heavy,2022-05-15 21:53:00+00:00,2022-05-15 22:25:00+00:00,0.33,US/Eastern,KTMB,25.6423,-80.4347,Miami,Miami-Dade,FL,33186.0
W-7405649,Rain,Light,2022-05-16 08:53:00+00:00,2022-05-16 09:53:00+00:00,0.0,US/Eastern,KTMB,25.6423,-80.4347,Miami,Miami-Dade,FL,33186.0
W-7405650,Rain,Light,2022-05-16 21:53:00+00:00,2022-05-16 23:53:00+00:00,0.0,US/Eastern,KTMB,25.6423,-80.4347,Miami,Miami-Dade,FL,33186.0
W-7405651,Rain,Light,2022-05-17 00:53:00+00:00,2022-05-17 01:53:00+00:00,0.01,US/Eastern,KTMB,25.6423,-80.4347,Miami,Miami-Dade,FL,33186.0
W-7405652,Rain,Light,2022-05-20 12:53:00+00:00,2022-05-20 13:53:00+00:00,0.0,US/Eastern,KTMB,25.6423,-80.4347,Miami,Miami-Dade,FL,33186.0
W-7405653,Rain,Light,2022-05-20 17:15:00+00:00,2022-05-20 17:53:00+00:00,0.0,US/Eastern,KTMB,25.6423,-80.4347,Miami,Miami-Dade,FL,33186.0
W-7405654,Rain,Light,2022-05-20 23:53:00+00:00,2022-05-21 00:53:00+00:00,0.0,US/Eastern,KTMB,25.6423,-80.4347,Miami,Miami-Dade,FL,33186.0
W-7405655,Rain,Light,2022-05-24 01:53:00+00:00,2022-05-24 02:53:00+00:00,0.05,US/Eastern,KTMB,25.6423,-80.4347,Miami,Miami-Dade,FL,33186.0
W-7405656,Rain,Moderate,2022-05-24 02:53:00+00:00,2022-05-24 03:53:00+00:00,0.25,US/Eastern,KTMB,25.6423,-80.4347,Miami,Miami-Dade,FL,33186.0
W-7405657,Rain,Light,2022-05-24 14:53:00+00:00,2022-05-24 15:13:00+00:00,0.0,US/Eastern,KTMB,25.6423,-80.4347,Miami,Miami-Dade,FL,33186.0
W-7405658,Rain,Light,2022-05-26 08:33:00+00:00,2022-05-26 09:32:00+00:00,0.0,US/Eastern,KTMB,25.6423,-80.4347,Miami,Miami-Dade,FL,33186.0
W-7405659,Rain,Light,2022-05-27 12:40:00+00:00,2022-05-27 14:08:00+00:00,0.0,US/Eastern,KTMB,25.6423,-80.4347,Miami,Miami-Dade,FL,33186.0
W-7405660,Rain,Light,2022-05-27 14:19:00+00:00,2022-05-27 14:45:00+00:00,0.01,US/Eastern,KTMB,25.6423,-80.4347,Miami,Miami-Dade,FL,33186.0
W-7405661,Rain,Light,2022-05-28 21:53:00+00:00,2022-05-28 22:53:00+00:00,0.0,US/Eastern,KTMB,25.6423,-80.4347,Miami,Miami-Dade,FL,33186.0
W-7405662,Precipitation,UNK,2022-05-29 01:38:00+00:00,2022-05-29 01:58:00+00:00,2.71,US/Eastern,KTMB,25.6423,-80.4347,Miami,Miami-Dade,FL,33186.0
W-7405663,Rain,Light,2022-05-29 02:11:00+00:00,2022-05-29 02:25:00+00:00,0.02,US/Eastern,KTMB,25.6423,-80.4347,Miami,Miami-Dade,FL,33186.0
W-7405664,Rain,Light,2022-05-29 10:53:00+00:00,2022-05-29 11:53:00+00:00,0.06,US/Eastern,KTMB,25.6423,-80.4347,Miami,Miami-Dade,FL,33186.0
W-7405665,Rain,Light,2022-05-29 15:53:00+00:00,2022-05-29 16:02:00+00:00,0.01,US/Eastern,KTMB,25.6423,-80.4347,Miami,Miami-Dade,FL,33186.0
W-7405666,Rain,Light,2022-05-29 16:38:00+00:00,2022-05-29 16:53:00+00:00,0.0,US/Eastern,KTMB,25.6423,-80.4347,Miami,Miami-Dade,FL,33186.0
W-7405667,Rain,Moderate,2022-05-29 19:48:00+00:00,2022-05-29 19:51:00+00:00,0.16,US/Eastern,KTMB,25.6423,-80.4347,Miami,Miami-Dade,FL,33186.0
W-7405668,Rain,Heavy,2022-05-29 19:51:00+00:00,2022-05-29 20:04:00+00:00,0.71,US/Eastern,KTMB,25.6423,-80.4347,Miami,Miami-Dade,FL,33186.0
W-7405669,Precipitation,UNK,2022-05-29 20:18:00+00:00,2022-05-29 21:53:00+00:00,1.37,US/Eastern,KTMB,25.6423,-80.4347,Miami,Miami-Dade,FL,33186.0
W-7405670,Rain,Heavy,2022-05-29 21:53:00+00:00,2022-05-29 22:00:00+00:00,0.6,US/Eastern,KTMB,25.6423,-80.4347,Miami,Miami-Dade,FL,33186.0
W-7405671,Rain,Light,2022-05-29 22:00:00+00:00,2022-05-29 22:28:00+00:00,0.0,US/Eastern,KTMB,25.6423,-80.4347,Miami,Miami-Dade,FL,33186.0
W-7405672,Rain,Light,2022-05-30 20:13:00+00:00,2022-05-30 20:53:00+00:00,0.0,US/Eastern,KTMB,25.6423,-80.4347,Miami,Miami-Dade,FL,33186.0
W-7405673,Rain,Moderate,2022-05-30 21:38:00+00:00,2022-05-30 21:48:00+00:00,0.11,US/Eastern,KTMB,25.6423,-80.4347,Miami,Miami-Dade,FL,33186.0
W-7405674,Rain,Light,2022-05-30 22:01:00+00:00,2022-05-30 23:53:00+00:00,0.07,US/Eastern,KTMB,25.6423,-80.4347,Miami,Miami-Dade,FL,33186.0
W-7405675,Rain,Light,2022-05-31 10:53:00+00:00,2022-05-31 11:53:00+00:00,0.0,US/Eastern,KTMB,25.6423,-80.4347,Miami,Miami-Dade,FL,33186.0
W-7405676,Rain,Light,2022-05-31 20:31:00+00:00,2022-05-31 22:53:00+00:00,0.02,US/Eastern,KTMB,25.6423,-80.4347,Miami,Miami-Dade,FL,33186.0
W-7405677,Rain,Moderate,2022-06-02 20:38:00+00:00,2022-06-02 20:44:00+00:00,0.34,US/Eastern,KTMB,25.6423,-80.4347,Miami,Miami-Dade,FL,33186.0
W-7405678,Rain,Heavy,2022-06-02 20:44:00+00:00,2022-06-02 21:00:00+00:00,1.02,US/Eastern,KTMB,25.6423,-80.4347,Miami,Miami-Dade,FL,33186.0
W-7405679,Rain,Light,2022-06-02 21:00:00+00:00,2022-06-02 21:19:00+00:00,0.1,US/Eastern,KTMB,25.6423,-80.4347,Miami,Miami-Dade,FL,33186.0
W-7405680,Rain,Moderate,2022-06-02 21:19:00+00:00,2022-06-02 22:53:00+00:00,0.54,US/Eastern,KTMB,25.6423,-80.4347,Miami,Miami-Dade,FL,33186.0
W-7405681,Rain,Light,2022-06-03 06:21:00+00:00,2022-06-03 07:21:00+00:00,0.09,US/Eastern,KTMB,25.6423,-80.4347,Miami,Miami-Dade,FL,33186.0
W-7405682,Rain,Moderate,2022-06-03 07:21:00+00:00,2022-06-03 08:53:00+00:00,0.56,US/Eastern,KTMB,25.6423,-80.4347,Miami,Miami-Dade,FL,33186.0
W-7405683,Rain,Light,2022-06-03 08:53:00+00:00,2022-06-03 09:53:00+00:00,0.04,US/Eastern,KTMB,25.6423,-80.4347,Miami,Miami-Dade,FL,33186.0
W-7405684,Rain,Light,2022-06-03 10:20:00+00:00,2022-06-03 15:53:00+00:00,0.38,US/Eastern,KTMB,25.6423,-80.4347,Miami,Miami-Dade,FL,33186.0
W-7405685,Rain,Heavy,2022-06-03 15:53:00+00:00,2022-06-03 16:00:00+00:00,0.33,US/Eastern,KTMB,25.6423,-80.4347,Miami,Miami-Dade,FL,33186.0
W-7405686,Rain,Light,2022-06-03 16:00:00+00:00,2022-06-03 16:08:00+00:00,0.05,US/Eastern,KTMB,25.6423,-80.4347,Miami,Miami-Dade,FL,33186.0
W-7405687,Rain,Moderate,2022-06-03 16:08:00+00:00,2022-06-03 16:53:00+00:00,0.64,US/Eastern,KTMB,25.6423,-80.4347,Miami,Miami-Dade,FL,33186.0
W-7405688,Rain,Heavy,2022-06-03 16:53:00+00:00,2022-06-03 17:53:00+00:00,0.32,US/Eastern,KTMB,25.6423,-80.4347,Miami,Miami-Dade,FL,33186.0
W-7405689,Rain,Light,2022-06-03 17:53:00+00:00,2022-06-03 18:17:00+00:00,0.15,US/Eastern,KTMB,25.6423,-80.4347,Miami,Miami-Dade,FL,33186.0
W-7405690,Rain,Moderate,2022-06-03 18:17:00+00:00,2022-06-03 18:42:00+00:00,0.44,US/Eastern,KTMB,25.6423,-80.4347,Miami,Miami-Dade,FL,33186.0
W-7405691,Rain,Heavy,2022-06-03 18:42:00+00:00,2022-06-03 19:03:00+00:00,0.61,US/Eastern,KTMB,25.6423,-80.4347,Miami,Miami-Dade,FL,33186.0
W-7405692,Rain,Light,2022-06-03 19:03:00+00:00,2022-06-04 01:53:00+00:00,0.35,US/Eastern,KTMB,25.6423,-80.4347,Miami,Miami-Dade,FL,33186.0
W-7405693,Rain,Moderate,2022-06-04 01:53:00+00:00,2022-06-04 02:53:00+00:00,0.17,US/Eastern,KTMB,25.6423,-80.4347,Miami,Miami-Dade,FL,33186.0
W-7405694,Rain,Heavy,2022-06-04 02:53:00+00:00,2022-06-04 03:40:00+00:00,0.33,US/Eastern,KTMB,25.6423,-80.4347,Miami,Miami-Dade,FL,33186.0
W-7405695,Rain,Moderate,2022-06-04 03:40:00+00:00,2022-06-04 04:05:00+00:00,0.42,US/Eastern,KTMB,25.6423,-80.4347,Miami,Miami-Dade,FL,33186.0
W-7405696,Rain,Light,2022-06-04 04:05:00+00:00,2022-06-04 04:53:00+00:00,0.05,US/Eastern,KTMB,25.6423,-80.4347,Miami,Miami-Dade,FL,33186.0
W-7405697,Rain,Moderate,2022-06-04 04:53:00+00:00,2022-06-04 05:21:00+00:00,0.15,US/Eastern,KTMB,25.6423,-80.4347,Miami,Miami-Dade,FL,33186.0
W-7405698,Rain,Heavy,2022-06-04 05:21:00+00:00,2022-06-04 06:55:00+00:00,4.98,US/Eastern,KTMB,25.6423,-80.4347,Miami,Miami-Dade,FL,33186.0
W-7405699,Rain,Light,2022-06-04 06:55:00+00:00,2022-06-04 07:13:00+00:00,0.08,US/Eastern,KTMB,25.6423,-80.4347,Miami,Miami-Dade,FL,33186.0
W-7405700,Rain,Moderate,2022-06-04 07:13:00+00:00,2022-06-04 07:35:00+00:00,0.2,US/Eastern,KTMB,25.6423,-80.4347,Miami,Miami-Dade,FL,33186.0
W-7405701,Rain,Heavy,2022-06-04 07:35:00+00:00,2022-06-04 07:55:00+00:00,2.0,US/Eastern,KTMB,25.6423,-80.4347,Miami,Miami-Dade,FL,33186.0
W-7405702,Rain,Moderate,2022-06-04 07:55:00+00:00,2022-06-04 08:04:00+00:00,0.1,US/Eastern,KTMB,25.6423,-80.4347,Miami,Miami-Dade,FL,33186.0
W-7405703,Rain,Heavy,2022-06-04 08:04:00+00:00,2022-06-04 08:57:00+00:00,5.61,US/Eastern,KTMB,25.6423,-80.4347,Miami,Miami-Dade,FL,33186.0
W-7405704,Rain,Light,2022-06-04 08:57:00+00:00,2022-06-04 10:29:00+00:00,0.18,US/Eastern,KTMB,25.6423,-80.4347,Miami,Miami-Dade,FL,33186.0
W-7405705,Rain,Moderate,2022-06-04 10:29:00+00:00,2022-06-04 10:53:00+00:00,0.35,US/Eastern,KTMB,25.6423,-80.4347,Miami,Miami-Dade,FL,33186.0
W-7405706,Rain,Heavy,2022-06-04 10:53:00+00:00,2022-06-04 10:58:00+00:00,0.38,US/Eastern,KTMB,25.6423,-80.4347,Miami,Miami-Dade,FL,33186.0
W-7405707,Rain,Light,2022-06-04 10:58:00+00:00,2022-06-04 11:38:00+00:00,0.08,US/Eastern,KTMB,25.6423,-80.4347,Miami,Miami-Dade,FL,33186.0
W-7405708,Rain,Heavy,2022-06-04 11:38:00+00:00,2022-06-04 12:00:00+00:00,0.65,US/Eastern,KTMB,25.6423,-80.4347,Miami,Miami-Dade,FL,33186.0
W-7405709,Rain,Light,2022-06-04 12:00:00+00:00,2022-06-04 12:12:00+00:00,0.0,US/Eastern,KTMB,25.6423,-80.4347,Miami,Miami-Dade,FL,33186.0
W-7405710,Rain,Light,2022-06-04 12:37:00+00:00,2022-06-04 12:53:00+00:00,0.01,US/Eastern,KTMB,25.6423,-80.4347,Miami,Miami-Dade,FL,33186.0
W-7405711,Rain,Light,2022-06-04 13:53:00+00:00,2022-06-04 14:25:00+00:00,0.09,US/Eastern,KTMB,25.6423,-80.4347,Miami,Miami-Dade,FL,33186.0
W-7405712,Rain,Light,2022-06-04 16:05:00+00:00,2022-06-04 16:30:00+00:00,0.01,US/Eastern,KTMB,25.6423,-80.4347,Miami,Miami-Dade,FL,33186.0
W-7405713,Precipitation,UNK,2022-06-04 16:50:00+00:00,2022-06-04 17:53:00+00:00,6.48,US/Eastern,KTMB,25.6423,-80.4347,Miami,Miami-Dade,FL,33186.0
W-7405714,Rain,Heavy,2022-06-04 17:53:00+00:00,2022-06-04 18:00:00+00:00,1.07,US/Eastern,KTMB,25.6423,-80.4347,Miami,Miami-Dade,FL,33186.0
W-7405715,Rain,Light,2022-06-04 18:00:00+00:00,2022-06-04 18:53:00+00:00,0.0,US/Eastern,KTMB,25.6423,-80.4347,Miami,Miami-Dade,FL,33186.0
W-7405716,Rain,Light,2022-06-05 02:39:00+00:00,2022-06-05 02:50:00+00:00,0.01,US/Eastern,KTMB,25.6423,-80.4347,Miami,Miami-Dade,FL,33186.0
W-7405717,Rain,Moderate,2022-06-05 02:50:00+00:00,2022-06-05 03:11:00+00:00,0.33,US/Eastern,KTMB,25.6423,-80.4347,Miami,Miami-Dade,FL,33186.0
W-7405718,Rain,Light,2022-06-05 03:11:00+00:00,2022-06-05 04:07:00+00:00,0.11,US/Eastern,KTMB,25.6423,-80.4347,Miami,Miami-Dade,FL,33186.0
W-7405719,Rain,Light,2022-06-06 16:53:00+00:00,2022-06-06 16:59:00+00:00,0.0,US/Eastern,KTMB,25.6423,-80.4347,Miami,Miami-Dade,FL,33186.0
W-7405720,Rain,Moderate,2022-06-06 16:59:00+00:00,2022-06-06 17:02:00+00:00,0.21,US/Eastern,KTMB,25.6423,-80.4347,Miami,Miami-Dade,FL,33186.0
W-7405721,Rain,Heavy,2022-06-06 17:02:00+00:00,2022-06-06 17:06:00+00:00,0.47,US/Eastern,KTMB,25.6423,-80.4347,Miami,Miami-Dade,FL,33186.0
W-7405722,Precipitation,UNK,2022-06-06 17:06:00+00:00,2022-06-06 17:29:00+00:00,1.97,US/Eastern,KTMB,25.6423,-80.4347,Miami,Miami-Dade,FL,33186.0
W-7405723,Rain,Heavy,2022-06-06 17:29:00+00:00,2022-06-06 17:48:00+00:00,0.68,US/Eastern,KTMB,25.6423,-80.4347,Miami,Miami-Dade,FL,33186.0
W-7405724,Precipitation,UNK,2022-06-06 17:48:00+00:00,2022-06-06 18:36:00+00:00,1.36,US/Eastern,KTMB,25.6423,-80.4347,Miami,Miami-Dade,FL,33186.0
W-7405725,Precipitation,UNK,2022-06-06 18:46:00+00:00,2022-06-06 20:53:00+00:00,5.85,US/Eastern,KTMB,25.6423,-80.4347,Miami,Miami-Dade,FL,33186.0
W-7405726,Rain,Light,2022-06-06 21:38:00+00:00,2022-06-06 22:53:00+00:00,0.0,US/Eastern,KTMB,25.6423,-80.4347,Miami,Miami-Dade,FL,33186.0
W-7405727,Rain,Moderate,2022-06-07 05:53:00+00:00,2022-06-07 06:00:00+00:00,0.11,US/Eastern,KTMB,25.6423,-80.4347,Miami,Miami-Dade,FL,33186.0
W-7405728,Rain,Light,2022-06-07 06:00:00+00:00,2022-06-07 06:29:00+00:00,0.01,US/Eastern,KTMB,25.6423,-80.4347,Miami,Miami-Dade,FL,33186.0
W-7405729,Rain,Light,2022-06-07 06:38:00+00:00,2022-06-07 06:46:00+00:00,0.02,US/Eastern,KTMB,25.6423,-80.4347,Miami,Miami-Dade,FL,33186.0
W-7405730,Rain,Light,2022-06-07 07:44:00+00:00,2022-06-07 08:38:00+00:00,0.02,US/Eastern,KTMB,25.6423,-80.4347,Miami,Miami-Dade,FL,33186.0
W-7405731,Rain,Light,2022-06-07 16:53:00+00:00,2022-06-07 17:53:00+00:00,0.0,US/Eastern,KTMB,25.6423,-80.4347,Miami,Miami-Dade,FL,33186.0
W-7405732,Precipitation,UNK,2022-06-07 18:56:00+00:00,2022-06-07 19:11:00+00:00,0.22,US/Eastern,KTMB,25.6423,-80.4347,Miami,Miami-Dade,FL,33186.0
W-7405733,Rain,Heavy,2022-06-07 19:11:00+00:00,2022-06-07 19:33:00+00:00,1.16,US/Eastern,KTMB,25.6423,-80.4347,Miami,Miami-Dade,FL,33186.0
W-7405734,Precipitation,UNK,2022-06-07 19:33:00+00:00,2022-06-07 20:19:00+00:00,1.19,US/Eastern,KTMB,25.6423,-80.4347,Miami,Miami-Dade,FL,33186.0
W-7405735,Rain,Light,2022-06-07 20:19:00+00:00,2022-06-07 21:31:00+00:00,0.12,US/Eastern,KTMB,25.6423,-80.4347,Miami,Miami-Dade,FL,33186.0
W-7405736,Rain,Light,2022-06-07 21:53:00+00:00,2022-06-08 00:53:00+00:00,0.14,US/Eastern,KTMB,25.6423,-80.4347,Miami,Miami-Dade,FL,33186.0
W-7405737,Rain,Light,2022-06-09 20:08:00+00:00,2022-06-09 20:17:00+00:00,0.05,US/Eastern,KTMB,25.6423,-80.4347,Miami,Miami-Dade,FL,33186.0
W-7405738,Precipitation,UNK,2022-06-09 20:17:00+00:00,2022-06-09 21:00:00+00:00,0.67,US/Eastern,KTMB,25.6423,-80.4347,Miami,Miami-Dade,FL,33186.0
W-7405739,Rain,Light,2022-06-09 21:13:00+00:00,2022-06-09 21:39:00+00:00,0.02,US/Eastern,KTMB,25.6423,-80.4347,Miami,Miami-Dade,FL,33186.0
W-7405740,Rain,Light,2022-06-09 22:04:00+00:00,2022-06-09 22:53:00+00:00,0.03,US/Eastern,KTMB,25.6423,-80.4347,Miami,Miami-Dade,FL,33186.0
W-7405741,Precipitation,UNK,2022-06-10 17:53:00+00:00,2022-06-10 19:20:00+00:00,1.4,US/Eastern,KTMB,25.6423,-80.4347,Miami,Miami-Dade,FL,33186.0
W-7405742,Rain,Light,2022-06-10 20:48:00+00:00,2022-06-10 23:53:00+00:00,0.18,US/Eastern,KTMB,25.6423,-80.4347,Miami,Miami-Dade,FL,33186.0
W-7405743,Rain,Light,2022-06-11 06:53:00+00:00,2022-06-11 07:53:00+00:00,0.0,US/Eastern,KTMB,25.6423,-80.4347,Miami,Miami-Dade,FL,33186.0
W-7405744,Precipitation,UNK,2022-06-11 19:43:00+00:00,2022-06-11 19:53:00+00:00,0.9,US/Eastern,KTMB,25.6423,-80.4347,Miami,Miami-Dade,FL,33186.0
W-7405745,Rain,Heavy,2022-06-11 19:53:00+00:00,2022-06-11 19:57:00+00:00,0.7,US/Eastern,KTMB,25.6423,-80.4347,Miami,Miami-Dade,FL,33186.0
W-7405746,Rain,Light,2022-06-11 19:57:00+00:00,2022-06-11 20:04:00+00:00,0.08,US/Eastern,KTMB,25.6423,-80.4347,Miami,Miami-Dade,FL,33186.0
W-7405747,Precipitation,UNK,2022-06-11 20:04:00+00:00,2022-06-11 20:28:00+00:00,0.92,US/Eastern,KTMB,25.6423,-80.4347,Miami,Miami-Dade,FL,33186.0
W-7405748,Rain,Heavy,2022-06-11 20:28:00+00:00,2022-06-11 20:53:00+00:00,1.36,US/Eastern,KTMB,25.6423,-80.4347,Miami,Miami-Dade,FL,33186.0
W-7405749,Precipitation,UNK,2022-06-11 20:53:00+00:00,2022-06-11 21:31:00+00:00,0.69,US/Eastern,KTMB,25.6423,-80.4347,Miami,Miami-Dade,FL,33186.0
W-7405750,Rain,Light,2022-06-11 22:22:00+00:00,2022-06-11 22:53:00+00:00,0.0,US/Eastern,KTMB,25.6423,-80.4347,Miami,Miami-Dade,FL,33186.0
W-7405751,Cold,Severe,2022-06-11 22:53:00+00:00,2022-06-12 14:34:00+00:00,0.0,US/Eastern,KTMB,25.6423,-80.4347,Miami,Miami-Dade,FL,33186.0
W-7405752,Rain,Light,2022-06-14 15:53:00+00:00,2022-06-14 16:08:00+00:00,0.06,US/Eastern,KTMB,25.6423,-80.4347,Miami,Miami-Dade,FL,33186.0
W-7405753,Rain,Light,2022-06-15 11:53:00+00:00,2022-06-15 12:53:00+00:00,0.0,US/Eastern,KTMB,25.6423,-80.4347,Miami,Miami-Dade,FL,33186.0
W-7405754,Rain,Light,2022-06-15 14:53:00+00:00,2022-06-15 15:53:00+00:00,0.0,US/Eastern,KTMB,25.6423,-80.4347,Miami,Miami-Dade,FL,33186.0
W-7405755,Rain,Light,2022-06-17 13:46:00+00:00,2022-06-17 13:53:00+00:00,0.0,US/Eastern,KTMB,25.6423,-80.4347,Miami,Miami-Dade,FL,33186.0
W-7405756,Cold,Severe,2022-06-18 08:53:00+00:00,2022-06-18 19:41:00+00:00,0.0,US/Eastern,KTMB,25.6423,-80.4347,Miami,Miami-Dade,FL,33186.0
W-7405757,Rain,Light,2022-06-19 04:04:00+00:00,2022-06-19 04:53:00+00:00,0.0,US/Eastern,KTMB,25.6423,-80.4347,Miami,Miami-Dade,FL,33186.0
W-7405758,Rain,Light,2022-06-20 18:05:00+00:00,2022-06-20 18:12:00+00:00,0.0,US/Eastern,KTMB,25.6423,-80.4347,Miami,Miami-Dade,FL,33186.0
W-7405759,Precipitation,UNK,2022-06-20 18:12:00+00:00,2022-06-20 18:34:00+00:00,3.05,US/Eastern,KTMB,25.6423,-80.4347,Miami,Miami-Dade,FL,33186.0
W-7405760,Rain,Heavy,2022-06-20 18:34:00+00:00,2022-06-20 18:40:00+00:00,1.01,US/Eastern,KTMB,25.6423,-80.4347,Miami,Miami-Dade,FL,33186.0
W-7405761,Precipitation,UNK,2022-06-20 18:40:00+00:00,2022-06-20 18:53:00+00:00,1.02,US/Eastern,KTMB,25.6423,-80.4347,Miami,Miami-Dade,FL,33186.0
W-7405762,Rain,Heavy,2022-06-20 18:53:00+00:00,2022-06-20 19:23:00+00:00,1.05,US/Eastern,KTMB,25.6423,-80.4347,Miami,Miami-Dade,FL,33186.0
W-7405763,Rain,Light,2022-06-25 19:53:00+00:00,2022-06-25 20:19:00+00:00,0.0,US/Eastern,KTMB,25.6423,-80.4347,Miami,Miami-Dade,FL,33186.0
W-7405764,Rain,Light,2022-06-25 21:49:00+00:00,2022-06-25 23:53:00+00:00,0.18,US/Eastern,KTMB,25.6423,-80.4347,Miami,Miami-Dade,FL,33186.0
W-7405765,Rain,Light,2022-06-27 19:53:00+00:00,2022-06-27 20:39:00+00:00,0.04,US/Eastern,KTMB,25.6423,-80.4347,Miami,Miami-Dade,FL,33186.0
W-7405766,Rain,Light,2022-06-29 18:53:00+00:00,2022-06-29 19:49:00+00:00,0.0,US/Eastern,KTMB,25.6423,-80.4347,Miami,Miami-Dade,FL,33186.0
W-7405767,Rain,Light,2022-06-29 23:53:00+00:00,2022-06-30 00:53:00+00:00,0.05,US/Eastern,KTMB,25.6423,-80.4347,Miami,Miami-Dade,FL,33186.0
W-7405768,Rain,Light,2022-07-03 11:53:00+00:00,2022-07-03 12:53:00+00:00,0.0,US/Eastern,KTMB,25.6423,-80.4347,Miami,Miami-Dade,FL,33186.0
W-7405769,Rain,Light,2022-07-06 01:53:00+00:00,2022-07-06 02:53:00+00:00,0.01,US/Eastern,KTMB,25.6423,-80.4347,Miami,Miami-Dade,FL,33186.0
W-7405770,Rain,Light,2022-07-06 10:53:00+00:00,2022-07-06 11:53:00+00:00,0.05,US/Eastern,KTMB,25.6423,-80.4347,Miami,Miami-Dade,FL,33186.0
W-7405771,Rain,Light,2022-07-06 13:53:00+00:00,2022-07-06 14:53:00+00:00,0.0,US/Eastern,KTMB,25.6423,-80.4347,Miami,Miami-Dade,FL,33186.0
W-7405772,Rain,Light,2022-07-06 17:15:00+00:00,2022-07-06 17:23:00+00:00,0.02,US/Eastern,KTMB,25.6423,-80.4347,Miami,Miami-Dade,FL,33186.0
W-7405773,Rain,Moderate,2022-07-06 17:23:00+00:00,2022-07-06 17:34:00+00:00,0.22,US/Eastern,KTMB,25.6423,-80.4347,Miami,Miami-Dade,FL,33186.0
W-7405774,Rain,Heavy,2022-07-06 17:34:00+00:00,2022-07-06 17:53:00+00:00,0.29,US/Eastern,KTMB,25.6423,-80.4347,Miami,Miami-Dade,FL,33186.0
W-7405775,Precipitation,UNK,2022-07-06 17:53:00+00:00,2022-07-06 18:05:00+00:00,0.3,US/Eastern,KTMB,25.6423,-80.4347,Miami,Miami-Dade,FL,33186.0
W-7405776,Rain,Light,2022-07-06 23:00:00+00:00,2022-07-06 23:30:00+00:00,0.0,US/Eastern,KTMB,25.6423,-80.4347,Miami,Miami-Dade,FL,33186.0
W-7405777,Rain,Moderate,2022-07-06 23:30:00+00:00,2022-07-06 23:53:00+00:00,0.43,US/Eastern,KTMB,25.6423,-80.4347,Miami,Miami-Dade,FL,33186.0
W-7405778,Precipitation,UNK,2022-07-06 23:53:00+00:00,2022-07-07 00:53:00+00:00,0.23,US/Eastern,KTMB,25.6423,-80.4347,Miami,Miami-Dade,FL,33186.0
W-7405779,Rain,Light,2022-07-07 00:53:00+00:00,2022-07-07 01:53:00+00:00,0.04,US/Eastern,KTMB,25.6423,-80.4347,Miami,Miami-Dade,FL,33186.0
W-7405780,Rain,Light,2022-07-08 15:53:00+00:00,2022-07-08 16:53:00+00:00,0.02,US/Eastern,KTMB,25.6423,-80.4347,Miami,Miami-Dade,FL,33186.0
W-7405781,Rain,Light,2022-07-09 05:53:00+00:00,2022-07-09 06:53:00+00:00,0.01,US/Eastern,KTMB,25.6423,-80.4347,Miami,Miami-Dade,FL,33186.0
W-7405782,Rain,Light,2022-07-13 10:53:00+00:00,2022-07-13 11:53:00+00:00,0.0,US/Eastern,KTMB,25.6423,-80.4347,Miami,Miami-Dade,FL,33186.0
W-7405783,Rain,Light,2022-07-13 20:53:00+00:00,2022-07-13 21:14:00+00:00,0.0,US/Eastern,KTMB,25.6423,-80.4347,Miami,Miami-Dade,FL,33186.0
W-7405784,Rain,Light,2022-07-13 21:33:00+00:00,2022-07-14 00:53:00+00:00,0.0,US/Eastern,KTMB,25.6423,-80.4347,Miami,Miami-Dade,FL,33186.0
W-7405785,Rain,Light,2022-07-14 01:53:00+00:00,2022-07-14 04:53:00+00:00,0.0,US/Eastern,KTMB,25.6423,-80.4347,Miami,Miami-Dade,FL,33186.0
W-7405786,Rain,Light,2022-07-14 07:19:00+00:00,2022-07-14 07:53:00+00:00,0.0,US/Eastern,KTMB,25.6423,-80.4347,Miami,Miami-Dade,FL,33186.0
W-7405787,Rain,Moderate,2022-07-14 07:53:00+00:00,2022-07-14 08:53:00+00:00,0.15,US/Eastern,KTMB,25.6423,-80.4347,Miami,Miami-Dade,FL,33186.0
W-7405788,Rain,Light,2022-07-14 08:53:00+00:00,2022-07-14 09:53:00+00:00,0.0,US/Eastern,KTMB,25.6423,-80.4347,Miami,Miami-Dade,FL,33186.0
W-7405789,Rain,Light,2022-07-14 11:53:00+00:00,2022-07-14 13:53:00+00:00,0.0,US/Eastern,KTMB,25.6423,-80.4347,Miami,Miami-Dade,FL,33186.0
W-7405790,Precipitation,UNK,2022-07-15 07:23:00+00:00,2022-07-15 07:39:00+00:00,0.4,US/Eastern,KTMB,25.6423,-80.4347,Miami,Miami-Dade,FL,33186.0
W-7405791,Rain,Heavy,2022-07-15 07:39:00+00:00,2022-07-15 08:53:00+00:00,1.71,US/Eastern,KTMB,25.6423,-80.4347,Miami,Miami-Dade,FL,33186.0
W-7405792,Rain,Light,2022-07-15 14:53:00+00:00,2022-07-15 15:53:00+00:00,0.02,US/Eastern,KTMB,25.6423,-80.4347,Miami,Miami-Dade,FL,33186.0
W-7405793,Rain,Light,2022-07-16 02:01:00+00:00,2022-07-16 02:16:00+00:00,0.0,US/Eastern,KTMB,25.6423,-80.4347,Miami,Miami-Dade,FL,33186.0
W-7405794,Rain,Light,2022-07-16 17:08:00+00:00,2022-07-16 18:38:00+00:00,0.0,US/Eastern,KTMB,25.6423,-80.4347,Miami,Miami-Dade,FL,33186.0
W-7405795,Rain,Moderate,2022-07-16 18:38:00+00:00,2022-07-16 19:15:00+00:00,0.48,US/Eastern,KTMB,25.6423,-80.4347,Miami,Miami-Dade,FL,33186.0
W-7405796,Rain,Light,2022-07-16 19:38:00+00:00,2022-07-16 20:53:00+00:00,0.0,US/Eastern,KTMB,25.6423,-80.4347,Miami,Miami-Dade,FL,33186.0
W-7405797,Rain,Light,2022-07-16 23:53:00+00:00,2022-07-17 00:14:00+00:00,0.0,US/Eastern,KTMB,25.6423,-80.4347,Miami,Miami-Dade,FL,33186.0
W-7405798,Rain,Light,2022-07-17 00:24:00+00:00,2022-07-17 00:42:00+00:00,0.0,US/Eastern,KTMB,25.6423,-80.4347,Miami,Miami-Dade,FL,33186.0
W-7405799,Rain,Light,2022-07-17 11:53:00+00:00,2022-07-17 12:53:00+00:00,0.0,US/Eastern,KTMB,25.6423,-80.4347,Miami,Miami-Dade,FL,33186.0
W-7405800,Fog,Moderate,2022-07-19 00:53:00+00:00,2022-07-19 22:53:00+00:00,0.0,US/Eastern,KTMB,25.6423,-80.4347,Miami,Miami-Dade,FL,33186.0
W-7405801,Rain,Light,2022-07-22 03:53:00+00:00,2022-07-22 04:53:00+00:00,0.0,US/Eastern,KTMB,25.6423,-80.4347,Miami,Miami-Dade,FL,33186.0
W-7405802,Rain,Light,2022-07-22 12:48:00+00:00,2022-07-22 12:53:00+00:00,0.04,US/Eastern,KTMB,25.6423,-80.4347,Miami,Miami-Dade,FL,33186.0
W-7405803,Rain,Moderate,2022-07-22 12:53:00+00:00,2022-07-22 13:06:00+00:00,0.12,US/Eastern,KTMB,25.6423,-80.4347,Miami,Miami-Dade,FL,33186.0
W-7405804,Rain,Light,2022-07-22 16:44:00+00:00,2022-07-22 17:10:00+00:00,0.04,US/Eastern,KTMB,25.6423,-80.4347,Miami,Miami-Dade,FL,33186.0
W-7405805,Rain,Light,2022-07-23 02:53:00+00:00,2022-07-23 03:53:00+00:00,0.0,US/Eastern,KTMB,25.6423,-80.4347,Miami,Miami-Dade,FL,33186.0
W-7405806,Rain,Light,2022-07-24 14:53:00+00:00,2022-07-24 15:53:00+00:00,0.03,US/Eastern,KTMB,25.6423,-80.4347,Miami,Miami-Dade,FL,33186.0
W-7405807,Rain,Light,2022-07-25 04:08:00+00:00,2022-07-25 05:53:00+00:00,0.0,US/Eastern,KTMB,25.6423,-80.4347,Miami,Miami-Dade,FL,33186.0
W-7405808,Rain,Light,2022-07-26 02:53:00+00:00,2022-07-26 03:53:00+00:00,0.01,US/Eastern,KTMB,25.6423,-80.4347,Miami,Miami-Dade,FL,33186.0
W-7405809,Rain,Light,2022-07-26 04:17:00+00:00,2022-07-26 04:38:00+00:00,0.0,US/Eastern,KTMB,25.6423,-80.4347,Miami,Miami-Dade,FL,33186.0
W-7405810,Rain,Light,2022-07-26 08:45:00+00:00,2022-07-26 08:53:00+00:00,0.01,US/Eastern,KTMB,25.6423,-80.4347,Miami,Miami-Dade,FL,33186.0
W-7405811,Precipitation,UNK,2022-07-26 09:15:00+00:00,2022-07-26 09:18:00+00:00,0.19,US/Eastern,KTMB,25.6423,-80.4347,Miami,Miami-Dade,FL,33186.0
W-7405812,Rain,Moderate,2022-07-26 09:18:00+00:00,2022-07-26 09:31:00+00:00,0.19,US/Eastern,KTMB,25.6423,-80.4347,Miami,Miami-Dade,FL,33186.0
W-7405813,Precipitation,UNK,2022-07-26 09:31:00+00:00,2022-07-26 09:53:00+00:00,0.2,US/Eastern,KTMB,25.6423,-80.4347,Miami,Miami-Dade,FL,33186.0
W-7405814,Rain,Moderate,2022-07-26 09:53:00+00:00,2022-07-26 10:53:00+00:00,0.2,US/Eastern,KTMB,25.6423,-80.4347,Miami,Miami-Dade,FL,33186.0
W-7405815,Rain,Light,2022-07-26 11:21:00+00:00,2022-07-26 12:01:00+00:00,0.11,US/Eastern,KTMB,25.6423,-80.4347,Miami,Miami-Dade,FL,33186.0
W-7405816,Rain,Light,2022-07-26 12:11:00+00:00,2022-07-26 12:40:00+00:00,0.08,US/Eastern,KTMB,25.6423,-80.4347,Miami,Miami-Dade,FL,33186.0
W-7405817,Rain,Moderate,2022-07-26 12:40:00+00:00,2022-07-26 13:53:00+00:00,0.24,US/Eastern,KTMB,25.6423,-80.4347,Miami,Miami-Dade,FL,33186.0
W-7405818,Rain,Light,2022-07-26 13:58:00+00:00,2022-07-26 14:38:00+00:00,0.0,US/Eastern,KTMB,25.6423,-80.4347,Miami,Miami-Dade,FL,33186.0
W-7405819,Rain,Light,2022-07-26 16:16:00+00:00,2022-07-26 16:24:00+00:00,0.03,US/Eastern,KTMB,25.6423,-80.4347,Miami,Miami-Dade,FL,33186.0
W-7405820,Rain,Moderate,2022-07-26 16:24:00+00:00,2022-07-26 16:53:00+00:00,0.1,US/Eastern,KTMB,25.6423,-80.4347,Miami,Miami-Dade,FL,33186.0
W-7405821,Precipitation,UNK,2022-07-26 18:53:00+00:00,2022-07-26 18:59:00+00:00,0.4,US/Eastern,KTMB,25.6423,-80.4347,Miami,Miami-Dade,FL,33186.0
W-7405822,Precipitation,UNK,2022-07-27 05:27:00+00:00,2022-07-27 06:01:00+00:00,4.83,US/Eastern,KTMB,25.6423,-80.4347,Miami,Miami-Dade,FL,33186.0
W-7405823,Rain,Light,2022-07-27 06:01:00+00:00,2022-07-27 06:21:00+00:00,0.0,US/Eastern,KTMB,25.6423,-80.4347,Miami,Miami-Dade,FL,33186.0
W-7405824,Rain,Light,2022-07-27 06:42:00+00:00,2022-07-27 09:53:00+00:00,0.03,US/Eastern,KTMB,25.6423,-80.4347,Miami,Miami-Dade,FL,33186.0
W-7405825,Rain,Light,2022-07-29 15:53:00+00:00,2022-07-29 16:53:00+00:00,0.0,US/Eastern,KTMB,25.6423,-80.4347,Miami,Miami-Dade,FL,33186.0
W-7405826,Rain,Light,2022-07-29 22:53:00+00:00,2022-07-29 23:53:00+00:00,0.0,US/Eastern,KTMB,25.6423,-80.4347,Miami,Miami-Dade,FL,33186.0
W-7405827,Rain,Light,2022-07-31 15:53:00+00:00,2022-07-31 16:53:00+00:00,0.0,US/Eastern,KTMB,25.6423,-80.4347,Miami,Miami-Dade,FL,33186.0
W-7405828,Rain,Light,2022-08-03 14:53:00+00:00,2022-08-03 15:46:00+00:00,0.0,US/Eastern,KTMB,25.6423,-80.4347,Miami,Miami-Dade,FL,33186.0
W-7405829,Rain,Moderate,2022-08-05 08:28:00+00:00,2022-08-05 08:53:00+00:00,0.52,US/Eastern,KTMB,25.6423,-80.4347,Miami,Miami-Dade,FL,33186.0
W-7405830,Precipitation,UNK,2022-08-05 08:53:00+00:00,2022-08-05 09:53:00+00:00,0.33,US/Eastern,KTMB,25.6423,-80.4347,Miami,Miami-Dade,FL,33186.0
W-7405831,Rain,Light,2022-08-06 11:53:00+00:00,2022-08-06 12:53:00+00:00,0.01,US/Eastern,KTMB,25.6423,-80.4347,Miami,Miami-Dade,FL,33186.0
W-7405832,Rain,Light,2022-08-06 15:53:00+00:00,2022-08-06 16:53:00+00:00,0.0,US/Eastern,KTMB,25.6423,-80.4347,Miami,Miami-Dade,FL,33186.0
W-7405833,Rain,Light,2022-08-07 04:34:00+00:00,2022-08-07 04:42:00+00:00,0.0,US/Eastern,KTMB,25.6423,-80.4347,Miami,Miami-Dade,FL,33186.0
W-7405834,Rain,Light,2022-08-07 05:10:00+00:00,2022-08-07 05:53:00+00:00,0.04,US/Eastern,KTMB,25.6423,-80.4347,Miami,Miami-Dade,FL,33186.0
W-7405835,Rain,Light,2022-08-07 10:22:00+00:00,2022-08-07 10:53:00+00:00,0.11,US/Eastern,KTMB,25.6423,-80.4347,Miami,Miami-Dade,FL,33186.0
W-7405836,Rain,Moderate,2022-08-07 10:53:00+00:00,2022-08-07 11:53:00+00:00,0.16,US/Eastern,KTMB,25.6423,-80.4347,Miami,Miami-Dade,FL,33186.0
W-7405837,Rain,Light,2022-08-08 10:53:00+00:00,2022-08-08 11:53:00+00:00,0.0,US/Eastern,KTMB,25.6423,-80.4347,Miami,Miami-Dade,FL,33186.0
W-7405838,Rain,Light,2022-08-09 14:53:00+00:00,2022-08-09 15:53:00+00:00,0.0,US/Eastern,KTMB,25.6423,-80.4347,Miami,Miami-Dade,FL,33186.0
W-7405839,Fog,Moderate,2022-08-09 22:53:00+00:00,2022-08-10 00:42:00+00:00,0.0,US/Eastern,KTMB,25.6423,-80.4347,Miami,Miami-Dade,FL,33186.0
W-7405840,Fog,Moderate,2022-08-10 01:11:00+00:00,2022-08-10 01:53:00+00:00,0.0,US/Eastern,KTMB,25.6423,-80.4347,Miami,Miami-Dade,FL,33186.0
W-7405841,Rain,Light,2022-08-14 21:53:00+00:00,2022-08-14 22:06:00+00:00,0.0,US/Eastern,KTMB,25.6423,-80.4347,Miami,Miami-Dade,FL,33186.0
W-7405842,Rain,Light,2022-08-14 22:33:00+00:00,2022-08-14 23:53:00+00:00,0.01,US/Eastern,KTMB,25.6423,-80.4347,Miami,Miami-Dade,FL,33186.0
W-7405843,Precipitation,UNK,2022-08-15 20:40:00+00:00,2022-08-15 21:48:00+00:00,3.94,US/Eastern,KTMB,25.6423,-80.4347,Miami,Miami-Dade,FL,33186.0
W-7405844,Rain,Heavy,2022-08-15 21:48:00+00:00,2022-08-15 22:53:00+00:00,0.76,US/Eastern,KTMB,25.6423,-80.4347,Miami,Miami-Dade,FL,33186.0
W-7405845,Rain,Light,2022-08-16 17:53:00+00:00,2022-08-16 18:53:00+00:00,0.0,US/Eastern,KTMB,25.6423,-80.4347,Miami,Miami-Dade,FL,33186.0
W-7405846,Rain,Moderate,2022-08-16 19:31:00+00:00,2022-08-16 20:18:00+00:00,0.2,US/Eastern,KTMB,25.6423,-80.4347,Miami,Miami-Dade,FL,33186.0
W-7405847,Rain,Light,2022-08-16 20:53:00+00:00,2022-08-16 22:05:00+00:00,0.01,US/Eastern,KTMB,25.6423,-80.4347,Miami,Miami-Dade,FL,33186.0
W-7405848,Rain,Light,2022-08-21 07:53:00+00:00,2022-08-21 08:53:00+00:00,0.0,US/Eastern,KTMB,25.6423,-80.4347,Miami,Miami-Dade,FL,33186.0
W-7405849,Rain,Light,2022-08-21 09:13:00+00:00,2022-08-21 09:53:00+00:00,0.0,US/Eastern,KTMB,25.6423,-80.4347,Miami,Miami-Dade,FL,33186.0
W-7405850,Rain,Light,2022-08-22 04:53:00+00:00,2022-08-22 05:40:00+00:00,0.06,US/Eastern,KTMB,25.6423,-80.4347,Miami,Miami-Dade,FL,33186.0
W-7405851,Rain,Light,2022-08-23 18:53:00+00:00,2022-08-23 19:53:00+00:00,0.0,US/Eastern,KTMB,25.6423,-80.4347,Miami,Miami-Dade,FL,33186.0
W-7405852,Rain,Light,2022-08-23 20:15:00+00:00,2022-08-23 20:41:00+00:00,0.0,US/Eastern,KTMB,25.6423,-80.4347,Miami,Miami-Dade,FL,33186.0
W-7405853,Rain,Light,2022-08-27 21:10:00+00:00,2022-08-27 21:53:00+00:00,0.0,US/Eastern,KTMB,25.6423,-80.4347,Miami,Miami-Dade,FL,33186.0
W-7405854,Rain,Light,2022-08-28 02:12:00+00:00,2022-08-28 02:42:00+00:00,0.01,US/Eastern,KTMB,25.6423,-80.4347,Miami,Miami-Dade,FL,33186.0
W-7405855,Rain,Light,2022-08-28 15:53:00+00:00,2022-08-28 17:53:00+00:00,0.0,US/Eastern,KTMB,25.6423,-80.4347,Miami,Miami-Dade,FL,33186.0
W-7405856,Rain,Light,2022-08-29 05:53:00+00:00,2022-08-29 06:53:00+00:00,0.02,US/Eastern,KTMB,25.6423,-80.4347,Miami,Miami-Dade,FL,33186.0
W-7405857,Rain,Light,2022-08-29 11:21:00+00:00,2022-08-29 11:53:00+00:00,0.07,US/Eastern,KTMB,25.6423,-80.4347,Miami,Miami-Dade,FL,33186.0
W-7405858,Rain,Moderate,2022-08-29 11:53:00+00:00,2022-08-29 13:00:00+00:00,0.51,US/Eastern,KTMB,25.6423,-80.4347,Miami,Miami-Dade,FL,33186.0
W-7405859,Rain,Light,2022-08-29 13:00:00+00:00,2022-08-29 14:53:00+00:00,0.04,US/Eastern,KTMB,25.6423,-80.4347,Miami,Miami-Dade,FL,33186.0
W-7405860,Rain,Moderate,2022-08-30 08:53:00+00:00,2022-08-30 09:53:00+00:00,0.23,US/Eastern,KTMB,25.6423,-80.4347,Miami,Miami-Dade,FL,33186.0
W-7405861,Rain,Moderate,2022-08-31 16:53:00+00:00,2022-08-31 17:26:00+00:00,0.12,US/Eastern,KTMB,25.6423,-80.4347,Miami,Miami-Dade,FL,33186.0
W-7405862,Precipitation,UNK,2022-08-31 18:49:00+00:00,2022-08-31 19:53:00+00:00,3.92,US/Eastern,KTMB,25.6423,-80.4347,Miami,Miami-Dade,FL,33186.0
W-7405863,Rain,Heavy,2022-08-31 19:53:00+00:00,2022-08-31 20:12:00+00:00,0.7,US/Eastern,KTMB,25.6423,-80.4347,Miami,Miami-Dade,FL,33186.0
W-7405864,Rain,Light,2022-09-01 03:53:00+00:00,2022-09-01 04:53:00+00:00,0.0,US/Eastern,KTMB,25.6423,-80.4347,Miami,Miami-Dade,FL,33186.0
W-7405865,Rain,Light,2022-09-01 21:27:00+00:00,2022-09-01 21:53:00+00:00,0.0,US/Eastern,KTMB,25.6423,-80.4347,Miami,Miami-Dade,FL,33186.0
W-7405866,Rain,Light,2022-09-01 22:53:00+00:00,2022-09-02 00:43:00+00:00,0.0,US/Eastern,KTMB,25.6423,-80.4347,Miami,Miami-Dade,FL,33186.0
W-7405867,Rain,Light,2022-09-02 00:53:00+00:00,2022-09-02 01:53:00+00:00,0.07,US/Eastern,KTMB,25.6423,-80.4347,Miami,Miami-Dade,FL,33186.0
W-7405868,Rain,Light,2022-09-03 10:53:00+00:00,2022-09-03 11:08:00+00:00,0.03,US/Eastern,KTMB,25.6423,-80.4347,Miami,Miami-Dade,FL,33186.0
W-7405869,Rain,Moderate,2022-09-04 04:39:00+00:00,2022-09-04 04:53:00+00:00,0.29,US/Eastern,KTMB,25.6423,-80.4347,Miami,Miami-Dade,FL,33186.0
W-7405870,Rain,Light,2022-09-04 07:53:00+00:00,2022-09-04 08:53:00+00:00,0.0,US/Eastern,KTMB,25.6423,-80.4347,Miami,Miami-Dade,FL,33186.0
W-7405871,Rain,Light,2022-09-06 10:53:00+00:00,2022-09-06 12:53:00+00:00,0.01,US/Eastern,KTMB,25.6423,-80.4347,Miami,Miami-Dade,FL,33186.0
W-7405872,Rain,Light,2022-09-07 04:31:00+00:00,2022-09-07 04:53:00+00:00,0.07,US/Eastern,KTMB,25.6423,-80.4347,Miami,Miami-Dade,FL,33186.0
W-7405873,Rain,Moderate,2022-09-07 04:53:00+00:00,2022-09-07 05:53:00+00:00,0.11,US/Eastern,KTMB,25.6423,-80.4347,Miami,Miami-Dade,FL,33186.0
W-7405874,Rain,Light,2022-09-08 18:53:00+00:00,2022-09-08 19:53:00+00:00,0.01,US/Eastern,KTMB,25.6423,-80.4347,Miami,Miami-Dade,FL,33186.0
W-7405875,Rain,Moderate,2022-09-08 21:53:00+00:00,2022-09-08 22:06:00+00:00,0.1,US/Eastern,KTMB,25.6423,-80.4347,Miami,Miami-Dade,FL,33186.0
W-7405876,Precipitation,UNK,2022-09-08 23:21:00+00:00,2022-09-08 23:57:00+00:00,5.55,US/Eastern,KTMB,25.6423,-80.4347,Miami,Miami-Dade,FL,33186.0
W-7405877,Rain,Moderate,2022-09-09 00:12:00+00:00,2022-09-09 00:15:00+00:00,0.22,US/Eastern,KTMB,25.6423,-80.4347,Miami,Miami-Dade,FL,33186.0
W-7405878,Precipitation,UNK,2022-09-09 00:15:00+00:00,2022-09-09 00:28:00+00:00,0.22,US/Eastern,KTMB,25.6423,-80.4347,Miami,Miami-Dade,FL,33186.0
W-7405879,Rain,Moderate,2022-09-09 00:28:00+00:00,2022-09-09 00:46:00+00:00,0.22,US/Eastern,KTMB,25.6423,-80.4347,Miami,Miami-Dade,FL,33186.0
W-7405880,Precipitation,UNK,2022-09-09 00:46:00+00:00,2022-09-09 01:11:00+00:00,0.44,US/Eastern,KTMB,25.6423,-80.4347,Miami,Miami-Dade,FL,33186.0
W-7405881,Cold,Severe,2022-09-09 01:21:00+00:00,2022-09-12 21:06:00+00:00,0.0,US/Eastern,KTMB,25.6423,-80.4347,Miami,Miami-Dade,FL,33186.0
W-7405882,Rain,Light,2022-09-13 01:53:00+00:00,2022-09-13 02:53:00+00:00,0.0,US/Eastern,KTMB,25.6423,-80.4347,Miami,Miami-Dade,FL,33186.0
W-7405883,Rain,Moderate,2022-09-13 18:31:00+00:00,2022-09-13 18:38:00+00:00,0.19,US/Eastern,KTMB,25.6423,-80.4347,Miami,Miami-Dade,FL,33186.0
W-7405884,Precipitation,UNK,2022-09-13 18:38:00+00:00,2022-09-13 19:22:00+00:00,2.43,US/Eastern,KTMB,25.6423,-80.4347,Miami,Miami-Dade,FL,33186.0
W-7405885,Rain,Moderate,2022-09-13 19:22:00+00:00,2022-09-13 19:39:00+00:00,0.22,US/Eastern,KTMB,25.6423,-80.4347,Miami,Miami-Dade,FL,33186.0
W-7405886,Precipitation,UNK,2022-09-13 19:39:00+00:00,2022-09-13 20:53:00+00:00,0.44,US/Eastern,KTMB,25.6423,-80.4347,Miami,Miami-Dade,FL,33186.0
W-7405887,Rain,Light,2022-09-14 02:31:00+00:00,2022-09-14 02:46:00+00:00,0.0,US/Eastern,KTMB,25.6423,-80.4347,Miami,Miami-Dade,FL,33186.0
W-7405888,Rain,Light,2022-09-14 16:53:00+00:00,2022-09-14 17:12:00+00:00,0.08,US/Eastern,KTMB,25.6423,-80.4347,Miami,Miami-Dade,FL,33186.0
W-7405889,Rain,Light,2022-09-14 18:53:00+00:00,2022-09-14 19:08:00+00:00,0.02,US/Eastern,KTMB,25.6423,-80.4347,Miami,Miami-Dade,FL,33186.0
W-7405890,Rain,Moderate,2022-09-14 19:24:00+00:00,2022-09-14 19:53:00+00:00,0.18,US/Eastern,KTMB,25.6423,-80.4347,Miami,Miami-Dade,FL,33186.0
W-7405891,Precipitation,UNK,2022-09-14 19:53:00+00:00,2022-09-14 20:53:00+00:00,0.19,US/Eastern,KTMB,25.6423,-80.4347,Miami,Miami-Dade,FL,33186.0
W-7405892,Rain,Light,2022-09-14 21:53:00+00:00,2022-09-14 22:53:00+00:00,0.0,US/Eastern,KTMB,25.6423,-80.4347,Miami,Miami-Dade,FL,33186.0
W-7405893,Rain,Light,2022-09-15 16:24:00+00:00,2022-09-15 17:08:00+00:00,0.12,US/Eastern,KTMB,25.6423,-80.4347,Miami,Miami-Dade,FL,33186.0
W-7405894,Rain,Light,2022-09-15 17:36:00+00:00,2022-09-15 17:53:00+00:00,0.0,US/Eastern,KTMB,25.6423,-80.4347,Miami,Miami-Dade,FL,33186.0
W-7405895,Rain,Light,2022-09-15 19:01:00+00:00,2022-09-15 19:22:00+00:00,0.0,US/Eastern,KTMB,25.6423,-80.4347,Miami,Miami-Dade,FL,33186.0
W-7405896,Rain,Moderate,2022-09-15 19:22:00+00:00,2022-09-15 19:44:00+00:00,0.14,US/Eastern,KTMB,25.6423,-80.4347,Miami,Miami-Dade,FL,33186.0
W-7405897,Rain,Light,2022-09-15 20:53:00+00:00,2022-09-15 21:07:00+00:00,0.0,US/Eastern,KTMB,25.6423,-80.4347,Miami,Miami-Dade,FL,33186.0
W-7405898,Rain,Light,2022-09-15 22:17:00+00:00,2022-09-15 23:23:00+00:00,0.04,US/Eastern,KTMB,25.6423,-80.4347,Miami,Miami-Dade,FL,33186.0
W-7405899,Rain,Light,2022-09-15 23:38:00+00:00,2022-09-16 01:22:00+00:00,0.19,US/Eastern,KTMB,25.6423,-80.4347,Miami,Miami-Dade,FL,33186.0
W-7405900,Rain,Light,2022-09-16 01:35:00+00:00,2022-09-16 01:53:00+00:00,0.01,US/Eastern,KTMB,25.6423,-80.4347,Miami,Miami-Dade,FL,33186.0
W-7405901,Rain,Light,2022-09-16 02:17:00+00:00,2022-09-16 02:27:00+00:00,0.0,US/Eastern,KTMB,25.6423,-80.4347,Miami,Miami-Dade,FL,33186.0
W-7405902,Rain,Light,2022-09-16 18:53:00+00:00,2022-09-16 19:03:00+00:00,0.0,US/Eastern,KTMB,25.6423,-80.4347,Miami,Miami-Dade,FL,33186.0
W-7405903,Rain,Light,2022-09-16 20:53:00+00:00,2022-09-16 20:57:00+00:00,0.0,US/Eastern,KTMB,25.6423,-80.4347,Miami,Miami-Dade,FL,33186.0
W-7405904,Rain,Light,2022-09-16 21:34:00+00:00,2022-09-16 22:53:00+00:00,0.02,US/Eastern,KTMB,25.6423,-80.4347,Miami,Miami-Dade,FL,33186.0
W-7405905,Rain,Light,2022-09-17 10:49:00+00:00,2022-09-17 11:21:00+00:00,0.0,US/Eastern,KTMB,25.6423,-80.4347,Miami,Miami-Dade,FL,33186.0
W-7405906,Rain,Light,2022-09-17 18:53:00+00:00,2022-09-17 19:14:00+00:00,0.0,US/Eastern,KTMB,25.6423,-80.4347,Miami,Miami-Dade,FL,33186.0
W-7405907,Rain,Light,2022-09-17 19:53:00+00:00,2022-09-18 03:02:00+00:00,0.04,US/Eastern,KTMB,25.6423,-80.4347,Miami,Miami-Dade,FL,33186.0
W-7405908,Rain,Light,2022-09-18 03:53:00+00:00,2022-09-18 04:12:00+00:00,0.0,US/Eastern,KTMB,25.6423,-80.4347,Miami,Miami-Dade,FL,33186.0
W-7405909,Rain,Light,2022-09-18 04:27:00+00:00,2022-09-18 05:32:00+00:00,0.0,US/Eastern,KTMB,25.6423,-80.4347,Miami,Miami-Dade,FL,33186.0
W-7405910,Rain,Light,2022-09-18 05:53:00+00:00,2022-09-18 18:12:00+00:00,0.08,US/Eastern,KTMB,25.6423,-80.4347,Miami,Miami-Dade,FL,33186.0
W-7405911,Precipitation,UNK,2022-09-18 18:49:00+00:00,2022-09-18 20:03:00+00:00,2.72,US/Eastern,KTMB,25.6423,-80.4347,Miami,Miami-Dade,FL,33186.0
W-7405912,Rain,Light,2022-09-18 20:03:00+00:00,2022-09-19 18:53:00+00:00,0.04,US/Eastern,KTMB,25.6423,-80.4347,Miami,Miami-Dade,FL,33186.0
W-7405913,Rain,Light,2022-09-19 21:53:00+00:00,2022-09-19 22:53:00+00:00,0.0,US/Eastern,KTMB,25.6423,-80.4347,Miami,Miami-Dade,FL,33186.0
W-7405914,Rain,Light,2022-09-20 07:53:00+00:00,2022-09-20 08:53:00+00:00,0.0,US/Eastern,KTMB,25.6423,-80.4347,Miami,Miami-Dade,FL,33186.0
W-7405915,Rain,Light,2022-09-22 15:37:00+00:00,2022-09-22 15:53:00+00:00,0.0,US/Eastern,KTMB,25.6423,-80.4347,Miami,Miami-Dade,FL,33186.0
W-7405916,Rain,Moderate,2022-09-22 23:27:00+00:00,2022-09-22 23:35:00+00:00,0.17,US/Eastern,KTMB,25.6423,-80.4347,Miami,Miami-Dade,FL,33186.0
W-7405917,Precipitation,UNK,2022-09-24 18:40:00+00:00,2022-09-24 18:55:00+00:00,2.34,US/Eastern,KTMB,25.6423,-80.4347,Miami,Miami-Dade,FL,33186.0
W-7405918,Rain,Light,2022-09-24 19:03:00+00:00,2022-09-24 19:14:00+00:00,0.01,US/Eastern,KTMB,25.6423,-80.4347,Miami,Miami-Dade,FL,33186.0
W-7405919,Rain,Light,2022-09-24 19:53:00+00:00,2022-09-24 20:53:00+00:00,0.07,US/Eastern,KTMB,25.6423,-80.4347,Miami,Miami-Dade,FL,33186.0
W-7405920,Rain,Light,2022-09-25 02:53:00+00:00,2022-09-25 03:41:00+00:00,0.0,US/Eastern,KTMB,25.6423,-80.4347,Miami,Miami-Dade,FL,33186.0
W-7405921,Rain,Heavy,2022-09-25 03:41:00+00:00,2022-09-25 04:05:00+00:00,1.03,US/Eastern,KTMB,25.6423,-80.4347,Miami,Miami-Dade,FL,33186.0
W-7405922,Rain,Light,2022-09-25 04:05:00+00:00,2022-09-25 04:53:00+00:00,0.0,US/Eastern,KTMB,25.6423,-80.4347,Miami,Miami-Dade,FL,33186.0
W-7405923,Rain,Light,2022-09-25 07:38:00+00:00,2022-09-25 07:53:00+00:00,0.0,US/Eastern,KTMB,25.6423,-80.4347,Miami,Miami-Dade,FL,33186.0
W-7405924,Rain,Moderate,2022-09-25 07:53:00+00:00,2022-09-25 08:04:00+00:00,0.17,US/Eastern,KTMB,25.6423,-80.4347,Miami,Miami-Dade,FL,33186.0
W-7405925,Fog,Severe,2022-09-25 10:53:00+00:00,2022-09-25 12:51:00+00:00,0.0,US/Eastern,KTMB,25.6423,-80.4347,Miami,Miami-Dade,FL,33186.0
W-7405926,Rain,Light,2022-09-26 18:53:00+00:00,2022-09-26 19:53:00+00:00,0.05,US/Eastern,KTMB,25.6423,-80.4347,Miami,Miami-Dade,FL,33186.0
W-7405927,Precipitation,UNK,2022-09-26 21:10:00+00:00,2022-09-26 22:13:00+00:00,3.95,US/Eastern,KTMB,25.6423,-80.4347,Miami,Miami-Dade,FL,33186.0
W-7405928,Rain,Light,2022-09-26 22:13:00+00:00,2022-09-26 22:53:00+00:00,0.04,US/Eastern,KTMB,25.6423,-80.4347,Miami,Miami-Dade,FL,33186.0
W-7405929,Rain,Light,2022-09-26 23:53:00+00:00,2022-09-27 00:53:00+00:00,0.01,US/Eastern,KTMB,25.6423,-80.4347,Miami,Miami-Dade,FL,33186.0
W-7405930,Rain,Moderate,2022-09-27 02:53:00+00:00,2022-09-27 03:42:00+00:00,0.39,US/Eastern,KTMB,25.6423,-80.4347,Miami,Miami-Dade,FL,33186.0
W-7405931,Rain,Heavy,2022-09-27 03:42:00+00:00,2022-09-27 04:51:00+00:00,0.94,US/Eastern,KTMB,25.6423,-80.4347,Miami,Miami-Dade,FL,33186.0
W-7405932,Rain,Moderate,2022-09-27 04:51:00+00:00,2022-09-27 05:53:00+00:00,0.22,US/Eastern,KTMB,25.6423,-80.4347,Miami,Miami-Dade,FL,33186.0
W-7405933,Rain,Light,2022-09-27 05:53:00+00:00,2022-09-27 07:53:00+00:00,0.03,US/Eastern,KTMB,25.6423,-80.4347,Miami,Miami-Dade,FL,33186.0
W-7405934,Rain,Light,2022-09-27 08:53:00+00:00,2022-09-27 11:53:00+00:00,0.14,US/Eastern,KTMB,25.6423,-80.4347,Miami,Miami-Dade,FL,33186.0
W-7405935,Rain,Moderate,2022-09-27 11:53:00+00:00,2022-09-27 13:53:00+00:00,0.35,US/Eastern,KTMB,25.6423,-80.4347,Miami,Miami-Dade,FL,33186.0
W-7405936,Rain,Light,2022-09-27 13:53:00+00:00,2022-09-27 14:14:00+00:00,0.07,US/Eastern,KTMB,25.6423,-80.4347,Miami,Miami-Dade,FL,33186.0
W-7405937,Rain,Moderate,2022-09-27 14:14:00+00:00,2022-09-27 14:46:00+00:00,0.32,US/Eastern,KTMB,25.6423,-80.4347,Miami,Miami-Dade,FL,33186.0
W-7405938,Rain,Heavy,2022-09-27 14:46:00+00:00,2022-09-27 15:05:00+00:00,1.01,US/Eastern,KTMB,25.6423,-80.4347,Miami,Miami-Dade,FL,33186.0
W-7405939,Rain,Moderate,2022-09-27 15:05:00+00:00,2022-09-27 15:27:00+00:00,0.33,US/Eastern,KTMB,25.6423,-80.4347,Miami,Miami-Dade,FL,33186.0
W-7405940,Rain,Heavy,2022-09-27 15:27:00+00:00,2022-09-27 16:53:00+00:00,0.89,US/Eastern,KTMB,25.6423,-80.4347,Miami,Miami-Dade,FL,33186.0
W-7405941,Rain,Moderate,2022-09-27 16:53:00+00:00,2022-09-27 16:57:00+00:00,0.17,US/Eastern,KTMB,25.6423,-80.4347,Miami,Miami-Dade,FL,33186.0
W-7405942,Rain,Light,2022-09-27 16:57:00+00:00,2022-09-27 17:37:00+00:00,0.09,US/Eastern,KTMB,25.6423,-80.4347,Miami,Miami-Dade,FL,33186.0
W-7405943,Rain,Moderate,2022-09-27 17:37:00+00:00,2022-09-27 17:53:00+00:00,0.23,US/Eastern,KTMB,25.6423,-80.4347,Miami,Miami-Dade,FL,33186.0
W-7405944,Rain,Heavy,2022-09-27 17:53:00+00:00,2022-09-27 18:03:00+00:00,0.39,US/Eastern,KTMB,25.6423,-80.4347,Miami,Miami-Dade,FL,33186.0
W-7405945,Rain,Light,2022-09-27 18:03:00+00:00,2022-09-27 18:53:00+00:00,0.0,US/Eastern,KTMB,25.6423,-80.4347,Miami,Miami-Dade,FL,33186.0
W-7405946,Rain,Light,2022-09-27 21:53:00+00:00,2022-09-27 22:53:00+00:00,0.27,US/Eastern,KTMB,25.6423,-80.4347,Miami,Miami-Dade,FL,33186.0
W-7405947,Rain,Moderate,2022-09-27 23:15:00+00:00,2022-09-27 23:35:00+00:00,0.11,US/Eastern,KTMB,25.6423,-80.4347,Miami,Miami-Dade,FL,33186.0
W-7405948,Rain,Light,2022-09-28 01:12:00+00:00,2022-09-28 01:45:00+00:00,0.01,US/Eastern,KTMB,25.6423,-80.4347,Miami,Miami-Dade,FL,33186.0
W-7405949,Rain,Light,2022-09-28 02:53:00+00:00,2022-09-28 03:53:00+00:00,0.0,US/Eastern,KTMB,25.6423,-80.4347,Miami,Miami-Dade,FL,33186.0
W-7405950,Rain,Moderate,2022-09-28 03:53:00+00:00,2022-09-28 04:01:00+00:00,0.16,US/Eastern,KTMB,25.6423,-80.4347,Miami,Miami-Dade,FL,33186.0
W-7405951,Rain,Light,2022-09-28 04:01:00+00:00,2022-09-28 04:12:00+00:00,0.0,US/Eastern,KTMB,25.6423,-80.4347,Miami,Miami-Dade,FL,33186.0
W-7405952,Rain,Moderate,2022-09-28 04:53:00+00:00,2022-09-28 05:15:00+00:00,0.23,US/Eastern,KTMB,25.6423,-80.4347,Miami,Miami-Dade,FL,33186.0
W-7405953,Rain,Heavy,2022-09-28 05:15:00+00:00,2022-09-28 05:34:00+00:00,0.74,US/Eastern,KTMB,25.6423,-80.4347,Miami,Miami-Dade,FL,33186.0
W-7405954,Precipitation,UNK,2022-09-28 05:34:00+00:00,2022-09-28 06:32:00+00:00,1.14,US/Eastern,KTMB,25.6423,-80.4347,Miami,Miami-Dade,FL,33186.0
W-7405955,Rain,Moderate,2022-09-28 06:32:00+00:00,2022-09-28 06:53:00+00:00,0.2,US/Eastern,KTMB,25.6423,-80.4347,Miami,Miami-Dade,FL,33186.0
W-7405956,Rain,Light,2022-09-28 07:53:00+00:00,2022-09-28 08:53:00+00:00,0.06,US/Eastern,KTMB,25.6423,-80.4347,Miami,Miami-Dade,FL,33186.0
W-7405957,Rain,Light,2022-09-28 09:53:00+00:00,2022-09-28 11:53:00+00:00,0.01,US/Eastern,KTMB,25.6423,-80.4347,Miami,Miami-Dade,FL,33186.0
W-7405958,Rain,Light,2022-09-28 14:53:00+00:00,2022-09-28 15:53:00+00:00,0.0,US/Eastern,KTMB,25.6423,-80.4347,Miami,Miami-Dade,FL,33186.0
W-7405959,Rain,Light,2022-09-28 16:53:00+00:00,2022-09-28 17:42:00+00:00,0.02,US/Eastern,KTMB,25.6423,-80.4347,Miami,Miami-Dade,FL,33186.0
W-7405960,Rain,Light,2022-09-28 18:16:00+00:00,2022-09-28 18:53:00+00:00,0.0,US/Eastern,KTMB,25.6423,-80.4347,Miami,Miami-Dade,FL,33186.0
W-7405961,Rain,Light,2022-09-29 03:53:00+00:00,2022-09-29 04:06:00+00:00,0.01,US/Eastern,KTMB,25.6423,-80.4347,Miami,Miami-Dade,FL,33186.0
W-7405962,Rain,Light,2022-09-30 20:53:00+00:00,2022-09-30 21:53:00+00:00,0.0,US/Eastern,KTMB,25.6423,-80.4347,Miami,Miami-Dade,FL,33186.0
W-7405963,Rain,Light,2022-10-02 12:53:00+00:00,2022-10-02 13:53:00+00:00,0.0,US/Eastern,KTMB,25.6423,-80.4347,Miami,Miami-Dade,FL,33186.0
W-7405964,Rain,Light,2022-10-03 13:53:00+00:00,2022-10-03 14:53:00+00:00,0.0,US/Eastern,KTMB,25.6423,-80.4347,Miami,Miami-Dade,FL,33186.0
W-7405965,Rain,Light,2022-10-06 19:53:00+00:00,2022-10-06 20:53:00+00:00,0.0,US/Eastern,KTMB,25.6423,-80.4347,Miami,Miami-Dade,FL,33186.0
W-7405966,Rain,Light,2022-10-07 02:53:00+00:00,2022-10-07 03:53:00+00:00,0.0,US/Eastern,KTMB,25.6423,-80.4347,Miami,Miami-Dade,FL,33186.0
W-7405967,Rain,Light,2022-10-08 17:38:00+00:00,2022-10-08 18:14:00+00:00,0.07,US/Eastern,KTMB,25.6423,-80.4347,Miami,Miami-Dade,FL,33186.0
W-7405968,Rain,Light,2022-10-08 23:53:00+00:00,2022-10-09 00:53:00+00:00,0.0,US/Eastern,KTMB,25.6423,-80.4347,Miami,Miami-Dade,FL,33186.0
W-7405969,Rain,Light,2022-10-09 03:53:00+00:00,2022-10-09 04:14:00+00:00,0.01,US/Eastern,KTMB,25.6423,-80.4347,Miami,Miami-Dade,FL,33186.0
W-7405970,Rain,Light,2022-10-09 15:20:00+00:00,2022-10-09 15:53:00+00:00,0.12,US/Eastern,KTMB,25.6423,-80.4347,Miami,Miami-Dade,FL,33186.0
W-7405971,Rain,Light,2022-10-09 17:49:00+00:00,2022-10-09 17:53:00+00:00,0.0,US/Eastern,KTMB,25.6423,-80.4347,Miami,Miami-Dade,FL,33186.0
W-7405972,Rain,Light,2022-10-09 18:13:00+00:00,2022-10-09 18:23:00+00:00,0.02,US/Eastern,KTMB,25.6423,-80.4347,Miami,Miami-Dade,FL,33186.0
W-7405973,Rain,Light,2022-10-09 19:35:00+00:00,2022-10-09 20:11:00+00:00,0.19,US/Eastern,KTMB,25.6423,-80.4347,Miami,Miami-Dade,FL,33186.0
W-7405974,Fog,Severe,2022-10-10 10:53:00+00:00,2022-10-10 12:02:00+00:00,0.0,US/Eastern,KTMB,25.6423,-80.4347,Miami,Miami-Dade,FL,33186.0
W-7405975,Fog,Severe,2022-10-10 12:09:00+00:00,2022-10-10 12:50:00+00:00,0.0,US/Eastern,KTMB,25.6423,-80.4347,Miami,Miami-Dade,FL,33186.0
W-7405976,Rain,Light,2022-10-11 13:53:00+00:00,2022-10-11 14:53:00+00:00,0.0,US/Eastern,KTMB,25.6423,-80.4347,Miami,Miami-Dade,FL,33186.0
W-7405977,Rain,Light,2022-10-13 18:40:00+00:00,2022-10-13 19:23:00+00:00,0.07,US/Eastern,KTMB,25.6423,-80.4347,Miami,Miami-Dade,FL,33186.0
W-7405978,Precipitation,UNK,2022-10-13 19:23:00+00:00,2022-10-13 19:53:00+00:00,0.64,US/Eastern,KTMB,25.6423,-80.4347,Miami,Miami-Dade,FL,33186.0
W-7405979,Rain,Heavy,2022-10-13 19:53:00+00:00,2022-10-13 20:00:00+00:00,0.71,US/Eastern,KTMB,25.6423,-80.4347,Miami,Miami-Dade,FL,33186.0
W-7405980,Rain,Light,2022-10-13 20:00:00+00:00,2022-10-13 20:25:00+00:00,0.03,US/Eastern,KTMB,25.6423,-80.4347,Miami,Miami-Dade,FL,33186.0
W-7405981,Rain,Light,2022-10-13 20:40:00+00:00,2022-10-14 00:34:00+00:00,0.29,US/Eastern,KTMB,25.6423,-80.4347,Miami,Miami-Dade,FL,33186.0
W-7405982,Rain,Moderate,2022-10-14 00:34:00+00:00,2022-10-14 01:53:00+00:00,0.22,US/Eastern,KTMB,25.6423,-80.4347,Miami,Miami-Dade,FL,33186.0
W-7405983,Rain,Light,2022-10-14 01:53:00+00:00,2022-10-14 02:42:00+00:00,0.02,US/Eastern,KTMB,25.6423,-80.4347,Miami,Miami-Dade,FL,33186.0
W-7405984,Rain,Light,2022-10-14 17:53:00+00:00,2022-10-14 18:53:00+00:00,0.0,US/Eastern,KTMB,25.6423,-80.4347,Miami,Miami-Dade,FL,33186.0
W-7405985,Rain,Light,2022-10-15 03:53:00+00:00,2022-10-15 04:53:00+00:00,0.0,US/Eastern,KTMB,25.6423,-80.4347,Miami,Miami-Dade,FL,33186.0
W-7405986,Cold,Severe,2022-10-15 06:53:00+00:00,2022-10-15 12:13:00+00:00,0.0,US/Eastern,KTMB,25.6423,-80.4347,Miami,Miami-Dade,FL,33186.0
W-7405987,Cold,Severe,2022-10-15 14:53:00+00:00,2022-10-15 17:59:00+00:00,0.0,US/Eastern,KTMB,25.6423,-80.4347,Miami,Miami-Dade,FL,33186.0
W-7405988,Cold,Severe,2022-10-15 18:53:00+00:00,2022-10-15 19:15:00+00:00,0.0,US/Eastern,KTMB,25.6423,-80.4347,Miami,Miami-Dade,FL,33186.0
W-7405989,Rain,Light,2022-10-17 20:53:00+00:00,2022-10-17 21:53:00+00:00,0.02,US/Eastern,KTMB,25.6423,-80.4347,Miami,Miami-Dade,FL,33186.0
W-7405990,Rain,Light,2022-10-17 23:53:00+00:00,2022-10-18 00:53:00+00:00,0.0,US/Eastern,KTMB,25.6423,-80.4347,Miami,Miami-Dade,FL,33186.0
W-7405991,Rain,Light,2022-10-18 21:53:00+00:00,2022-10-18 22:53:00+00:00,0.0,US/Eastern,KTMB,25.6423,-80.4347,Miami,Miami-Dade,FL,33186.0
W-7405992,Rain,Light,2022-10-19 16:53:00+00:00,2022-10-19 18:53:00+00:00,0.0,US/Eastern,KTMB,25.6423,-80.4347,Miami,Miami-Dade,FL,33186.0
W-7405993,Rain,Light,2022-10-19 20:53:00+00:00,2022-10-19 21:46:00+00:00,0.02,US/Eastern,KTMB,25.6423,-80.4347,Miami,Miami-Dade,FL,33186.0
W-7405994,Fog,Severe,2022-10-19 21:46:00+00:00,2022-10-19 21:53:00+00:00,0.0,US/Eastern,KTMB,25.6423,-80.4347,Miami,Miami-Dade,FL,33186.0
W-7405995,Rain,Light,2022-10-19 23:53:00+00:00,2022-10-20 00:53:00+00:00,0.0,US/Eastern,KTMB,25.6423,-80.4347,Miami,Miami-Dade,FL,33186.0
W-7405996,Rain,Light,2022-10-21 05:53:00+00:00,2022-10-21 06:53:00+00:00,0.0,US/Eastern,KTMB,25.6423,-80.4347,Miami,Miami-Dade,FL,33186.0
W-7405997,Rain,Light,2022-10-23 07:53:00+00:00,2022-10-23 08:53:00+00:00,0.0,US/Eastern,KTMB,25.6423,-80.4347,Miami,Miami-Dade,FL,33186.0
W-7405998,Rain,Light,2022-10-23 11:53:00+00:00,2022-10-23 12:53:00+00:00,0.0,US/Eastern,KTMB,25.6423,-80.4347,Miami,Miami-Dade,FL,33186.0
W-7405999,Rain,Light,2022-10-24 16:53:00+00:00,2022-10-24 17:53:00+00:00,0.01,US/Eastern,KTMB,25.6423,-80.4347,Miami,Miami-Dade,FL,33186.0
W-7406000,Fog,Severe,2022-10-25 11:53:00+00:00,2022-10-25 12:05:00+00:00,0.0,US/Eastern,KTMB,25.6423,-80.4347,Miami,Miami-Dade,FL,33186.0
W-7406001,Rain,Light,2022-10-29 13:53:00+00:00,2022-10-29 14:11:00+00:00,0.0,US/Eastern,KTMB,25.6423,-80.4347,Miami,Miami-Dade,FL,33186.0
W-7406002,Rain,Light,2022-11-05 14:53:00+00:00,2022-11-05 15:53:00+00:00,0.0,US/Eastern,KTMB,25.6423,-80.4347,Miami,Miami-Dade,FL,33186.0
W-7406003,Rain,Moderate,2022-11-07 00:53:00+00:00,2022-11-07 01:53:00+00:00,0.21,US/Eastern,KTMB,25.6423,-80.4347,Miami,Miami-Dade,FL,33186.0
W-7406004,Rain,Light,2022-11-08 23:53:00+00:00,2022-11-09 08:19:00+00:00,0.2,US/Eastern,KTMB,25.6423,-80.4347,Miami,Miami-Dade,FL,33186.0
W-7406005,Rain,Light,2022-11-09 08:53:00+00:00,2022-11-09 11:53:00+00:00,0.04,US/Eastern,KTMB,25.6423,-80.4347,Miami,Miami-Dade,FL,33186.0
W-7406006,Rain,Light,2022-11-09 17:53:00+00:00,2022-11-09 18:53:00+00:00,0.07,US/Eastern,KTMB,25.6423,-80.4347,Miami,Miami-Dade,FL,33186.0
W-7406007,Rain,Moderate,2022-11-09 18:53:00+00:00,2022-11-09 19:00:00+00:00,0.14,US/Eastern,KTMB,25.6423,-80.4347,Miami,Miami-Dade,FL,33186.0
W-7406008,Rain,Light,2022-11-09 19:00:00+00:00,2022-11-09 19:53:00+00:00,0.11,US/Eastern,KTMB,25.6423,-80.4347,Miami,Miami-Dade,FL,33186.0
W-7406009,Rain,Moderate,2022-11-09 19:53:00+00:00,2022-11-09 20:00:00+00:00,0.12,US/Eastern,KTMB,25.6423,-80.4347,Miami,Miami-Dade,FL,33186.0
W-7406010,Rain,Light,2022-11-09 20:00:00+00:00,2022-11-09 20:53:00+00:00,0.0,US/Eastern,KTMB,25.6423,-80.4347,Miami,Miami-Dade,FL,33186.0
W-7406011,Rain,Light,2022-11-09 21:19:00+00:00,2022-11-09 21:53:00+00:00,0.02,US/Eastern,KTMB,25.6423,-80.4347,Miami,Miami-Dade,FL,33186.0
W-7406012,Rain,Light,2022-11-09 22:53:00+00:00,2022-11-10 00:53:00+00:00,0.01,US/Eastern,KTMB,25.6423,-80.4347,Miami,Miami-Dade,FL,33186.0
W-7406013,Rain,Light,2022-11-10 01:51:00+00:00,2022-11-10 02:37:00+00:00,0.0,US/Eastern,KTMB,25.6423,-80.4347,Miami,Miami-Dade,FL,33186.0
W-7406014,Rain,Light,2022-11-10 11:13:00+00:00,2022-11-10 12:14:00+00:00,0.02,US/Eastern,KTMB,25.6423,-80.4347,Miami,Miami-Dade,FL,33186.0
W-7406015,Rain,Light,2022-11-11 08:53:00+00:00,2022-11-11 09:53:00+00:00,0.0,US/Eastern,KTMB,25.6423,-80.4347,Miami,Miami-Dade,FL,33186.0
W-7406016,Fog,Severe,2022-11-12 07:58:00+00:00,2022-11-12 08:07:00+00:00,0.0,US/Eastern,KTMB,25.6423,-80.4347,Miami,Miami-Dade,FL,33186.0
W-7406017,Rain,Light,2022-11-12 08:07:00+00:00,2022-11-12 08:23:00+00:00,0.0,US/Eastern,KTMB,25.6423,-80.4347,Miami,Miami-Dade,FL,33186.0
W-7406018,Fog,Severe,2022-11-12 08:23:00+00:00,2022-11-12 09:30:00+00:00,0.0,US/Eastern,KTMB,25.6423,-80.4347,Miami,Miami-Dade,FL,33186.0
W-7406019,Cold,Severe,2022-11-12 09:30:00+00:00,2022-11-12 12:02:00+00:00,0.0,US/Eastern,KTMB,25.6423,-80.4347,Miami,Miami-Dade,FL,33186.0
W-7406020,Fog,Severe,2022-11-12 12:02:00+00:00,2022-11-12 12:09:00+00:00,0.0,US/Eastern,KTMB,25.6423,-80.4347,Miami,Miami-Dade,FL,33186.0
W-7406021,Rain,Light,2022-11-12 18:36:00+00:00,2022-11-12 18:53:00+00:00,0.08,US/Eastern,KTMB,25.6423,-80.4347,Miami,Miami-Dade,FL,33186.0
W-7406022,Rain,Moderate,2022-11-12 19:53:00+00:00,2022-11-12 21:53:00+00:00,0.88,US/Eastern,KTMB,25.6423,-80.4347,Miami,Miami-Dade,FL,33186.0
W-7406023,Rain,Light,2022-11-12 22:16:00+00:00,2022-11-12 22:40:00+00:00,0.01,US/Eastern,KTMB,25.6423,-80.4347,Miami,Miami-Dade,FL,33186.0
W-7406024,Precipitation,UNK,2022-11-12 22:53:00+00:00,2022-11-12 23:22:00+00:00,0.21,US/Eastern,KTMB,25.6423,-80.4347,Miami,Miami-Dade,FL,33186.0
W-7406025,Rain,Light,2022-11-12 23:22:00+00:00,2022-11-12 23:53:00+00:00,0.01,US/Eastern,KTMB,25.6423,-80.4347,Miami,Miami-Dade,FL,33186.0
W-7406026,Cold,Severe,2022-11-13 01:53:00+00:00,2022-11-13 02:53:00+00:00,0.0,US/Eastern,KTMB,25.6423,-80.4347,Miami,Miami-Dade,FL,33186.0
W-7406027,Cold,Severe,2022-11-13 04:53:00+00:00,2022-11-13 08:53:00+00:00,0.0,US/Eastern,KTMB,25.6423,-80.4347,Miami,Miami-Dade,FL,33186.0
W-7406028,Fog,Severe,2022-11-13 09:00:00+00:00,2022-11-13 09:24:00+00:00,0.0,US/Eastern,KTMB,25.6423,-80.4347,Miami,Miami-Dade,FL,33186.0
W-7406029,Fog,Severe,2022-11-13 10:25:00+00:00,2022-11-13 10:32:00+00:00,0.0,US/Eastern,KTMB,25.6423,-80.4347,Miami,Miami-Dade,FL,33186.0
W-7406030,Fog,Severe,2022-11-13 10:50:00+00:00,2022-11-13 11:15:00+00:00,0.0,US/Eastern,KTMB,25.6423,-80.4347,Miami,Miami-Dade,FL,33186.0
W-7406031,Fog,Severe,2022-11-13 11:39:00+00:00,2022-11-13 12:20:00+00:00,0.0,US/Eastern,KTMB,25.6423,-80.4347,Miami,Miami-Dade,FL,33186.0
W-7406032,Rain,Light,2022-11-13 16:53:00+00:00,2022-11-13 17:53:00+00:00,0.0,US/Eastern,KTMB,25.6423,-80.4347,Miami,Miami-Dade,FL,33186.0
W-7406033,Cold,Severe,2022-11-14 09:53:00+00:00,2022-11-14 10:24:00+00:00,0.0,US/Eastern,KTMB,25.6423,-80.4347,Miami,Miami-Dade,FL,33186.0
W-7406034,Fog,Severe,2022-11-14 10:24:00+00:00,2022-11-14 10:41:00+00:00,0.0,US/Eastern,KTMB,25.6423,-80.4347,Miami,Miami-Dade,FL,33186.0
W-7406035,Fog,Severe,2022-11-14 12:03:00+00:00,2022-11-14 12:11:00+00:00,0.0,US/Eastern,KTMB,25.6423,-80.4347,Miami,Miami-Dade,FL,33186.0
W-7406036,Fog,Severe,2022-11-14 12:14:00+00:00,2022-11-14 12:26:00+00:00,0.0,US/Eastern,KTMB,25.6423,-80.4347,Miami,Miami-Dade,FL,33186.0
W-7406037,Cold,Severe,2022-11-14 12:26:00+00:00,2022-11-14 12:53:00+00:00,0.0,US/Eastern,KTMB,25.6423,-80.4347,Miami,Miami-Dade,FL,33186.0
W-7406038,Rain,Light,2022-11-16 19:53:00+00:00,2022-11-16 21:53:00+00:00,0.01,US/Eastern,KTMB,25.6423,-80.4347,Miami,Miami-Dade,FL,33186.0
W-7406039,Fog,Severe,2022-11-17 13:44:00+00:00,2022-11-17 14:00:00+00:00,0.0,US/Eastern,KTMB,25.6423,-80.4347,Miami,Miami-Dade,FL,33186.0
W-7406040,Rain,Light,2022-11-20 09:12:00+00:00,2022-11-20 11:53:00+00:00,0.02,US/Eastern,KTMB,25.6423,-80.4347,Miami,Miami-Dade,FL,33186.0
W-7406041,Rain,Moderate,2022-11-20 11:53:00+00:00,2022-11-20 12:53:00+00:00,0.37,US/Eastern,KTMB,25.6423,-80.4347,Miami,Miami-Dade,FL,33186.0
W-7406042,Rain,Heavy,2022-11-20 12:53:00+00:00,2022-11-20 13:00:00+00:00,0.47,US/Eastern,KTMB,25.6423,-80.4347,Miami,Miami-Dade,FL,33186.0
W-7406043,Rain,Light,2022-11-20 13:00:00+00:00,2022-11-20 13:49:00+00:00,0.01,US/Eastern,KTMB,25.6423,-80.4347,Miami,Miami-Dade,FL,33186.0
W-7406044,Rain,Moderate,2022-11-20 13:49:00+00:00,2022-11-20 13:53:00+00:00,0.18,US/Eastern,KTMB,25.6423,-80.4347,Miami,Miami-Dade,FL,33186.0
W-7406045,Rain,Heavy,2022-11-20 13:53:00+00:00,2022-11-20 15:00:00+00:00,1.71,US/Eastern,KTMB,25.6423,-80.4347,Miami,Miami-Dade,FL,33186.0
W-7406046,Rain,Light,2022-11-20 15:14:00+00:00,2022-11-20 18:46:00+00:00,0.09,US/Eastern,KTMB,25.6423,-80.4347,Miami,Miami-Dade,FL,33186.0
W-7406047,Rain,Moderate,2022-11-20 18:46:00+00:00,2022-11-20 19:00:00+00:00,0.49,US/Eastern,KTMB,25.6423,-80.4347,Miami,Miami-Dade,FL,33186.0
W-7406048,Rain,Light,2022-11-20 19:00:00+00:00,2022-11-20 21:53:00+00:00,0.16,US/Eastern,KTMB,25.6423,-80.4347,Miami,Miami-Dade,FL,33186.0
W-7406049,Rain,Light,2022-11-21 00:42:00+00:00,2022-11-21 02:53:00+00:00,0.1,US/Eastern,KTMB,25.6423,-80.4347,Miami,Miami-Dade,FL,33186.0
W-7406050,Rain,Moderate,2022-11-21 02:53:00+00:00,2022-11-21 03:39:00+00:00,0.1,US/Eastern,KTMB,25.6423,-80.4347,Miami,Miami-Dade,FL,33186.0
W-7406051,Rain,Light,2022-11-21 03:39:00+00:00,2022-11-21 04:18:00+00:00,0.03,US/Eastern,KTMB,25.6423,-80.4347,Miami,Miami-Dade,FL,33186.0
W-7406052,Rain,Light,2022-11-21 04:53:00+00:00,2022-11-21 05:53:00+00:00,0.0,US/Eastern,KTMB,25.6423,-80.4347,Miami,Miami-Dade,FL,33186.0
W-7406053,Rain,Light,2022-11-21 11:51:00+00:00,2022-11-21 12:13:00+00:00,0.04,US/Eastern,KTMB,25.6423,-80.4347,Miami,Miami-Dade,FL,33186.0
W-7406054,Rain,Light,2022-11-21 12:53:00+00:00,2022-11-21 13:14:00+00:00,0.03,US/Eastern,KTMB,25.6423,-80.4347,Miami,Miami-Dade,FL,33186.0
W-7406055,Rain,Moderate,2022-11-21 13:14:00+00:00,2022-11-21 13:53:00+00:00,0.3,US/Eastern,KTMB,25.6423,-80.4347,Miami,Miami-Dade,FL,33186.0
W-7406056,Rain,Heavy,2022-11-21 13:53:00+00:00,2022-11-21 14:09:00+00:00,0.33,US/Eastern,KTMB,25.6423,-80.4347,Miami,Miami-Dade,FL,33186.0
W-7406057,Rain,Moderate,2022-11-21 14:09:00+00:00,2022-11-21 14:53:00+00:00,0.2,US/Eastern,KTMB,25.6423,-80.4347,Miami,Miami-Dade,FL,33186.0
W-7406058,Rain,Heavy,2022-11-21 14:53:00+00:00,2022-11-21 15:00:00+00:00,0.33,US/Eastern,KTMB,25.6423,-80.4347,Miami,Miami-Dade,FL,33186.0
W-7406059,Rain,Light,2022-11-21 15:00:00+00:00,2022-11-21 23:53:00+00:00,0.03,US/Eastern,KTMB,25.6423,-80.4347,Miami,Miami-Dade,FL,33186.0
W-7406060,Rain,Light,2022-11-22 00:53:00+00:00,2022-11-22 01:53:00+00:00,0.0,US/Eastern,KTMB,25.6423,-80.4347,Miami,Miami-Dade,FL,33186.0
W-7406061,Rain,Light,2022-11-22 03:53:00+00:00,2022-11-22 04:53:00+00:00,0.0,US/Eastern,KTMB,25.6423,-80.4347,Miami,Miami-Dade,FL,33186.0
W-7406062,Fog,Severe,2022-11-23 09:49:00+00:00,2022-11-23 10:00:00+00:00,0.0,US/Eastern,KTMB,25.6423,-80.4347,Miami,Miami-Dade,FL,33186.0
W-7406063,Fog,Severe,2022-11-23 10:12:00+00:00,2022-11-23 13:56:00+00:00,0.0,US/Eastern,KTMB,25.6423,-80.4347,Miami,Miami-Dade,FL,33186.0
W-7406064,Fog,Moderate,2022-11-23 13:56:00+00:00,2022-11-23 14:04:00+00:00,0.0,US/Eastern,KTMB,25.6423,-80.4347,Miami,Miami-Dade,FL,33186.0
W-7406065,Fog,Severe,2022-11-23 14:04:00+00:00,2022-11-23 15:22:00+00:00,0.0,US/Eastern,KTMB,25.6423,-80.4347,Miami,Miami-Dade,FL,33186.0
W-7406066,Fog,Moderate,2022-11-23 15:22:00+00:00,2022-11-23 15:53:00+00:00,0.0,US/Eastern,KTMB,25.6423,-80.4347,Miami,Miami-Dade,FL,33186.0
W-7406067,Fog,Severe,2022-11-28 06:33:00+00:00,2022-11-28 06:51:00+00:00,0.0,US/Eastern,KTMB,25.6423,-80.4347,Miami,Miami-Dade,FL,33186.0
W-7406068,Fog,Severe,2022-11-28 08:18:00+00:00,2022-11-28 08:27:00+00:00,0.0,US/Eastern,KTMB,25.6423,-80.4347,Miami,Miami-Dade,FL,33186.0
W-7406069,Fog,Severe,2022-11-28 08:34:00+00:00,2022-11-28 08:45:00+00:00,0.0,US/Eastern,KTMB,25.6423,-80.4347,Miami,Miami-Dade,FL,33186.0
W-7406070,Rain,Light,2022-11-28 10:53:00+00:00,2022-11-28 11:19:00+00:00,0.0,US/Eastern,KTMB,25.6423,-80.4347,Miami,Miami-Dade,FL,33186.0
W-7406071,Fog,Moderate,2022-11-30 16:03:00+00:00,2022-11-30 16:10:00+00:00,0.0,US/Eastern,KTMB,25.6423,-80.4347,Miami,Miami-Dade,FL,33186.0
W-7406072,Rain,Light,2022-11-30 20:53:00+00:00,2022-11-30 21:53:00+00:00,0.02,US/Eastern,KTMB,25.6423,-80.4347,Miami,Miami-Dade,FL,33186.0
W-7406073,Rain,Light,2022-11-30 23:28:00+00:00,2022-11-30 23:39:00+00:00,0.0,US/Eastern,KTMB,25.6423,-80.4347,Miami,Miami-Dade,FL,33186.0
W-7406074,Rain,Light,2022-11-30 23:53:00+00:00,2022-12-01 00:53:00+00:00,0.01,US/Eastern,KTMB,25.6423,-80.4347,Miami,Miami-Dade,FL,33186.0
W-7406075,Rain,Light,2022-12-01 01:53:00+00:00,2022-12-01 02:53:00+00:00,0.04,US/Eastern,KTMB,25.6423,-80.4347,Miami,Miami-Dade,FL,33186.0
W-7406076,Rain,Moderate,2022-12-01 02:53:00+00:00,2022-12-01 03:53:00+00:00,0.17,US/Eastern,KTMB,25.6423,-80.4347,Miami,Miami-Dade,FL,33186.0
W-7406077,Rain,Light,2022-12-01 18:53:00+00:00,2022-12-01 19:53:00+00:00,0.01,US/Eastern,KTMB,25.6423,-80.4347,Miami,Miami-Dade,FL,33186.0
W-7406078,Rain,Light,2022-12-03 01:53:00+00:00,2022-12-03 02:53:00+00:00,0.0,US/Eastern,KTMB,25.6423,-80.4347,Miami,Miami-Dade,FL,33186.0
W-7406079,Rain,Light,2022-12-06 13:53:00+00:00,2022-12-06 14:53:00+00:00,0.0,US/Eastern,KTMB,25.6423,-80.4347,Miami,Miami-Dade,FL,33186.0
W-7406080,Rain,Light,2022-12-11 12:53:00+00:00,2022-12-11 13:53:00+00:00,0.0,US/Eastern,KTMB,25.6423,-80.4347,Miami,Miami-Dade,FL,33186.0
W-7406081,Rain,Light,2022-12-13 12:44:00+00:00,2022-12-13 13:53:00+00:00,0.0,US/Eastern,KTMB,25.6423,-80.4347,Miami,Miami-Dade,FL,33186.0
W-7406082,Rain,Light,2022-12-14 07:53:00+00:00,2022-12-14 08:10:00+00:00,0.0,US/Eastern,KTMB,25.6423,-80.4347,Miami,Miami-Dade,FL,33186.0
W-7406083,Rain,Light,2022-12-14 12:53:00+00:00,2022-12-14 13:53:00+00:00,0.0,US/Eastern,KTMB,25.6423,-80.4347,Miami,Miami-Dade,FL,33186.0
W-7406084,Rain,Light,2022-12-15 16:53:00+00:00,2022-12-15 17:53:00+00:00,0.0,US/Eastern,KTMB,25.6423,-80.4347,Miami,Miami-Dade,FL,33186.0
W-7406085,Rain,Light,2022-12-15 18:53:00+00:00,2022-12-15 20:53:00+00:00,0.0,US/Eastern,KTMB,25.6423,-80.4347,Miami,Miami-Dade,FL,33186.0
W-7406086,Rain,Light,2022-12-17 03:50:00+00:00,2022-12-17 04:53:00+00:00,0.0,US/Eastern,KTMB,25.6423,-80.4347,Miami,Miami-Dade,FL,33186.0
W-7406087,Rain,Light,2022-12-17 20:44:00+00:00,2022-12-17 21:26:00+00:00,0.0,US/Eastern,KTMB,25.6423,-80.4347,Miami,Miami-Dade,FL,33186.0
W-7406088,Rain,Light,2022-12-17 21:43:00+00:00,2022-12-17 22:10:00+00:00,0.06,US/Eastern,KTMB,25.6423,-80.4347,Miami,Miami-Dade,FL,33186.0
W-7406089,Rain,Moderate,2022-12-17 22:10:00+00:00,2022-12-17 22:37:00+00:00,0.17,US/Eastern,KTMB,25.6423,-80.4347,Miami,Miami-Dade,FL,33186.0
W-7406090,Rain,Heavy,2022-12-17 22:37:00+00:00,2022-12-17 22:53:00+00:00,0.57,US/Eastern,KTMB,25.6423,-80.4347,Miami,Miami-Dade,FL,33186.0
W-7406091,Precipitation,UNK,2022-12-17 22:53:00+00:00,2022-12-17 23:00:00+00:00,0.62,US/Eastern,KTMB,25.6423,-80.4347,Miami,Miami-Dade,FL,33186.0
W-7406092,Rain,Moderate,2022-12-17 23:11:00+00:00,2022-12-17 23:28:00+00:00,0.11,US/Eastern,KTMB,25.6423,-80.4347,Miami,Miami-Dade,FL,33186.0
W-7406093,Rain,Light,2022-12-18 00:53:00+00:00,2022-12-18 01:53:00+00:00,0.07,US/Eastern,KTMB,25.6423,-80.4347,Miami,Miami-Dade,FL,33186.0
W-7406094,Rain,Light,2022-12-18 08:53:00+00:00,2022-12-18 09:49:00+00:00,0.0,US/Eastern,KTMB,25.6423,-80.4347,Miami,Miami-Dade,FL,33186.0
W-7406095,Rain,Light,2022-12-18 12:53:00+00:00,2022-12-18 13:28:00+00:00,0.0,US/Eastern,KTMB,25.6423,-80.4347,Miami,Miami-Dade,FL,33186.0
W-7406096,Rain,Light,2022-12-20 21:53:00+00:00,2022-12-20 22:58:00+00:00,0.15,US/Eastern,KTMB,25.6423,-80.4347,Miami,Miami-Dade,FL,33186.0
W-7406097,Rain,Light,2022-12-21 02:53:00+00:00,2022-12-21 04:53:00+00:00,0.02,US/Eastern,KTMB,25.6423,-80.4347,Miami,Miami-Dade,FL,33186.0
W-7406098,Rain,Light,2022-12-21 17:53:00+00:00,2022-12-21 18:53:00+00:00,0.0,US/Eastern,KTMB,25.6423,-80.4347,Miami,Miami-Dade,FL,33186.0
W-7406099,Rain,Light,2022-12-23 11:53:00+00:00,2022-12-23 13:21:00+00:00,0.0,US/Eastern,KTMB,25.6423,-80.4347,Miami,Miami-Dade,FL,33186.0
W-7406100,Rain,Light,2022-12-23 13:38:00+00:00,2022-12-23 14:08:00+00:00,0.0,US/Eastern,KTMB,25.6423,-80.4347,Miami,Miami-Dade,FL,33186.0
W-7406101,Rain,Light,2022-12-23 14:19:00+00:00,2022-12-23 14:28:00+00:00,0.0,US/Eastern,KTMB,25.6423,-80.4347,Miami,Miami-Dade,FL,33186.0
W-7406102,Rain,Light,2022-12-23 15:53:00+00:00,2022-12-23 16:53:00+00:00,0.03,US/Eastern,KTMB,25.6423,-80.4347,Miami,Miami-Dade,FL,33186.0
W-7406103,Rain,Light,2022-12-25 12:53:00+00:00,2022-12-25 13:53:00+00:00,0.0,US/Eastern,KTMB,25.6423,-80.4347,Miami,Miami-Dade,FL,33186.0
W-7406104,Rain,Light,2022-12-25 14:07:00+00:00,2022-12-25 15:53:00+00:00,0.01,US/Eastern,KTMB,25.6423,-80.4347,Miami,Miami-Dade,FL,33186.0
W-7406105,Rain,Light,2022-12-26 08:51:00+00:00,2022-12-26 09:17:00+00:00,0.0,US/Eastern,KTMB,25.6423,-80.4347,Miami,Miami-Dade,FL,33186.0
W-7406106,Rain,Light,2022-12-26 11:53:00+00:00,2022-12-26 13:25:00+00:00,0.0,US/Eastern,KTMB,25.6423,-80.4347,Miami,Miami-Dade,FL,33186.0
W-7406107,Rain,Light,2022-12-26 14:42:00+00:00,2022-12-26 18:53:00+00:00,0.12,US/Eastern,KTMB,25.6423,-80.4347,Miami,Miami-Dade,FL,33186.0
W-7406108,Rain,Light,2022-12-26 19:53:00+00:00,2022-12-26 20:53:00+00:00,0.0,US/Eastern,KTMB,25.6423,-80.4347,Miami,Miami-Dade,FL,33186.0
W-7406109,Rain,Light,2022-12-26 21:53:00+00:00,2022-12-27 00:53:00+00:00,0.04,US/Eastern,KTMB,25.6423,-80.4347,Miami,Miami-Dade,FL,33186.0
W-7406110,Rain,Moderate,2022-12-27 00:53:00+00:00,2022-12-27 01:51:00+00:00,0.1,US/Eastern,KTMB,25.6423,-80.4347,Miami,Miami-Dade,FL,33186.0
W-7406111,Rain,Light,2022-12-27 01:51:00+00:00,2022-12-27 12:27:00+00:00,0.45,US/Eastern,KTMB,25.6423,-80.4347,Miami,Miami-Dade,FL,33186.0
W-7406112,Rain,Light,2022-12-27 12:53:00+00:00,2022-12-27 13:38:00+00:00,0.0,US/Eastern,KTMB,25.6423,-80.4347,Miami,Miami-Dade,FL,33186.0
W-7406113,Cold,Severe,2022-12-29 00:53:00+00:00,2022-12-29 01:53:00+00:00,0.0,US/Eastern,KTMB,25.6423,-80.4347,Miami,Miami-Dade,FL,33186.0
W-7406114,Rain,Light,2022-12-30 07:53:00+00:00,2022-12-30 08:53:00+00:00,0.0,US/Eastern,KTMB,25.6423,-80.4347,Miami,Miami-Dade,FL,33186.0
W-8479718,Fog,Moderate,2022-01-01 05:53:00+00:00,2022-01-01 06:53:00+00:00,0.0,US/Eastern,KMIA,25.788,-80.3169,Miami,Miami-Dade,FL,33122
W-8479719,Rain,Moderate,2022-01-05 13:26:00+00:00,2022-01-05 13:53:00+00:00,0.38,US/Eastern,KMIA,25.788,-80.3169,Miami,Miami-Dade,FL,33122
W-8479720,Precipitation,UNK,2022-01-05 13:53:00+00:00,2022-01-05 14:00:00+00:00,0.21,US/Eastern,KMIA,25.788,-80.3169,Miami,Miami-Dade,FL,33122
W-8479721,Rain,Light,2022-01-09 03:53:00+00:00,2022-01-09 04:43:00+00:00,0.08,US/Eastern,KMIA,25.788,-80.3169,Miami,Miami-Dade,FL,33122
W-8479722,Rain,Light,2022-01-09 05:26:00+00:00,2022-01-09 05:36:00+00:00,0.07,US/Eastern,KMIA,25.788,-80.3169,Miami,Miami-Dade,FL,33122
W-8479723,Rain,Moderate,2022-01-09 05:36:00+00:00,2022-01-09 05:58:00+00:00,0.37,US/Eastern,KMIA,25.788,-80.3169,Miami,Miami-Dade,FL,33122
W-8479724,Rain,Light,2022-01-09 05:58:00+00:00,2022-01-09 06:53:00+00:00,0.0,US/Eastern,KMIA,25.788,-80.3169,Miami,Miami-Dade,FL,33122
W-8479725,Rain,Light,2022-01-09 07:53:00+00:00,2022-01-09 08:53:00+00:00,0.01,US/Eastern,KMIA,25.788,-80.3169,Miami,Miami-Dade,FL,33122
W-8479726,Rain,Light,2022-01-09 17:53:00+00:00,2022-01-09 18:53:00+00:00,0.0,US/Eastern,KMIA,25.788,-80.3169,Miami,Miami-Dade,FL,33122
W-8479727,Rain,Light,2022-01-09 23:53:00+00:00,2022-01-10 00:37:00+00:00,0.0,US/Eastern,KMIA,25.788,-80.3169,Miami,Miami-Dade,FL,33122
W-8479728,Rain,Light,2022-01-10 07:53:00+00:00,2022-01-10 08:12:00+00:00,0.0,US/Eastern,KMIA,25.788,-80.3169,Miami,Miami-Dade,FL,33122
W-8479729,Rain,Light,2022-01-11 20:53:00+00:00,2022-01-11 21:53:00+00:00,0.0,US/Eastern,KMIA,25.788,-80.3169,Miami,Miami-Dade,FL,33122
W-8479730,Rain,Light,2022-01-11 22:53:00+00:00,2022-01-11 23:34:00+00:00,0.0,US/Eastern,KMIA,25.788,-80.3169,Miami,Miami-Dade,FL,33122
W-8479731,Rain,Light,2022-01-11 23:53:00+00:00,2022-01-12 00:09:00+00:00,0.0,US/Eastern,KMIA,25.788,-80.3169,Miami,Miami-Dade,FL,33122
W-8479732,Rain,Light,2022-01-12 02:53:00+00:00,2022-01-12 03:28:00+00:00,0.02,US/Eastern,KMIA,25.788,-80.3169,Miami,Miami-Dade,FL,33122
W-8479733,Rain,Moderate,2022-01-12 03:28:00+00:00,2022-01-12 03:39:00+00:00,0.17,US/Eastern,KMIA,25.788,-80.3169,Miami,Miami-Dade,FL,33122
W-8479734,Rain,Heavy,2022-01-12 03:39:00+00:00,2022-01-12 04:02:00+00:00,1.07,US/Eastern,KMIA,25.788,-80.3169,Miami,Miami-Dade,FL,33122
W-8479735,Rain,Moderate,2022-01-12 04:02:00+00:00,2022-01-12 04:53:00+00:00,0.7,US/Eastern,KMIA,25.788,-80.3169,Miami,Miami-Dade,FL,33122
W-8479736,Precipitation,UNK,2022-01-12 04:53:00+00:00,2022-01-12 05:53:00+00:00,0.25,US/Eastern,KMIA,25.788,-80.3169,Miami,Miami-Dade,FL,33122
W-8479737,Rain,Light,2022-01-12 08:53:00+00:00,2022-01-12 09:53:00+00:00,0.0,US/Eastern,KMIA,25.788,-80.3169,Miami,Miami-Dade,FL,33122
W-8479738,Rain,Light,2022-01-16 18:00:00+00:00,2022-01-16 20:05:00+00:00,0.25,US/Eastern,KMIA,25.788,-80.3169,Miami,Miami-Dade,FL,33122
W-8479739,Rain,Light,2022-01-16 21:29:00+00:00,2022-01-16 21:51:00+00:00,0.0,US/Eastern,KMIA,25.788,-80.3169,Miami,Miami-Dade,FL,33122
W-8479740,Rain,Moderate,2022-01-20 20:42:00+00:00,2022-01-20 20:53:00+00:00,0.19,US/Eastern,KMIA,25.788,-80.3169,Miami,Miami-Dade,FL,33122
W-8479741,Rain,Heavy,2022-01-20 20:53:00+00:00,2022-01-20 20:56:00+00:00,0.29,US/Eastern,KMIA,25.788,-80.3169,Miami,Miami-Dade,FL,33122
W-8479742,Rain,Light,2022-01-20 20:56:00+00:00,2022-01-20 21:28:00+00:00,0.06,US/Eastern,KMIA,25.788,-80.3169,Miami,Miami-Dade,FL,33122
W-8479743,Rain,Heavy,2022-01-20 21:28:00+00:00,2022-01-20 22:53:00+00:00,5.47,US/Eastern,KMIA,25.788,-80.3169,Miami,Miami-Dade,FL,33122
W-8479744,Rain,Light,2022-01-21 02:53:00+00:00,2022-01-21 03:08:00+00:00,0.0,US/Eastern,KMIA,25.788,-80.3169,Miami,Miami-Dade,FL,33122
W-8479745,Rain,Light,2022-01-21 07:35:00+00:00,2022-01-21 07:40:00+00:00,0.04,US/Eastern,KMIA,25.788,-80.3169,Miami,Miami-Dade,FL,33122
W-8479746,Rain,Moderate,2022-01-21 07:40:00+00:00,2022-01-21 07:47:00+00:00,0.16,US/Eastern,KMIA,25.788,-80.3169,Miami,Miami-Dade,FL,33122
W-8479747,Rain,Heavy,2022-01-21 07:47:00+00:00,2022-01-21 07:57:00+00:00,1.39,US/Eastern,KMIA,25.788,-80.3169,Miami,Miami-Dade,FL,33122
W-8479748,Rain,Light,2022-01-21 07:57:00+00:00,2022-01-21 08:17:00+00:00,0.05,US/Eastern,KMIA,25.788,-80.3169,Miami,Miami-Dade,FL,33122
W-8479749,Rain,Heavy,2022-01-21 08:17:00+00:00,2022-01-21 08:57:00+00:00,5.22,US/Eastern,KMIA,25.788,-80.3169,Miami,Miami-Dade,FL,33122
W-8479750,Rain,Light,2022-01-21 08:57:00+00:00,2022-01-21 10:43:00+00:00,0.06,US/Eastern,KMIA,25.788,-80.3169,Miami,Miami-Dade,FL,33122
W-8479751,Rain,Light,2022-01-21 10:53:00+00:00,2022-01-21 11:53:00+00:00,0.02,US/Eastern,KMIA,25.788,-80.3169,Miami,Miami-Dade,FL,33122
W-8479752,Fog,Severe,2022-01-22 10:50:00+00:00,2022-01-22 12:10:00+00:00,0.0,US/Eastern,KMIA,25.788,-80.3169,Miami,Miami-Dade,FL,33122
W-8479753,Rain,Light,2022-01-23 02:53:00+00:00,2022-01-23 03:53:00+00:00,0.0,US/Eastern,KMIA,25.788,-80.3169,Miami,Miami-Dade,FL,33122
W-8479754,Rain,Light,2022-01-23 04:53:00+00:00,2022-01-23 05:18:00+00:00,0.01,US/Eastern,KMIA,25.788,-80.3169,Miami,Miami-Dade,FL,33122
W-8479755,Rain,Light,2022-01-26 02:53:00+00:00,2022-01-26 03:53:00+00:00,0.0,US/Eastern,KMIA,25.788,-80.3169,Miami,Miami-Dade,FL,33122
W-8479756,Rain,Light,2022-01-26 07:53:00+00:00,2022-01-26 08:53:00+00:00,0.0,US/Eastern,KMIA,25.788,-80.3169,Miami,Miami-Dade,FL,33122
W-8479757,Fog,Severe,2022-01-28 09:33:00+00:00,2022-01-28 14:49:00+00:00,0.0,US/Eastern,KMIA,25.788,-80.3169,Miami,Miami-Dade,FL,33122
W-8479758,Fog,Severe,2022-02-07 10:53:00+00:00,2022-02-07 14:00:00+00:00,0.0,US/Eastern,KMIA,25.788,-80.3169,Miami,Miami-Dade,FL,33122
W-8479759,Fog,Severe,2022-02-08 10:06:00+00:00,2022-02-08 12:09:00+00:00,0.0,US/Eastern,KMIA,25.788,-80.3169,Miami,Miami-Dade,FL,33122
W-8479760,Rain,Light,2022-02-08 22:53:00+00:00,2022-02-08 23:39:00+00:00,0.05,US/Eastern,KMIA,25.788,-80.3169,Miami,Miami-Dade,FL,33122
W-8479761,Rain,Light,2022-02-09 00:42:00+00:00,2022-02-09 01:53:00+00:00,0.11,US/Eastern,KMIA,25.788,-80.3169,Miami,Miami-Dade,FL,33122
W-8479762,Rain,Light,2022-02-09 13:53:00+00:00,2022-02-09 14:36:00+00:00,0.1,US/Eastern,KMIA,25.788,-80.3169,Miami,Miami-Dade,FL,33122
W-8479763,Rain,Moderate,2022-02-09 14:36:00+00:00,2022-02-09 15:53:00+00:00,0.42,US/Eastern,KMIA,25.788,-80.3169,Miami,Miami-Dade,FL,33122
W-8479764,Rain,Light,2022-02-09 18:33:00+00:00,2022-02-09 18:53:00+00:00,0.01,US/Eastern,KMIA,25.788,-80.3169,Miami,Miami-Dade,FL,33122
W-8479765,Rain,Light,2022-02-11 22:53:00+00:00,2022-02-11 23:53:00+00:00,0.01,US/Eastern,KMIA,25.788,-80.3169,Miami,Miami-Dade,FL,33122
W-8479766,Rain,Moderate,2022-02-13 09:53:00+00:00,2022-02-13 10:53:00+00:00,0.2,US/Eastern,KMIA,25.788,-80.3169,Miami,Miami-Dade,FL,33122
W-8479767,Rain,Light,2022-02-13 13:07:00+00:00,2022-02-13 13:31:00+00:00,0.0,US/Eastern,KMIA,25.788,-80.3169,Miami,Miami-Dade,FL,33122
W-8479768,Precipitation,UNK,2022-02-13 13:31:00+00:00,2022-02-13 13:53:00+00:00,0.2,US/Eastern,KMIA,25.788,-80.3169,Miami,Miami-Dade,FL,33122
W-8479769,Rain,Heavy,2022-02-13 13:53:00+00:00,2022-02-13 14:22:00+00:00,0.31,US/Eastern,KMIA,25.788,-80.3169,Miami,Miami-Dade,FL,33122
W-8479770,Rain,Moderate,2022-02-13 14:22:00+00:00,2022-02-13 14:53:00+00:00,0.12,US/Eastern,KMIA,25.788,-80.3169,Miami,Miami-Dade,FL,33122
W-8479771,Rain,Heavy,2022-02-13 14:53:00+00:00,2022-02-13 15:53:00+00:00,0.3,US/Eastern,KMIA,25.788,-80.3169,Miami,Miami-Dade,FL,33122
W-8479772,Rain,Light,2022-02-13 15:53:00+00:00,2022-02-13 16:13:00+00:00,0.06,US/Eastern,KMIA,25.788,-80.3169,Miami,Miami-Dade,FL,33122
W-8479773,Rain,Light,2022-02-16 19:53:00+00:00,2022-02-16 20:42:00+00:00,0.0,US/Eastern,KMIA,25.788,-80.3169,Miami,Miami-Dade,FL,33122
W-8479774,Rain,Light,2022-02-17 00:43:00+00:00,2022-02-17 01:53:00+00:00,0.0,US/Eastern,KMIA,25.788,-80.3169,Miami,Miami-Dade,FL,33122
W-8479775,Rain,Light,2022-02-17 05:53:00+00:00,2022-02-17 06:07:00+00:00,0.01,US/Eastern,KMIA,25.788,-80.3169,Miami,Miami-Dade,FL,33122
W-8479776,Rain,Light,2022-02-19 22:51:00+00:00,2022-02-19 23:53:00+00:00,0.06,US/Eastern,KMIA,25.788,-80.3169,Miami,Miami-Dade,FL,33122
W-8479777,Rain,Light,2022-02-20 00:53:00+00:00,2022-02-20 01:53:00+00:00,0.06,US/Eastern,KMIA,25.788,-80.3169,Miami,Miami-Dade,FL,33122
W-8479778,Precipitation,UNK,2022-02-20 01:53:00+00:00,2022-02-20 02:20:00+00:00,0.21,US/Eastern,KMIA,25.788,-80.3169,Miami,Miami-Dade,FL,33122
W-8479779,Rain,Light,2022-02-28 00:53:00+00:00,2022-02-28 01:19:00+00:00,0.0,US/Eastern,KMIA,25.788,-80.3169,Miami,Miami-Dade,FL,33122
W-8479780,Rain,Light,2022-03-02 15:53:00+00:00,2022-03-02 16:53:00+00:00,0.02,US/Eastern,KMIA,25.788,-80.3169,Miami,Miami-Dade,FL,33122
W-8479781,Rain,Light,2022-03-02 18:53:00+00:00,2022-03-02 19:53:00+00:00,0.0,US/Eastern,KMIA,25.788,-80.3169,Miami,Miami-Dade,FL,33122
W-8479782,Rain,Light,2022-03-03 05:53:00+00:00,2022-03-03 08:53:00+00:00,0.03,US/Eastern,KMIA,25.788,-80.3169,Miami,Miami-Dade,FL,33122
W-8479783,Rain,Light,2022-03-05 08:53:00+00:00,2022-03-05 09:53:00+00:00,0.0,US/Eastern,KMIA,25.788,-80.3169,Miami,Miami-Dade,FL,33122
W-8479784,Rain,Light,2022-03-06 19:53:00+00:00,2022-03-06 20:53:00+00:00,0.0,US/Eastern,KMIA,25.788,-80.3169,Miami,Miami-Dade,FL,33122
W-8479785,Rain,Light,2022-03-07 09:53:00+00:00,2022-03-07 10:53:00+00:00,0.0,US/Eastern,KMIA,25.788,-80.3169,Miami,Miami-Dade,FL,33122
W-8479786,Rain,Light,2022-03-07 22:53:00+00:00,2022-03-08 00:53:00+00:00,0.01,US/Eastern,KMIA,25.788,-80.3169,Miami,Miami-Dade,FL,33122
W-8479787,Rain,Moderate,2022-03-08 00:53:00+00:00,2022-03-08 01:53:00+00:00,0.11,US/Eastern,KMIA,25.788,-80.3169,Miami,Miami-Dade,FL,33122
W-8479788,Rain,Light,2022-03-10 16:40:00+00:00,2022-03-10 17:09:00+00:00,0.02,US/Eastern,KMIA,25.788,-80.3169,Miami,Miami-Dade,FL,33122
W-8479789,Rain,Light,2022-03-10 18:46:00+00:00,2022-03-10 18:53:00+00:00,0.02,US/Eastern,KMIA,25.788,-80.3169,Miami,Miami-Dade,FL,33122
W-8479790,Rain,Light,2022-03-12 20:50:00+00:00,2022-03-12 20:53:00+00:00,0.0,US/Eastern,KMIA,25.788,-80.3169,Miami,Miami-Dade,FL,33122
W-8479791,Rain,Light,2022-03-14 21:09:00+00:00,2022-03-15 03:53:00+00:00,0.16,US/Eastern,KMIA,25.788,-80.3169,Miami,Miami-Dade,FL,33122
W-8479792,Rain,Light,2022-03-15 05:06:00+00:00,2022-03-15 06:53:00+00:00,0.16,US/Eastern,KMIA,25.788,-80.3169,Miami,Miami-Dade,FL,33122
W-8479793,Rain,Light,2022-03-15 07:30:00+00:00,2022-03-15 09:16:00+00:00,0.05,US/Eastern,KMIA,25.788,-80.3169,Miami,Miami-Dade,FL,33122
W-8479794,Rain,Light,2022-03-15 14:53:00+00:00,2022-03-15 15:42:00+00:00,0.0,US/Eastern,KMIA,25.788,-80.3169,Miami,Miami-Dade,FL,33122
W-8479795,Rain,Moderate,2022-03-15 15:42:00+00:00,2022-03-15 15:53:00+00:00,0.5,US/Eastern,KMIA,25.788,-80.3169,Miami,Miami-Dade,FL,33122
W-8479796,Rain,Heavy,2022-03-15 15:53:00+00:00,2022-03-15 16:22:00+00:00,0.29,US/Eastern,KMIA,25.788,-80.3169,Miami,Miami-Dade,FL,33122
W-8479797,Rain,Light,2022-03-15 16:22:00+00:00,2022-03-15 16:41:00+00:00,0.14,US/Eastern,KMIA,25.788,-80.3169,Miami,Miami-Dade,FL,33122
W-8479798,Rain,Light,2022-03-15 20:53:00+00:00,2022-03-15 21:53:00+00:00,0.01,US/Eastern,KMIA,25.788,-80.3169,Miami,Miami-Dade,FL,33122
W-8479799,Rain,Moderate,2022-03-15 21:53:00+00:00,2022-03-15 22:53:00+00:00,0.25,US/Eastern,KMIA,25.788,-80.3169,Miami,Miami-Dade,FL,33122
W-8479800,Rain,Light,2022-03-20 18:47:00+00:00,2022-03-20 19:25:00+00:00,0.0,US/Eastern,KMIA,25.788,-80.3169,Miami,Miami-Dade,FL,33122
W-8479801,Rain,Light,2022-03-20 20:41:00+00:00,2022-03-20 20:53:00+00:00,0.05,US/Eastern,KMIA,25.788,-80.3169,Miami,Miami-Dade,FL,33122
W-8479802,Rain,Heavy,2022-03-25 09:45:00+00:00,2022-03-25 10:09:00+00:00,0.85,US/Eastern,KMIA,25.788,-80.3169,Miami,Miami-Dade,FL,33122
W-8479803,Rain,Light,2022-03-25 10:09:00+00:00,2022-03-25 10:38:00+00:00,0.11,US/Eastern,KMIA,25.788,-80.3169,Miami,Miami-Dade,FL,33122
W-8479804,Rain,Light,2022-04-03 04:53:00+00:00,2022-04-03 05:53:00+00:00,0.09,US/Eastern,KMIA,25.788,-80.3169,Miami,Miami-Dade,FL,33122
W-8479805,Rain,Light,2022-04-03 06:53:00+00:00,2022-04-03 07:53:00+00:00,0.01,US/Eastern,KMIA,25.788,-80.3169,Miami,Miami-Dade,FL,33122
W-8479806,Rain,Light,2022-04-04 16:37:00+00:00,2022-04-04 17:50:00+00:00,0.05,US/Eastern,KMIA,25.788,-80.3169,Miami,Miami-Dade,FL,33122
W-8479807,Rain,Light,2022-04-04 22:53:00+00:00,2022-04-04 23:53:00+00:00,0.0,US/Eastern,KMIA,25.788,-80.3169,Miami,Miami-Dade,FL,33122
W-8479808,Rain,Light,2022-04-15 15:53:00+00:00,2022-04-15 16:30:00+00:00,0.02,US/Eastern,KMIA,25.788,-80.3169,Miami,Miami-Dade,FL,33122
W-8479809,Rain,Light,2022-04-15 16:51:00+00:00,2022-04-15 17:47:00+00:00,0.18,US/Eastern,KMIA,25.788,-80.3169,Miami,Miami-Dade,FL,33122
W-8479810,Precipitation,UNK,2022-04-15 17:47:00+00:00,2022-04-15 18:35:00+00:00,6.33,US/Eastern,KMIA,25.788,-80.3169,Miami,Miami-Dade,FL,33122
W-8479811,Rain,Heavy,2022-04-15 18:35:00+00:00,2022-04-15 18:53:00+00:00,1.95,US/Eastern,KMIA,25.788,-80.3169,Miami,Miami-Dade,FL,33122
W-8479812,Precipitation,UNK,2022-04-15 18:53:00+00:00,2022-04-15 19:20:00+00:00,1.95,US/Eastern,KMIA,25.788,-80.3169,Miami,Miami-Dade,FL,33122
W-8479813,Rain,Light,2022-04-15 22:51:00+00:00,2022-04-15 23:53:00+00:00,0.0,US/Eastern,KMIA,25.788,-80.3169,Miami,Miami-Dade,FL,33122
W-8479814,Rain,Light,2022-04-20 08:53:00+00:00,2022-04-20 09:53:00+00:00,0.0,US/Eastern,KMIA,25.788,-80.3169,Miami,Miami-Dade,FL,33122
W-8479815,Rain,Light,2022-04-22 06:53:00+00:00,2022-04-22 07:53:00+00:00,0.0,US/Eastern,KMIA,25.788,-80.3169,Miami,Miami-Dade,FL,33122
W-8479816,Rain,Light,2022-04-22 08:39:00+00:00,2022-04-22 09:53:00+00:00,0.04,US/Eastern,KMIA,25.788,-80.3169,Miami,Miami-Dade,FL,33122
W-8479817,Rain,Light,2022-04-29 14:51:00+00:00,2022-04-29 15:12:00+00:00,0.0,US/Eastern,KMIA,25.788,-80.3169,Miami,Miami-Dade,FL,33122
W-8479818,Rain,Light,2022-04-29 19:53:00+00:00,2022-04-29 20:28:00+00:00,0.0,US/Eastern,KMIA,25.788,-80.3169,Miami,Miami-Dade,FL,33122
W-8479819,Rain,Light,2022-04-29 20:53:00+00:00,2022-04-29 21:08:00+00:00,0.0,US/Eastern,KMIA,25.788,-80.3169,Miami,Miami-Dade,FL,33122
W-8479820,Precipitation,UNK,2022-04-30 12:22:00+00:00,2022-04-30 12:33:00+00:00,0.42,US/Eastern,KMIA,25.788,-80.3169,Miami,Miami-Dade,FL,33122
W-8479821,Rain,Heavy,2022-04-30 12:33:00+00:00,2022-04-30 13:53:00+00:00,1.52,US/Eastern,KMIA,25.788,-80.3169,Miami,Miami-Dade,FL,33122
W-8479822,Rain,Moderate,2022-04-30 14:53:00+00:00,2022-04-30 15:16:00+00:00,0.2,US/Eastern,KMIA,25.788,-80.3169,Miami,Miami-Dade,FL,33122
W-8479823,Rain,Light,2022-05-01 03:53:00+00:00,2022-05-01 04:53:00+00:00,0.0,US/Eastern,KMIA,25.788,-80.3169,Miami,Miami-Dade,FL,33122
W-8479824,Rain,Light,2022-05-03 09:53:00+00:00,2022-05-03 10:06:00+00:00,0.0,US/Eastern,KMIA,25.788,-80.3169,Miami,Miami-Dade,FL,33122
W-8479825,Rain,Light,2022-05-03 14:27:00+00:00,2022-05-03 14:53:00+00:00,0.0,US/Eastern,KMIA,25.788,-80.3169,Miami,Miami-Dade,FL,33122
W-8479826,Rain,Light,2022-05-04 22:53:00+00:00,2022-05-04 23:38:00+00:00,0.0,US/Eastern,KMIA,25.788,-80.3169,Miami,Miami-Dade,FL,33122
W-8479827,Rain,Moderate,2022-05-04 23:38:00+00:00,2022-05-04 23:53:00+00:00,0.22,US/Eastern,KMIA,25.788,-80.3169,Miami,Miami-Dade,FL,33122
W-8479828,Precipitation,UNK,2022-05-04 23:53:00+00:00,2022-05-05 00:53:00+00:00,0.22,US/Eastern,KMIA,25.788,-80.3169,Miami,Miami-Dade,FL,33122
W-8479829,Rain,Light,2022-05-05 00:53:00+00:00,2022-05-05 01:01:00+00:00,0.06,US/Eastern,KMIA,25.788,-80.3169,Miami,Miami-Dade,FL,33122
W-8479830,Rain,Light,2022-05-08 12:53:00+00:00,2022-05-08 14:53:00+00:00,0.02,US/Eastern,KMIA,25.788,-80.3169,Miami,Miami-Dade,FL,33122
W-8479831,Rain,Light,2022-05-08 18:53:00+00:00,2022-05-08 19:53:00+00:00,0.0,US/Eastern,KMIA,25.788,-80.3169,Miami,Miami-Dade,FL,33122
W-8479832,Rain,Light,2022-05-12 20:29:00+00:00,2022-05-12 21:53:00+00:00,0.1,US/Eastern,KMIA,25.788,-80.3169,Miami,Miami-Dade,FL,33122
W-8479833,Rain,Light,2022-05-13 01:02:00+00:00,2022-05-13 02:53:00+00:00,0.05,US/Eastern,KMIA,25.788,-80.3169,Miami,Miami-Dade,FL,33122
W-8479834,Rain,Light,2022-05-15 21:17:00+00:00,2022-05-15 21:51:00+00:00,0.0,US/Eastern,KMIA,25.788,-80.3169,Miami,Miami-Dade,FL,33122
W-8479835,Rain,Light,2022-05-15 23:38:00+00:00,2022-05-15 23:53:00+00:00,0.0,US/Eastern,KMIA,25.788,-80.3169,Miami,Miami-Dade,FL,33122
W-8479836,Rain,Light,2022-05-16 20:25:00+00:00,2022-05-16 20:36:00+00:00,0.0,US/Eastern,KMIA,25.788,-80.3169,Miami,Miami-Dade,FL,33122
W-8479837,Precipitation,UNK,2022-05-16 20:46:00+00:00,2022-05-16 20:53:00+00:00,0.38,US/Eastern,KMIA,25.788,-80.3169,Miami,Miami-Dade,FL,33122
W-8479838,Rain,Heavy,2022-05-16 20:53:00+00:00,2022-05-16 21:13:00+00:00,0.44,US/Eastern,KMIA,25.788,-80.3169,Miami,Miami-Dade,FL,33122
W-8479839,Rain,Light,2022-05-17 20:53:00+00:00,2022-05-17 21:11:00+00:00,0.0,US/Eastern,KMIA,25.788,-80.3169,Miami,Miami-Dade,FL,33122
W-8479840,Precipitation,UNK,2022-05-20 07:33:00+00:00,2022-05-20 07:50:00+00:00,0.69,US/Eastern,KMIA,25.788,-80.3169,Miami,Miami-Dade,FL,33122
W-8479841,Rain,Heavy,2022-05-20 07:50:00+00:00,2022-05-20 07:55:00+00:00,2.48,US/Eastern,KMIA,25.788,-80.3169,Miami,Miami-Dade,FL,33122
W-8479842,Rain,Light,2022-05-20 07:55:00+00:00,2022-05-20 08:30:00+00:00,0.01,US/Eastern,KMIA,25.788,-80.3169,Miami,Miami-Dade,FL,33122
W-8479843,Precipitation,UNK,2022-05-20 08:30:00+00:00,2022-05-20 08:58:00+00:00,0.6,US/Eastern,KMIA,25.788,-80.3169,Miami,Miami-Dade,FL,33122
W-8479844,Rain,Light,2022-05-20 08:58:00+00:00,2022-05-20 09:53:00+00:00,0.0,US/Eastern,KMIA,25.788,-80.3169,Miami,Miami-Dade,FL,33122
W-8479845,Rain,Moderate,2022-05-20 20:48:00+00:00,2022-05-20 21:53:00+00:00,0.22,US/Eastern,KMIA,25.788,-80.3169,Miami,Miami-Dade,FL,33122
W-8479846,Rain,Light,2022-05-20 23:53:00+00:00,2022-05-21 00:53:00+00:00,0.0,US/Eastern,KMIA,25.788,-80.3169,Miami,Miami-Dade,FL,33122
W-8479847,Rain,Light,2022-05-28 07:22:00+00:00,2022-05-28 07:36:00+00:00,0.0,US/Eastern,KMIA,25.788,-80.3169,Miami,Miami-Dade,FL,33122
W-8479848,Rain,Light,2022-05-28 08:53:00+00:00,2022-05-28 09:53:00+00:00,0.03,US/Eastern,KMIA,25.788,-80.3169,Miami,Miami-Dade,FL,33122
W-8479849,Rain,Light,2022-05-29 00:53:00+00:00,2022-05-29 01:53:00+00:00,0.0,US/Eastern,KMIA,25.788,-80.3169,Miami,Miami-Dade,FL,33122
W-8479850,Rain,Moderate,2022-05-29 01:53:00+00:00,2022-05-29 02:04:00+00:00,0.26,US/Eastern,KMIA,25.788,-80.3169,Miami,Miami-Dade,FL,33122
W-8479851,Rain,Light,2022-05-29 02:04:00+00:00,2022-05-29 02:53:00+00:00,0.0,US/Eastern,KMIA,25.788,-80.3169,Miami,Miami-Dade,FL,33122
W-8479852,Rain,Light,2022-05-29 21:34:00+00:00,2022-05-29 21:53:00+00:00,0.0,US/Eastern,KMIA,25.788,-80.3169,Miami,Miami-Dade,FL,33122
W-8479853,Rain,Moderate,2022-05-29 22:36:00+00:00,2022-05-29 23:17:00+00:00,0.74,US/Eastern,KMIA,25.788,-80.3169,Miami,Miami-Dade,FL,33122
W-8479854,Rain,Light,2022-05-29 23:17:00+00:00,2022-05-29 23:37:00+00:00,0.04,US/Eastern,KMIA,25.788,-80.3169,Miami,Miami-Dade,FL,33122
W-8479855,Rain,Moderate,2022-05-29 23:50:00+00:00,2022-05-30 00:53:00+00:00,0.22,US/Eastern,KMIA,25.788,-80.3169,Miami,Miami-Dade,FL,33122
W-8479856,Precipitation,UNK,2022-05-30 11:53:00+00:00,2022-05-30 12:22:00+00:00,1.01,US/Eastern,KMIA,25.788,-80.3169,Miami,Miami-Dade,FL,33122
W-8479857,Rain,Heavy,2022-05-30 12:22:00+00:00,2022-05-30 13:01:00+00:00,0.85,US/Eastern,KMIA,25.788,-80.3169,Miami,Miami-Dade,FL,33122
W-8479858,Rain,Light,2022-05-30 13:01:00+00:00,2022-05-30 13:53:00+00:00,0.05,US/Eastern,KMIA,25.788,-80.3169,Miami,Miami-Dade,FL,33122
W-8479859,Rain,Light,2022-05-30 21:53:00+00:00,2022-05-30 22:53:00+00:00,0.0,US/Eastern,KMIA,25.788,-80.3169,Miami,Miami-Dade,FL,33122
W-8479860,Rain,Light,2022-05-31 17:51:00+00:00,2022-05-31 18:53:00+00:00,0.04,US/Eastern,KMIA,25.788,-80.3169,Miami,Miami-Dade,FL,33122
W-8479861,Precipitation,UNK,2022-06-01 23:03:00+00:00,2022-06-02 00:05:00+00:00,8.75,US/Eastern,KMIA,25.788,-80.3169,Miami,Miami-Dade,FL,33122
W-8479862,Rain,Light,2022-06-02 00:05:00+00:00,2022-06-02 00:53:00+00:00,0.17,US/Eastern,KMIA,25.788,-80.3169,Miami,Miami-Dade,FL,33122
W-8479863,Rain,Light,2022-06-02 21:07:00+00:00,2022-06-02 21:12:00+00:00,0.0,US/Eastern,KMIA,25.788,-80.3169,Miami,Miami-Dade,FL,33122
W-8479864,Rain,Moderate,2022-06-02 21:12:00+00:00,2022-06-02 22:53:00+00:00,0.6,US/Eastern,KMIA,25.788,-80.3169,Miami,Miami-Dade,FL,33122
W-8479865,Rain,Light,2022-06-03 03:53:00+00:00,2022-06-03 04:53:00+00:00,0.01,US/Eastern,KMIA,25.788,-80.3169,Miami,Miami-Dade,FL,33122
W-8479866,Rain,Light,2022-06-03 06:35:00+00:00,2022-06-03 06:53:00+00:00,0.02,US/Eastern,KMIA,25.788,-80.3169,Miami,Miami-Dade,FL,33122
W-8479867,Rain,Light,2022-06-03 07:28:00+00:00,2022-06-03 08:53:00+00:00,0.11,US/Eastern,KMIA,25.788,-80.3169,Miami,Miami-Dade,FL,33122
W-8479868,Rain,Moderate,2022-06-03 08:53:00+00:00,2022-06-03 09:53:00+00:00,0.11,US/Eastern,KMIA,25.788,-80.3169,Miami,Miami-Dade,FL,33122
W-8479869,Rain,Light,2022-06-03 10:53:00+00:00,2022-06-03 16:49:00+00:00,0.35,US/Eastern,KMIA,25.788,-80.3169,Miami,Miami-Dade,FL,33122
W-8479870,Rain,Moderate,2022-06-03 16:49:00+00:00,2022-06-03 16:57:00+00:00,0.53,US/Eastern,KMIA,25.788,-80.3169,Miami,Miami-Dade,FL,33122
W-8479871,Rain,Light,2022-06-03 16:57:00+00:00,2022-06-03 17:53:00+00:00,0.03,US/Eastern,KMIA,25.788,-80.3169,Miami,Miami-Dade,FL,33122
W-8479872,Rain,Moderate,2022-06-03 17:53:00+00:00,2022-06-03 20:01:00+00:00,1.19,US/Eastern,KMIA,25.788,-80.3169,Miami,Miami-Dade,FL,33122
W-8479873,Rain,Light,2022-06-03 20:01:00+00:00,2022-06-04 02:53:00+00:00,0.36,US/Eastern,KMIA,25.788,-80.3169,Miami,Miami-Dade,FL,33122
W-8479874,Rain,Moderate,2022-06-04 02:53:00+00:00,2022-06-04 03:53:00+00:00,0.32,US/Eastern,KMIA,25.788,-80.3169,Miami,Miami-Dade,FL,33122
W-8479875,Rain,Heavy,2022-06-04 03:53:00+00:00,2022-06-04 04:26:00+00:00,0.32,US/Eastern,KMIA,25.788,-80.3169,Miami,Miami-Dade,FL,33122
W-8479876,Rain,Light,2022-06-04 04:26:00+00:00,2022-06-04 04:47:00+00:00,0.06,US/Eastern,KMIA,25.788,-80.3169,Miami,Miami-Dade,FL,33122
W-8479877,Rain,Moderate,2022-06-04 04:47:00+00:00,2022-06-04 05:10:00+00:00,0.25,US/Eastern,KMIA,25.788,-80.3169,Miami,Miami-Dade,FL,33122
W-8479878,Rain,Light,2022-06-04 05:10:00+00:00,2022-06-04 05:18:00+00:00,0.09,US/Eastern,KMIA,25.788,-80.3169,Miami,Miami-Dade,FL,33122
W-8479879,Rain,Moderate,2022-06-04 05:18:00+00:00,2022-06-04 05:44:00+00:00,0.47,US/Eastern,KMIA,25.788,-80.3169,Miami,Miami-Dade,FL,33122
W-8479880,Rain,Heavy,2022-06-04 05:44:00+00:00,2022-06-04 05:57:00+00:00,2.15,US/Eastern,KMIA,25.788,-80.3169,Miami,Miami-Dade,FL,33122
W-8479881,Rain,Light,2022-06-04 05:57:00+00:00,2022-06-04 06:48:00+00:00,0.01,US/Eastern,KMIA,25.788,-80.3169,Miami,Miami-Dade,FL,33122
W-8479882,Rain,Moderate,2022-06-04 06:48:00+00:00,2022-06-04 07:02:00+00:00,0.43,US/Eastern,KMIA,25.788,-80.3169,Miami,Miami-Dade,FL,33122
W-8479883,Rain,Light,2022-06-04 07:02:00+00:00,2022-06-04 07:20:00+00:00,0.08,US/Eastern,KMIA,25.788,-80.3169,Miami,Miami-Dade,FL,33122
W-8479884,Rain,Heavy,2022-06-04 07:20:00+00:00,2022-06-04 08:10:00+00:00,2.51,US/Eastern,KMIA,25.788,-80.3169,Miami,Miami-Dade,FL,33122
W-8479885,Rain,Moderate,2022-06-04 08:10:00+00:00,2022-06-04 08:41:00+00:00,0.11,US/Eastern,KMIA,25.788,-80.3169,Miami,Miami-Dade,FL,33122
W-8479886,Rain,Heavy,2022-06-04 08:41:00+00:00,2022-06-04 08:59:00+00:00,2.06,US/Eastern,KMIA,25.788,-80.3169,Miami,Miami-Dade,FL,33122
W-8479887,Rain,Moderate,2022-06-04 08:59:00+00:00,2022-06-04 09:14:00+00:00,0.14,US/Eastern,KMIA,25.788,-80.3169,Miami,Miami-Dade,FL,33122
W-8479888,Rain,Heavy,2022-06-04 09:14:00+00:00,2022-06-04 10:53:00+00:00,0.47,US/Eastern,KMIA,25.788,-80.3169,Miami,Miami-Dade,FL,33122
W-8479889,Rain,Moderate,2022-06-04 10:53:00+00:00,2022-06-04 11:30:00+00:00,0.41,US/Eastern,KMIA,25.788,-80.3169,Miami,Miami-Dade,FL,33122
W-8479890,Rain,Heavy,2022-06-04 11:30:00+00:00,2022-06-04 12:21:00+00:00,2.21,US/Eastern,KMIA,25.788,-80.3169,Miami,Miami-Dade,FL,33122
W-8479891,Rain,Moderate,2022-06-04 12:21:00+00:00,2022-06-04 12:37:00+00:00,0.2,US/Eastern,KMIA,25.788,-80.3169,Miami,Miami-Dade,FL,33122
W-8479892,Precipitation,UNK,2022-06-04 12:37:00+00:00,2022-06-04 13:33:00+00:00,0.42,US/Eastern,KMIA,25.788,-80.3169,Miami,Miami-Dade,FL,33122
W-8479893,Rain,Light,2022-06-04 13:33:00+00:00,2022-06-04 13:53:00+00:00,0.09,US/Eastern,KMIA,25.788,-80.3169,Miami,Miami-Dade,FL,33122
W-8479894,Rain,Moderate,2022-06-04 13:53:00+00:00,2022-06-04 16:49:00+00:00,0.47,US/Eastern,KMIA,25.788,-80.3169,Miami,Miami-Dade,FL,33122
W-8479895,Precipitation,UNK,2022-06-04 17:03:00+00:00,2022-06-04 17:36:00+00:00,1.13,US/Eastern,KMIA,25.788,-80.3169,Miami,Miami-Dade,FL,33122
W-8479896,Rain,Heavy,2022-06-04 17:36:00+00:00,2022-06-04 18:53:00+00:00,1.55,US/Eastern,KMIA,25.788,-80.3169,Miami,Miami-Dade,FL,33122
W-8479897,Rain,Light,2022-06-05 02:27:00+00:00,2022-06-05 03:35:00+00:00,0.02,US/Eastern,KMIA,25.788,-80.3169,Miami,Miami-Dade,FL,33122
W-8479898,Rain,Light,2022-06-06 19:44:00+00:00,2022-06-06 20:53:00+00:00,0.02,US/Eastern,KMIA,25.788,-80.3169,Miami,Miami-Dade,FL,33122
W-8479899,Rain,Light,2022-06-07 04:53:00+00:00,2022-06-07 05:53:00+00:00,0.01,US/Eastern,KMIA,25.788,-80.3169,Miami,Miami-Dade,FL,33122
W-8479900,Rain,Light,2022-06-07 20:18:00+00:00,2022-06-07 20:53:00+00:00,0.02,US/Eastern,KMIA,25.788,-80.3169,Miami,Miami-Dade,FL,33122
W-8479901,Rain,Light,2022-06-07 22:43:00+00:00,2022-06-07 23:22:00+00:00,0.01,US/Eastern,KMIA,25.788,-80.3169,Miami,Miami-Dade,FL,33122
W-8479902,Rain,Light,2022-06-08 23:02:00+00:00,2022-06-08 23:17:00+00:00,0.0,US/Eastern,KMIA,25.788,-80.3169,Miami,Miami-Dade,FL,33122
W-8479903,Rain,Light,2022-06-09 00:53:00+00:00,2022-06-09 02:53:00+00:00,0.08,US/Eastern,KMIA,25.788,-80.3169,Miami,Miami-Dade,FL,33122
W-8479904,Rain,Light,2022-06-09 04:53:00+00:00,2022-06-09 05:53:00+00:00,0.0,US/Eastern,KMIA,25.788,-80.3169,Miami,Miami-Dade,FL,33122
W-8479905,Rain,Light,2022-06-09 18:26:00+00:00,2022-06-09 19:53:00+00:00,0.0,US/Eastern,KMIA,25.788,-80.3169,Miami,Miami-Dade,FL,33122
W-8479906,Rain,Light,2022-06-09 20:53:00+00:00,2022-06-09 23:53:00+00:00,0.23,US/Eastern,KMIA,25.788,-80.3169,Miami,Miami-Dade,FL,33122
W-8479907,Rain,Light,2022-06-10 18:22:00+00:00,2022-06-10 18:46:00+00:00,0.03,US/Eastern,KMIA,25.788,-80.3169,Miami,Miami-Dade,FL,33122
W-8479908,Rain,Light,2022-06-10 19:12:00+00:00,2022-06-10 19:53:00+00:00,0.0,US/Eastern,KMIA,25.788,-80.3169,Miami,Miami-Dade,FL,33122
W-8479909,Rain,Light,2022-06-11 18:53:00+00:00,2022-06-11 19:41:00+00:00,0.0,US/Eastern,KMIA,25.788,-80.3169,Miami,Miami-Dade,FL,33122
W-8479910,Rain,Light,2022-06-11 20:53:00+00:00,2022-06-11 23:53:00+00:00,0.02,US/Eastern,KMIA,25.788,-80.3169,Miami,Miami-Dade,FL,33122
W-8479911,Precipitation,UNK,2022-06-12 19:35:00+00:00,2022-06-12 20:03:00+00:00,2.24,US/Eastern,KMIA,25.788,-80.3169,Miami,Miami-Dade,FL,33122
W-8479912,Rain,Light,2022-06-12 20:03:00+00:00,2022-06-12 20:53:00+00:00,0.03,US/Eastern,KMIA,25.788,-80.3169,Miami,Miami-Dade,FL,33122
W-8479913,Rain,Light,2022-06-14 14:53:00+00:00,2022-06-14 15:06:00+00:00,0.01,US/Eastern,KMIA,25.788,-80.3169,Miami,Miami-Dade,FL,33122
W-8479914,Rain,Light,2022-06-17 12:24:00+00:00,2022-06-17 12:53:00+00:00,0.02,US/Eastern,KMIA,25.788,-80.3169,Miami,Miami-Dade,FL,33122
W-8479915,Rain,Light,2022-06-17 13:03:00+00:00,2022-06-17 13:29:00+00:00,0.04,US/Eastern,KMIA,25.788,-80.3169,Miami,Miami-Dade,FL,33122
W-8479916,Rain,Light,2022-06-19 20:17:00+00:00,2022-06-19 20:27:00+00:00,0.0,US/Eastern,KMIA,25.788,-80.3169,Miami,Miami-Dade,FL,33122
W-8479917,Rain,Heavy,2022-06-19 20:44:00+00:00,2022-06-19 22:26:00+00:00,3.39,US/Eastern,KMIA,25.788,-80.3169,Miami,Miami-Dade,FL,33122
W-8479918,Rain,Light,2022-06-20 17:53:00+00:00,2022-06-20 18:53:00+00:00,0.01,US/Eastern,KMIA,25.788,-80.3169,Miami,Miami-Dade,FL,33122
W-8479919,Rain,Light,2022-06-21 17:19:00+00:00,2022-06-21 17:33:00+00:00,0.06,US/Eastern,KMIA,25.788,-80.3169,Miami,Miami-Dade,FL,33122
W-8479920,Rain,Moderate,2022-06-21 17:33:00+00:00,2022-06-21 17:53:00+00:00,0.21,US/Eastern,KMIA,25.788,-80.3169,Miami,Miami-Dade,FL,33122
W-8479921,Precipitation,UNK,2022-06-21 17:53:00+00:00,2022-06-21 18:53:00+00:00,0.21,US/Eastern,KMIA,25.788,-80.3169,Miami,Miami-Dade,FL,33122
W-8479922,Rain,Light,2022-06-22 06:53:00+00:00,2022-06-22 08:53:00+00:00,0.01,US/Eastern,KMIA,25.788,-80.3169,Miami,Miami-Dade,FL,33122
W-8479923,Rain,Light,2022-06-25 21:18:00+00:00,2022-06-25 21:27:00+00:00,0.06,US/Eastern,KMIA,25.788,-80.3169,Miami,Miami-Dade,FL,33122
W-8479924,Rain,Moderate,2022-06-25 21:27:00+00:00,2022-06-25 21:37:00+00:00,0.27,US/Eastern,KMIA,25.788,-80.3169,Miami,Miami-Dade,FL,33122
W-8479925,Rain,Heavy,2022-06-25 21:37:00+00:00,2022-06-25 22:53:00+00:00,1.79,US/Eastern,KMIA,25.788,-80.3169,Miami,Miami-Dade,FL,33122
W-8479926,Rain,Light,2022-06-29 19:53:00+00:00,2022-06-29 20:13:00+00:00,0.0,US/Eastern,KMIA,25.788,-80.3169,Miami,Miami-Dade,FL,33122
W-8479927,Rain,Light,2022-07-05 15:53:00+00:00,2022-07-05 16:05:00+00:00,0.0,US/Eastern,KMIA,25.788,-80.3169,Miami,Miami-Dade,FL,33122
W-8479928,Rain,Light,2022-07-06 03:50:00+00:00,2022-07-06 04:53:00+00:00,0.02,US/Eastern,KMIA,25.788,-80.3169,Miami,Miami-Dade,FL,33122
W-8479929,Rain,Light,2022-07-08 12:53:00+00:00,2022-07-08 13:53:00+00:00,0.06,US/Eastern,KMIA,25.788,-80.3169,Miami,Miami-Dade,FL,33122
W-8479930,Rain,Light,2022-07-09 02:53:00+00:00,2022-07-09 03:53:00+00:00,0.0,US/Eastern,KMIA,25.788,-80.3169,Miami,Miami-Dade,FL,33122
W-8479931,Rain,Light,2022-07-09 04:53:00+00:00,2022-07-09 05:53:00+00:00,0.0,US/Eastern,KMIA,25.788,-80.3169,Miami,Miami-Dade,FL,33122
W-8479932,Rain,Light,2022-07-10 18:21:00+00:00,2022-07-10 18:40:00+00:00,0.05,US/Eastern,KMIA,25.788,-80.3169,Miami,Miami-Dade,FL,33122
W-8479933,Rain,Light,2022-07-12 12:53:00+00:00,2022-07-12 13:53:00+00:00,0.0,US/Eastern,KMIA,25.788,-80.3169,Miami,Miami-Dade,FL,33122
W-8479934,Precipitation,UNK,2022-07-15 07:08:00+00:00,2022-07-15 08:53:00+00:00,1.59,US/Eastern,KMIA,25.788,-80.3169,Miami,Miami-Dade,FL,33122
W-8479935,Rain,Light,2022-07-15 14:53:00+00:00,2022-07-15 15:53:00+00:00,0.0,US/Eastern,KMIA,25.788,-80.3169,Miami,Miami-Dade,FL,33122
W-8479936,Rain,Light,2022-07-15 17:15:00+00:00,2022-07-15 17:25:00+00:00,0.0,US/Eastern,KMIA,25.788,-80.3169,Miami,Miami-Dade,FL,33122
W-8479937,Rain,Moderate,2022-07-15 17:25:00+00:00,2022-07-15 18:53:00+00:00,0.79,US/Eastern,KMIA,25.788,-80.3169,Miami,Miami-Dade,FL,33122
W-8479938,Rain,Moderate,2022-07-17 00:33:00+00:00,2022-07-17 00:36:00+00:00,0.14,US/Eastern,KMIA,25.788,-80.3169,Miami,Miami-Dade,FL,33122
W-8479939,Precipitation,UNK,2022-07-17 00:36:00+00:00,2022-07-17 00:53:00+00:00,1.13,US/Eastern,KMIA,25.788,-80.3169,Miami,Miami-Dade,FL,33122
W-8479940,Rain,Heavy,2022-07-17 00:53:00+00:00,2022-07-17 01:26:00+00:00,0.84,US/Eastern,KMIA,25.788,-80.3169,Miami,Miami-Dade,FL,33122
W-8479941,Rain,Light,2022-07-17 08:53:00+00:00,2022-07-17 09:53:00+00:00,0.0,US/Eastern,KMIA,25.788,-80.3169,Miami,Miami-Dade,FL,33122
W-8479942,Rain,Light,2022-07-17 11:53:00+00:00,2022-07-17 12:53:00+00:00,0.0,US/Eastern,KMIA,25.788,-80.3169,Miami,Miami-Dade,FL,33122
W-8479943,Rain,Light,2022-07-22 11:23:00+00:00,2022-07-22 11:49:00+00:00,0.03,US/Eastern,KMIA,25.788,-80.3169,Miami,Miami-Dade,FL,33122
W-8479944,Rain,Light,2022-07-22 11:53:00+00:00,2022-07-22 12:50:00+00:00,0.03,US/Eastern,KMIA,25.788,-80.3169,Miami,Miami-Dade,FL,33122
W-8479945,Rain,Light,2022-07-23 04:53:00+00:00,2022-07-23 05:53:00+00:00,0.0,US/Eastern,KMIA,25.788,-80.3169,Miami,Miami-Dade,FL,33122
W-8479946,Rain,Moderate,2022-07-26 06:53:00+00:00,2022-07-26 07:53:00+00:00,0.21,US/Eastern,KMIA,25.788,-80.3169,Miami,Miami-Dade,FL,33122
W-8479947,Rain,Light,2022-07-26 08:05:00+00:00,2022-07-26 08:53:00+00:00,0.0,US/Eastern,KMIA,25.788,-80.3169,Miami,Miami-Dade,FL,33122
W-8479948,Rain,Light,2022-07-26 11:23:00+00:00,2022-07-26 12:24:00+00:00,0.06,US/Eastern,KMIA,25.788,-80.3169,Miami,Miami-Dade,FL,33122
W-8479949,Rain,Moderate,2022-07-26 12:32:00+00:00,2022-07-26 12:49:00+00:00,0.19,US/Eastern,KMIA,25.788,-80.3169,Miami,Miami-Dade,FL,33122
W-8479950,Precipitation,UNK,2022-07-26 12:49:00+00:00,2022-07-26 12:53:00+00:00,0.22,US/Eastern,KMIA,25.788,-80.3169,Miami,Miami-Dade,FL,33122
W-8479951,Rain,Moderate,2022-07-26 12:53:00+00:00,2022-07-26 13:51:00+00:00,0.23,US/Eastern,KMIA,25.788,-80.3169,Miami,Miami-Dade,FL,33122
W-8479952,Rain,Light,2022-07-26 15:24:00+00:00,2022-07-26 15:47:00+00:00,0.0,US/Eastern,KMIA,25.788,-80.3169,Miami,Miami-Dade,FL,33122
W-8479953,Rain,Moderate,2022-07-26 17:30:00+00:00,2022-07-26 17:50:00+00:00,0.21,US/Eastern,KMIA,25.788,-80.3169,Miami,Miami-Dade,FL,33122
W-8479954,Precipitation,UNK,2022-07-26 17:50:00+00:00,2022-07-26 17:58:00+00:00,0.6,US/Eastern,KMIA,25.788,-80.3169,Miami,Miami-Dade,FL,33122
W-8479955,Rain,Moderate,2022-07-26 18:25:00+00:00,2022-07-26 18:58:00+00:00,0.4,US/Eastern,KMIA,25.788,-80.3169,Miami,Miami-Dade,FL,33122
W-8479956,Precipitation,UNK,2022-07-27 05:36:00+00:00,2022-07-27 05:47:00+00:00,0.74,US/Eastern,KMIA,25.788,-80.3169,Miami,Miami-Dade,FL,33122
W-8479957,Rain,Heavy,2022-07-27 05:47:00+00:00,2022-07-27 06:05:00+00:00,0.43,US/Eastern,KMIA,25.788,-80.3169,Miami,Miami-Dade,FL,33122
W-8479958,Precipitation,UNK,2022-07-27 06:05:00+00:00,2022-07-27 06:19:00+00:00,0.22,US/Eastern,KMIA,25.788,-80.3169,Miami,Miami-Dade,FL,33122
W-8479959,Rain,Heavy,2022-07-27 06:19:00+00:00,2022-07-27 07:13:00+00:00,1.31,US/Eastern,KMIA,25.788,-80.3169,Miami,Miami-Dade,FL,33122
W-8479960,Rain,Light,2022-07-27 07:13:00+00:00,2022-07-27 07:53:00+00:00,0.02,US/Eastern,KMIA,25.788,-80.3169,Miami,Miami-Dade,FL,33122
W-8479961,Rain,Moderate,2022-07-27 07:53:00+00:00,2022-07-27 08:53:00+00:00,0.1,US/Eastern,KMIA,25.788,-80.3169,Miami,Miami-Dade,FL,33122
W-8479962,Rain,Light,2022-08-05 09:53:00+00:00,2022-08-05 10:53:00+00:00,0.0,US/Eastern,KMIA,25.788,-80.3169,Miami,Miami-Dade,FL,33122
W-8479963,Rain,Light,2022-08-05 12:50:00+00:00,2022-08-05 12:53:00+00:00,0.01,US/Eastern,KMIA,25.788,-80.3169,Miami,Miami-Dade,FL,33122
W-8479964,Rain,Moderate,2022-08-05 12:53:00+00:00,2022-08-05 14:53:00+00:00,1.17,US/Eastern,KMIA,25.788,-80.3169,Miami,Miami-Dade,FL,33122
W-8479965,Rain,Light,2022-08-05 22:53:00+00:00,2022-08-05 23:53:00+00:00,0.01,US/Eastern,KMIA,25.788,-80.3169,Miami,Miami-Dade,FL,33122
W-8479966,Rain,Light,2022-08-07 17:53:00+00:00,2022-08-07 19:53:00+00:00,0.02,US/Eastern,KMIA,25.788,-80.3169,Miami,Miami-Dade,FL,33122
W-8479967,Rain,Light,2022-08-08 08:06:00+00:00,2022-08-08 08:38:00+00:00,0.0,US/Eastern,KMIA,25.788,-80.3169,Miami,Miami-Dade,FL,33122
W-8479968,Rain,Light,2022-08-09 10:49:00+00:00,2022-08-09 11:44:00+00:00,0.07,US/Eastern,KMIA,25.788,-80.3169,Miami,Miami-Dade,FL,33122
W-8479969,Cold,Severe,2022-08-12 02:53:00+00:00,2022-08-12 03:53:00+00:00,0.0,US/Eastern,KMIA,25.788,-80.3169,Miami,Miami-Dade,FL,33122
W-8479970,Rain,Light,2022-08-13 20:00:00+00:00,2022-08-13 20:53:00+00:00,0.0,US/Eastern,KMIA,25.788,-80.3169,Miami,Miami-Dade,FL,33122
W-8479971,Rain,Moderate,2022-08-14 19:31:00+00:00,2022-08-14 19:49:00+00:00,0.12,US/Eastern,KMIA,25.788,-80.3169,Miami,Miami-Dade,FL,33122
W-8479972,Precipitation,UNK,2022-08-15 21:40:00+00:00,2022-08-15 21:53:00+00:00,1.34,US/Eastern,KMIA,25.788,-80.3169,Miami,Miami-Dade,FL,33122
W-8479973,Rain,Heavy,2022-08-15 21:53:00+00:00,2022-08-15 22:26:00+00:00,0.79,US/Eastern,KMIA,25.788,-80.3169,Miami,Miami-Dade,FL,33122
W-8479974,Precipitation,UNK,2022-08-16 20:04:00+00:00,2022-08-16 20:14:00+00:00,0.19,US/Eastern,KMIA,25.788,-80.3169,Miami,Miami-Dade,FL,33122
W-8479975,Rain,Heavy,2022-08-16 20:14:00+00:00,2022-08-16 21:00:00+00:00,1.5,US/Eastern,KMIA,25.788,-80.3169,Miami,Miami-Dade,FL,33122
W-8479976,Rain,Light,2022-08-20 06:53:00+00:00,2022-08-20 07:53:00+00:00,0.06,US/Eastern,KMIA,25.788,-80.3169,Miami,Miami-Dade,FL,33122
W-8479977,Rain,Light,2022-08-21 11:34:00+00:00,2022-08-21 11:46:00+00:00,0.0,US/Eastern,KMIA,25.788,-80.3169,Miami,Miami-Dade,FL,33122
W-8479978,Precipitation,UNK,2022-08-22 13:28:00+00:00,2022-08-22 13:37:00+00:00,0.4,US/Eastern,KMIA,25.788,-80.3169,Miami,Miami-Dade,FL,33122
W-8479979,Rain,Heavy,2022-08-22 13:37:00+00:00,2022-08-22 13:57:00+00:00,1.1,US/Eastern,KMIA,25.788,-80.3169,Miami,Miami-Dade,FL,33122
W-8479980,Rain,Light,2022-08-25 11:53:00+00:00,2022-08-25 12:53:00+00:00,0.0,US/Eastern,KMIA,25.788,-80.3169,Miami,Miami-Dade,FL,33122
W-8479981,Rain,Light,2022-08-27 21:10:00+00:00,2022-08-27 21:53:00+00:00,0.0,US/Eastern,KMIA,25.788,-80.3169,Miami,Miami-Dade,FL,33122
W-8479982,Rain,Light,2022-08-28 03:07:00+00:00,2022-08-28 03:23:00+00:00,0.0,US/Eastern,KMIA,25.788,-80.3169,Miami,Miami-Dade,FL,33122
W-8479983,Rain,Light,2022-08-28 14:08:00+00:00,2022-08-28 14:33:00+00:00,0.01,US/Eastern,KMIA,25.788,-80.3169,Miami,Miami-Dade,FL,33122
W-8479984,Rain,Heavy,2022-08-28 14:33:00+00:00,2022-08-28 15:53:00+00:00,1.85,US/Eastern,KMIA,25.788,-80.3169,Miami,Miami-Dade,FL,33122
W-8479985,Rain,Light,2022-08-29 09:10:00+00:00,2022-08-29 09:53:00+00:00,0.0,US/Eastern,KMIA,25.788,-80.3169,Miami,Miami-Dade,FL,33122
W-8479986,Rain,Light,2022-08-29 10:53:00+00:00,2022-08-29 11:53:00+00:00,0.0,US/Eastern,KMIA,25.788,-80.3169,Miami,Miami-Dade,FL,33122
W-8479987,Rain,Moderate,2022-08-29 11:53:00+00:00,2022-08-29 12:12:00+00:00,0.22,US/Eastern,KMIA,25.788,-80.3169,Miami,Miami-Dade,FL,33122
W-8479988,Rain,Light,2022-08-29 12:12:00+00:00,2022-08-29 12:53:00+00:00,0.07,US/Eastern,KMIA,25.788,-80.3169,Miami,Miami-Dade,FL,33122
W-8479989,Precipitation,UNK,2022-08-29 12:53:00+00:00,2022-08-29 13:53:00+00:00,0.23,US/Eastern,KMIA,25.788,-80.3169,Miami,Miami-Dade,FL,33122
W-8479990,Rain,Light,2022-08-31 16:05:00+00:00,2022-08-31 16:12:00+00:00,0.04,US/Eastern,KMIA,25.788,-80.3169,Miami,Miami-Dade,FL,33122
W-8479991,Rain,Heavy,2022-08-31 16:12:00+00:00,2022-08-31 16:53:00+00:00,0.7,US/Eastern,KMIA,25.788,-80.3169,Miami,Miami-Dade,FL,33122
W-8479992,Precipitation,UNK,2022-08-31 16:53:00+00:00,2022-08-31 17:53:00+00:00,0.4,US/Eastern,KMIA,25.788,-80.3169,Miami,Miami-Dade,FL,33122
W-8479993,Rain,Moderate,2022-08-31 18:53:00+00:00,2022-08-31 20:36:00+00:00,0.26,US/Eastern,KMIA,25.788,-80.3169,Miami,Miami-Dade,FL,33122
W-8479994,Rain,Moderate,2022-09-02 01:53:00+00:00,2022-09-02 02:53:00+00:00,0.13,US/Eastern,KMIA,25.788,-80.3169,Miami,Miami-Dade,FL,33122
W-8479995,Rain,Light,2022-09-05 06:28:00+00:00,2022-09-05 07:53:00+00:00,0.0,US/Eastern,KMIA,25.788,-80.3169,Miami,Miami-Dade,FL,33122
W-8479996,Rain,Heavy,2022-09-07 21:22:00+00:00,2022-09-07 21:53:00+00:00,0.38,US/Eastern,KMIA,25.788,-80.3169,Miami,Miami-Dade,FL,33122
W-8479997,Precipitation,UNK,2022-09-07 21:53:00+00:00,2022-09-07 22:53:00+00:00,0.48,US/Eastern,KMIA,25.788,-80.3169,Miami,Miami-Dade,FL,33122
W-8479998,Rain,Light,2022-09-08 19:19:00+00:00,2022-09-08 19:49:00+00:00,0.0,US/Eastern,KMIA,25.788,-80.3169,Miami,Miami-Dade,FL,33122
W-8479999,Precipitation,UNK,2022-09-09 00:21:00+00:00,2022-09-09 01:44:00+00:00,0.89,US/Eastern,KMIA,25.788,-80.3169,Miami,Miami-Dade,FL,33122
W-8480000,Rain,Moderate,2022-09-09 01:44:00+00:00,2022-09-09 01:58:00+00:00,0.27,US/Eastern,KMIA,25.788,-80.3169,Miami,Miami-Dade,FL,33122
W-8480001,Rain,Light,2022-09-09 01:58:00+00:00,2022-09-09 02:53:00+00:00,0.01,US/Eastern,KMIA,25.788,-80.3169,Miami,Miami-Dade,FL,33122
W-8480002,Rain,Light,2022-09-09 16:30:00+00:00,2022-09-09 16:53:00+00:00,0.06,US/Eastern,KMIA,25.788,-80.3169,Miami,Miami-Dade,FL,33122
W-8480003,Rain,Light,2022-09-09 21:53:00+00:00,2022-09-09 22:53:00+00:00,0.0,US/Eastern,KMIA,25.788,-80.3169,Miami,Miami-Dade,FL,33122
W-8480004,Rain,Moderate,2022-09-12 21:28:00+00:00,2022-09-12 21:53:00+00:00,0.14,US/Eastern,KMIA,25.788,-80.3169,Miami,Miami-Dade,FL,33122
W-8480005,Rain,Light,2022-09-14 03:53:00+00:00,2022-09-14 05:53:00+00:00,0.06,US/Eastern,KMIA,25.788,-80.3169,Miami,Miami-Dade,FL,33122
W-8480006,Precipitation,UNK,2022-09-14 17:14:00+00:00,2022-09-14 17:44:00+00:00,1.64,US/Eastern,KMIA,25.788,-80.3169,Miami,Miami-Dade,FL,33122
W-8480007,Rain,Heavy,2022-09-14 17:44:00+00:00,2022-09-14 18:53:00+00:00,2.02,US/Eastern,KMIA,25.788,-80.3169,Miami,Miami-Dade,FL,33122
W-8480008,Rain,Light,2022-09-14 19:25:00+00:00,2022-09-14 20:53:00+00:00,0.02,US/Eastern,KMIA,25.788,-80.3169,Miami,Miami-Dade,FL,33122
W-8480009,Rain,Light,2022-09-14 23:13:00+00:00,2022-09-14 23:19:00+00:00,0.05,US/Eastern,KMIA,25.788,-80.3169,Miami,Miami-Dade,FL,33122
W-8480010,Precipitation,UNK,2022-09-14 23:19:00+00:00,2022-09-14 23:53:00+00:00,1.43,US/Eastern,KMIA,25.788,-80.3169,Miami,Miami-Dade,FL,33122
W-8480011,Rain,Heavy,2022-09-14 23:53:00+00:00,2022-09-14 23:58:00+00:00,1.43,US/Eastern,KMIA,25.788,-80.3169,Miami,Miami-Dade,FL,33122
W-8480012,Rain,Light,2022-09-14 23:58:00+00:00,2022-09-15 00:53:00+00:00,0.02,US/Eastern,KMIA,25.788,-80.3169,Miami,Miami-Dade,FL,33122
W-8480013,Rain,Light,2022-09-15 16:33:00+00:00,2022-09-15 16:41:00+00:00,0.0,US/Eastern,KMIA,25.788,-80.3169,Miami,Miami-Dade,FL,33122
W-8480014,Rain,Light,2022-09-15 16:53:00+00:00,2022-09-15 17:04:00+00:00,0.09,US/Eastern,KMIA,25.788,-80.3169,Miami,Miami-Dade,FL,33122
W-8480015,Rain,Moderate,2022-09-15 17:11:00+00:00,2022-09-15 17:53:00+00:00,0.55,US/Eastern,KMIA,25.788,-80.3169,Miami,Miami-Dade,FL,33122
W-8480016,Precipitation,UNK,2022-09-15 17:53:00+00:00,2022-09-15 18:53:00+00:00,0.28,US/Eastern,KMIA,25.788,-80.3169,Miami,Miami-Dade,FL,33122
W-8480017,Rain,Light,2022-09-15 19:53:00+00:00,2022-09-15 21:35:00+00:00,0.0,US/Eastern,KMIA,25.788,-80.3169,Miami,Miami-Dade,FL,33122
W-8480018,Rain,Light,2022-09-16 00:53:00+00:00,2022-09-16 01:53:00+00:00,0.02,US/Eastern,KMIA,25.788,-80.3169,Miami,Miami-Dade,FL,33122
W-8480019,Rain,Light,2022-09-16 02:15:00+00:00,2022-09-16 03:14:00+00:00,0.02,US/Eastern,KMIA,25.788,-80.3169,Miami,Miami-Dade,FL,33122
W-8480020,Rain,Light,2022-09-16 04:53:00+00:00,2022-09-16 05:53:00+00:00,0.01,US/Eastern,KMIA,25.788,-80.3169,Miami,Miami-Dade,FL,33122
W-8480021,Rain,Light,2022-09-16 18:53:00+00:00,2022-09-16 20:00:00+00:00,0.0,US/Eastern,KMIA,25.788,-80.3169,Miami,Miami-Dade,FL,33122
W-8480022,Rain,Light,2022-09-16 20:10:00+00:00,2022-09-16 20:28:00+00:00,0.0,US/Eastern,KMIA,25.788,-80.3169,Miami,Miami-Dade,FL,33122
W-8480023,Precipitation,UNK,2022-09-16 20:53:00+00:00,2022-09-16 21:01:00+00:00,0.77,US/Eastern,KMIA,25.788,-80.3169,Miami,Miami-Dade,FL,33122
W-8480024,Rain,Light,2022-09-16 21:01:00+00:00,2022-09-16 21:53:00+00:00,0.05,US/Eastern,KMIA,25.788,-80.3169,Miami,Miami-Dade,FL,33122
W-8480025,Rain,Light,2022-09-17 11:53:00+00:00,2022-09-17 12:40:00+00:00,0.0,US/Eastern,KMIA,25.788,-80.3169,Miami,Miami-Dade,FL,33122
W-8480026,Fog,Moderate,2022-09-17 12:53:00+00:00,2022-09-17 13:09:00+00:00,0.0,US/Eastern,KMIA,25.788,-80.3169,Miami,Miami-Dade,FL,33122
W-8480027,Rain,Moderate,2022-09-17 13:09:00+00:00,2022-09-17 13:53:00+00:00,0.14,US/Eastern,KMIA,25.788,-80.3169,Miami,Miami-Dade,FL,33122
W-8480028,Rain,Light,2022-09-17 19:19:00+00:00,2022-09-17 19:37:00+00:00,0.02,US/Eastern,KMIA,25.788,-80.3169,Miami,Miami-Dade,FL,33122
W-8480029,Rain,Light,2022-09-18 01:51:00+00:00,2022-09-18 02:51:00+00:00,0.02,US/Eastern,KMIA,25.788,-80.3169,Miami,Miami-Dade,FL,33122
W-8480030,Rain,Light,2022-09-18 04:10:00+00:00,2022-09-18 04:53:00+00:00,0.07,US/Eastern,KMIA,25.788,-80.3169,Miami,Miami-Dade,FL,33122
W-8480031,Rain,Light,2022-09-18 17:28:00+00:00,2022-09-18 17:53:00+00:00,0.01,US/Eastern,KMIA,25.788,-80.3169,Miami,Miami-Dade,FL,33122
W-8480032,Rain,Light,2022-09-18 23:53:00+00:00,2022-09-19 00:53:00+00:00,0.0,US/Eastern,KMIA,25.788,-80.3169,Miami,Miami-Dade,FL,33122
W-8480033,Rain,Light,2022-09-19 18:18:00+00:00,2022-09-19 18:53:00+00:00,0.0,US/Eastern,KMIA,25.788,-80.3169,Miami,Miami-Dade,FL,33122
W-8480034,Rain,Light,2022-09-21 07:53:00+00:00,2022-09-21 08:53:00+00:00,0.0,US/Eastern,KMIA,25.788,-80.3169,Miami,Miami-Dade,FL,33122
W-8480035,Rain,Light,2022-09-21 19:27:00+00:00,2022-09-21 19:53:00+00:00,0.03,US/Eastern,KMIA,25.788,-80.3169,Miami,Miami-Dade,FL,33122
W-8480036,Rain,Light,2022-09-22 22:49:00+00:00,2022-09-22 23:24:00+00:00,0.0,US/Eastern,KMIA,25.788,-80.3169,Miami,Miami-Dade,FL,33122
W-8480037,Rain,Moderate,2022-09-24 21:53:00+00:00,2022-09-24 22:53:00+00:00,0.19,US/Eastern,KMIA,25.788,-80.3169,Miami,Miami-Dade,FL,33122
W-8480038,Rain,Light,2022-09-26 18:53:00+00:00,2022-09-26 19:53:00+00:00,0.0,US/Eastern,KMIA,25.788,-80.3169,Miami,Miami-Dade,FL,33122
W-8480039,Precipitation,UNK,2022-09-26 21:53:00+00:00,2022-09-26 22:12:00+00:00,0.24,US/Eastern,KMIA,25.788,-80.3169,Miami,Miami-Dade,FL,33122
W-8480040,Rain,Moderate,2022-09-26 22:12:00+00:00,2022-09-26 22:49:00+00:00,0.21,US/Eastern,KMIA,25.788,-80.3169,Miami,Miami-Dade,FL,33122
W-8480041,Rain,Heavy,2022-09-26 22:49:00+00:00,2022-09-26 23:19:00+00:00,0.82,US/Eastern,KMIA,25.788,-80.3169,Miami,Miami-Dade,FL,33122
W-8480042,Rain,Light,2022-09-27 02:53:00+00:00,2022-09-27 03:27:00+00:00,0.08,US/Eastern,KMIA,25.788,-80.3169,Miami,Miami-Dade,FL,33122
W-8480043,Rain,Heavy,2022-09-27 03:27:00+00:00,2022-09-27 04:53:00+00:00,0.93,US/Eastern,KMIA,25.788,-80.3169,Miami,Miami-Dade,FL,33122
W-8480044,Rain,Moderate,2022-09-27 04:53:00+00:00,2022-09-27 05:53:00+00:00,0.21,US/Eastern,KMIA,25.788,-80.3169,Miami,Miami-Dade,FL,33122
W-8480045,Rain,Light,2022-09-27 05:53:00+00:00,2022-09-27 06:53:00+00:00,0.05,US/Eastern,KMIA,25.788,-80.3169,Miami,Miami-Dade,FL,33122
W-8480046,Rain,Light,2022-09-27 08:53:00+00:00,2022-09-27 12:53:00+00:00,0.18,US/Eastern,KMIA,25.788,-80.3169,Miami,Miami-Dade,FL,33122
W-8480047,Rain,Moderate,2022-09-27 12:53:00+00:00,2022-09-27 15:05:00+00:00,0.79,US/Eastern,KMIA,25.788,-80.3169,Miami,Miami-Dade,FL,33122
W-8480048,Rain,Light,2022-09-27 15:05:00+00:00,2022-09-27 15:08:00+00:00,0.09,US/Eastern,KMIA,25.788,-80.3169,Miami,Miami-Dade,FL,33122
W-8480049,Rain,Moderate,2022-09-27 15:08:00+00:00,2022-09-27 15:16:00+00:00,0.21,US/Eastern,KMIA,25.788,-80.3169,Miami,Miami-Dade,FL,33122
W-8480050,Rain,Heavy,2022-09-27 15:16:00+00:00,2022-09-27 16:53:00+00:00,3.39,US/Eastern,KMIA,25.788,-80.3169,Miami,Miami-Dade,FL,33122
W-8480051,Rain,Moderate,2022-09-27 16:53:00+00:00,2022-09-27 17:47:00+00:00,0.67,US/Eastern,KMIA,25.788,-80.3169,Miami,Miami-Dade,FL,33122
W-8480052,Rain,Heavy,2022-09-27 17:47:00+00:00,2022-09-27 17:59:00+00:00,1.62,US/Eastern,KMIA,25.788,-80.3169,Miami,Miami-Dade,FL,33122
W-8480053,Rain,Light,2022-09-27 17:59:00+00:00,2022-09-27 18:04:00+00:00,0.05,US/Eastern,KMIA,25.788,-80.3169,Miami,Miami-Dade,FL,33122
W-8480054,Rain,Light,2022-09-27 20:53:00+00:00,2022-09-27 21:50:00+00:00,0.03,US/Eastern,KMIA,25.788,-80.3169,Miami,Miami-Dade,FL,33122
W-8480055,Rain,Light,2022-09-27 22:53:00+00:00,2022-09-27 23:24:00+00:00,0.0,US/Eastern,KMIA,25.788,-80.3169,Miami,Miami-Dade,FL,33122
W-8480056,Rain,Moderate,2022-09-27 23:24:00+00:00,2022-09-27 23:31:00+00:00,0.22,US/Eastern,KMIA,25.788,-80.3169,Miami,Miami-Dade,FL,33122
W-8480057,Rain,Heavy,2022-09-27 23:31:00+00:00,2022-09-27 23:49:00+00:00,0.46,US/Eastern,KMIA,25.788,-80.3169,Miami,Miami-Dade,FL,33122
W-8480058,Precipitation,UNK,2022-09-27 23:49:00+00:00,2022-09-27 23:59:00+00:00,1.24,US/Eastern,KMIA,25.788,-80.3169,Miami,Miami-Dade,FL,33122
W-8480059,Rain,Light,2022-09-28 00:53:00+00:00,2022-09-28 01:08:00+00:00,0.04,US/Eastern,KMIA,25.788,-80.3169,Miami,Miami-Dade,FL,33122
W-8480060,Precipitation,UNK,2022-09-28 01:08:00+00:00,2022-09-28 02:29:00+00:00,0.72,US/Eastern,KMIA,25.788,-80.3169,Miami,Miami-Dade,FL,33122
W-8480061,Rain,Light,2022-09-28 03:53:00+00:00,2022-09-28 04:41:00+00:00,0.17,US/Eastern,KMIA,25.788,-80.3169,Miami,Miami-Dade,FL,33122
W-8480062,Rain,Moderate,2022-09-28 04:53:00+00:00,2022-09-28 05:32:00+00:00,0.13,US/Eastern,KMIA,25.788,-80.3169,Miami,Miami-Dade,FL,33122
W-8480063,Rain,Light,2022-09-28 06:53:00+00:00,2022-09-28 07:26:00+00:00,0.21,US/Eastern,KMIA,25.788,-80.3169,Miami,Miami-Dade,FL,33122
W-8480064,Rain,Moderate,2022-09-28 07:26:00+00:00,2022-09-28 08:53:00+00:00,0.32,US/Eastern,KMIA,25.788,-80.3169,Miami,Miami-Dade,FL,33122
W-8480065,Rain,Light,2022-09-28 18:50:00+00:00,2022-09-28 18:53:00+00:00,0.0,US/Eastern,KMIA,25.788,-80.3169,Miami,Miami-Dade,FL,33122
W-8480066,Rain,Light,2022-10-02 03:53:00+00:00,2022-10-02 04:53:00+00:00,0.0,US/Eastern,KMIA,25.788,-80.3169,Miami,Miami-Dade,FL,33122
W-8480067,Rain,Light,2022-10-02 11:53:00+00:00,2022-10-02 12:53:00+00:00,0.02,US/Eastern,KMIA,25.788,-80.3169,Miami,Miami-Dade,FL,33122
W-8480068,Rain,Light,2022-10-05 21:53:00+00:00,2022-10-05 22:53:00+00:00,0.0,US/Eastern,KMIA,25.788,-80.3169,Miami,Miami-Dade,FL,33122
W-8480069,Rain,Light,2022-10-08 14:53:00+00:00,2022-10-08 15:53:00+00:00,0.0,US/Eastern,KMIA,25.788,-80.3169,Miami,Miami-Dade,FL,33122
W-8480070,Rain,Light,2022-10-08 17:53:00+00:00,2022-10-08 18:53:00+00:00,0.0,US/Eastern,KMIA,25.788,-80.3169,Miami,Miami-Dade,FL,33122
W-8480071,Rain,Light,2022-10-08 19:53:00+00:00,2022-10-08 20:53:00+00:00,0.09,US/Eastern,KMIA,25.788,-80.3169,Miami,Miami-Dade,FL,33122
W-8480072,Rain,Light,2022-10-09 03:39:00+00:00,2022-10-09 04:53:00+00:00,0.11,US/Eastern,KMIA,25.788,-80.3169,Miami,Miami-Dade,FL,33122
W-8480073,Rain,Light,2022-10-09 15:17:00+00:00,2022-10-09 15:53:00+00:00,0.01,US/Eastern,KMIA,25.788,-80.3169,Miami,Miami-Dade,FL,33122
W-8480074,Rain,Light,2022-10-09 16:53:00+00:00,2022-10-09 17:44:00+00:00,0.03,US/Eastern,KMIA,25.788,-80.3169,Miami,Miami-Dade,FL,33122
W-8480075,Precipitation,UNK,2022-10-09 18:04:00+00:00,2022-10-09 20:14:00+00:00,5.25,US/Eastern,KMIA,25.788,-80.3169,Miami,Miami-Dade,FL,33122
W-8480076,Rain,Light,2022-10-09 20:30:00+00:00,2022-10-09 20:53:00+00:00,0.05,US/Eastern,KMIA,25.788,-80.3169,Miami,Miami-Dade,FL,33122
W-8480077,Rain,Light,2022-10-13 19:09:00+00:00,2022-10-13 19:14:00+00:00,0.0,US/Eastern,KMIA,25.788,-80.3169,Miami,Miami-Dade,FL,33122
W-8480078,Rain,Moderate,2022-10-13 19:14:00+00:00,2022-10-13 19:19:00+00:00,0.22,US/Eastern,KMIA,25.788,-80.3169,Miami,Miami-Dade,FL,33122
W-8480079,Precipitation,UNK,2022-10-13 19:19:00+00:00,2022-10-13 19:57:00+00:00,4.94,US/Eastern,KMIA,25.788,-80.3169,Miami,Miami-Dade,FL,33122
W-8480080,Rain,Moderate,2022-10-13 20:36:00+00:00,2022-10-13 20:53:00+00:00,0.2,US/Eastern,KMIA,25.788,-80.3169,Miami,Miami-Dade,FL,33122
W-8480081,Precipitation,UNK,2022-10-13 20:53:00+00:00,2022-10-13 21:53:00+00:00,0.2,US/Eastern,KMIA,25.788,-80.3169,Miami,Miami-Dade,FL,33122
W-8480082,Rain,Light,2022-10-13 22:53:00+00:00,2022-10-14 00:53:00+00:00,0.07,US/Eastern,KMIA,25.788,-80.3169,Miami,Miami-Dade,FL,33122
W-8480083,Rain,Light,2022-10-14 01:21:00+00:00,2022-10-14 03:53:00+00:00,0.02,US/Eastern,KMIA,25.788,-80.3169,Miami,Miami-Dade,FL,33122
W-8480084,Precipitation,UNK,2022-10-14 20:32:00+00:00,2022-10-14 21:32:00+00:00,0.46,US/Eastern,KMIA,25.788,-80.3169,Miami,Miami-Dade,FL,33122
W-8480085,Rain,Light,2022-10-15 22:47:00+00:00,2022-10-15 23:23:00+00:00,0.0,US/Eastern,KMIA,25.788,-80.3169,Miami,Miami-Dade,FL,33122
W-8480086,Rain,Light,2022-10-17 18:53:00+00:00,2022-10-17 19:53:00+00:00,0.0,US/Eastern,KMIA,25.788,-80.3169,Miami,Miami-Dade,FL,33122
W-8480087,Rain,Light,2022-10-17 21:53:00+00:00,2022-10-17 22:53:00+00:00,0.04,US/Eastern,KMIA,25.788,-80.3169,Miami,Miami-Dade,FL,33122
W-8480088,Rain,Light,2022-10-19 19:53:00+00:00,2022-10-19 20:53:00+00:00,0.01,US/Eastern,KMIA,25.788,-80.3169,Miami,Miami-Dade,FL,33122
W-8480089,Rain,Light,2022-10-19 21:16:00+00:00,2022-10-19 21:36:00+00:00,0.04,US/Eastern,KMIA,25.788,-80.3169,Miami,Miami-Dade,FL,33122
W-8480090,Rain,Moderate,2022-10-19 21:36:00+00:00,2022-10-19 22:53:00+00:00,0.42,US/Eastern,KMIA,25.788,-80.3169,Miami,Miami-Dade,FL,33122
W-8480091,Rain,Light,2022-10-20 00:34:00+00:00,2022-10-20 00:53:00+00:00,0.0,US/Eastern,KMIA,25.788,-80.3169,Miami,Miami-Dade,FL,33122
W-8480092,Rain,Light,2022-10-23 06:53:00+00:00,2022-10-23 07:53:00+00:00,0.0,US/Eastern,KMIA,25.788,-80.3169,Miami,Miami-Dade,FL,33122
W-8480093,Rain,Light,2022-11-03 08:47:00+00:00,2022-11-03 09:31:00+00:00,0.03,US/Eastern,KMIA,25.788,-80.3169,Miami,Miami-Dade,FL,33122
W-8480094,Rain,Moderate,2022-11-03 09:31:00+00:00,2022-11-03 09:53:00+00:00,0.11,US/Eastern,KMIA,25.788,-80.3169,Miami,Miami-Dade,FL,33122
W-8480095,Rain,Light,2022-11-05 03:53:00+00:00,2022-11-05 04:53:00+00:00,0.02,US/Eastern,KMIA,25.788,-80.3169,Miami,Miami-Dade,FL,33122
W-8480096,Rain,Light,2022-11-06 06:53:00+00:00,2022-11-06 07:53:00+00:00,0.0,US/Eastern,KMIA,25.788,-80.3169,Miami,Miami-Dade,FL,33122
W-8480097,Rain,Light,2022-11-06 17:53:00+00:00,2022-11-06 18:36:00+00:00,0.0,US/Eastern,KMIA,25.788,-80.3169,Miami,Miami-Dade,FL,33122
W-8480098,Rain,Light,2022-11-06 18:53:00+00:00,2022-11-06 19:53:00+00:00,0.0,US/Eastern,KMIA,25.788,-80.3169,Miami,Miami-Dade,FL,33122
W-8480099,Rain,Light,2022-11-06 22:53:00+00:00,2022-11-06 23:53:00+00:00,0.06,US/Eastern,KMIA,25.788,-80.3169,Miami,Miami-Dade,FL,33122
W-8480100,Rain,Moderate,2022-11-07 00:53:00+00:00,2022-11-07 01:53:00+00:00,0.14,US/Eastern,KMIA,25.788,-80.3169,Miami,Miami-Dade,FL,33122
W-8480101,Rain,Light,2022-11-08 00:53:00+00:00,2022-11-08 01:53:00+00:00,0.0,US/Eastern,KMIA,25.788,-80.3169,Miami,Miami-Dade,FL,33122
W-8480102,Rain,Light,2022-11-08 21:53:00+00:00,2022-11-08 22:53:00+00:00,0.0,US/Eastern,KMIA,25.788,-80.3169,Miami,Miami-Dade,FL,33122
W-8480103,Rain,Light,2022-11-09 01:53:00+00:00,2022-11-09 02:53:00+00:00,0.04,US/Eastern,KMIA,25.788,-80.3169,Miami,Miami-Dade,FL,33122
W-8480104,Rain,Light,2022-11-09 03:53:00+00:00,2022-11-09 04:06:00+00:00,0.07,US/Eastern,KMIA,25.788,-80.3169,Miami,Miami-Dade,FL,33122
W-8480105,Rain,Moderate,2022-11-09 04:06:00+00:00,2022-11-09 06:50:00+00:00,0.84,US/Eastern,KMIA,25.788,-80.3169,Miami,Miami-Dade,FL,33122
W-8480106,Rain,Light,2022-11-09 06:50:00+00:00,2022-11-09 07:53:00+00:00,0.1,US/Eastern,KMIA,25.788,-80.3169,Miami,Miami-Dade,FL,33122
W-8480107,Rain,Light,2022-11-09 08:27:00+00:00,2022-11-09 08:36:00+00:00,0.0,US/Eastern,KMIA,25.788,-80.3169,Miami,Miami-Dade,FL,33122
W-8480108,Rain,Moderate,2022-11-09 08:36:00+00:00,2022-11-09 09:01:00+00:00,0.65,US/Eastern,KMIA,25.788,-80.3169,Miami,Miami-Dade,FL,33122
W-8480109,Rain,Light,2022-11-09 09:22:00+00:00,2022-11-09 09:41:00+00:00,0.07,US/Eastern,KMIA,25.788,-80.3169,Miami,Miami-Dade,FL,33122
W-8480110,Rain,Moderate,2022-11-09 09:41:00+00:00,2022-11-09 10:53:00+00:00,0.7,US/Eastern,KMIA,25.788,-80.3169,Miami,Miami-Dade,FL,33122
W-8480111,Rain,Light,2022-11-09 16:53:00+00:00,2022-11-09 17:53:00+00:00,0.09,US/Eastern,KMIA,25.788,-80.3169,Miami,Miami-Dade,FL,33122
W-8480112,Rain,Moderate,2022-11-09 17:53:00+00:00,2022-11-09 18:22:00+00:00,0.1,US/Eastern,KMIA,25.788,-80.3169,Miami,Miami-Dade,FL,33122
W-8480113,Rain,Light,2022-11-09 18:22:00+00:00,2022-11-09 18:53:00+00:00,0.06,US/Eastern,KMIA,25.788,-80.3169,Miami,Miami-Dade,FL,33122
W-8480114,Rain,Moderate,2022-11-09 18:53:00+00:00,2022-11-09 19:06:00+00:00,0.21,US/Eastern,KMIA,25.788,-80.3169,Miami,Miami-Dade,FL,33122
W-8480115,Rain,Light,2022-11-09 19:06:00+00:00,2022-11-09 21:53:00+00:00,0.13,US/Eastern,KMIA,25.788,-80.3169,Miami,Miami-Dade,FL,33122
W-8480116,Rain,Moderate,2022-11-09 22:53:00+00:00,2022-11-09 23:53:00+00:00,0.16,US/Eastern,KMIA,25.788,-80.3169,Miami,Miami-Dade,FL,33122
W-8480117,Rain,Light,2022-11-09 23:53:00+00:00,2022-11-10 00:53:00+00:00,0.07,US/Eastern,KMIA,25.788,-80.3169,Miami,Miami-Dade,FL,33122
W-8480118,Rain,Light,2022-11-10 01:50:00+00:00,2022-11-10 01:53:00+00:00,0.01,US/Eastern,KMIA,25.788,-80.3169,Miami,Miami-Dade,FL,33122
W-8480119,Rain,Light,2022-11-12 18:53:00+00:00,2022-11-12 19:53:00+00:00,0.0,US/Eastern,KMIA,25.788,-80.3169,Miami,Miami-Dade,FL,33122
W-8480120,Rain,Light,2022-11-12 23:33:00+00:00,2022-11-13 00:53:00+00:00,0.0,US/Eastern,KMIA,25.788,-80.3169,Miami,Miami-Dade,FL,33122
W-8480121,Rain,Light,2022-11-16 20:53:00+00:00,2022-11-16 21:53:00+00:00,0.0,US/Eastern,KMIA,25.788,-80.3169,Miami,Miami-Dade,FL,33122
W-8480122,Rain,Light,2022-11-20 03:50:00+00:00,2022-11-20 04:53:00+00:00,0.0,US/Eastern,KMIA,25.788,-80.3169,Miami,Miami-Dade,FL,33122
W-8480123,Rain,Light,2022-11-20 09:53:00+00:00,2022-11-20 12:05:00+00:00,0.34,US/Eastern,KMIA,25.788,-80.3169,Miami,Miami-Dade,FL,33122
W-8480124,Rain,Moderate,2022-11-20 12:05:00+00:00,2022-11-20 14:24:00+00:00,1.61,US/Eastern,KMIA,25.788,-80.3169,Miami,Miami-Dade,FL,33122
W-8480125,Rain,Heavy,2022-11-20 14:24:00+00:00,2022-11-20 15:10:00+00:00,2.46,US/Eastern,KMIA,25.788,-80.3169,Miami,Miami-Dade,FL,33122
W-8480126,Rain,Light,2022-11-20 15:10:00+00:00,2022-11-20 16:17:00+00:00,0.06,US/Eastern,KMIA,25.788,-80.3169,Miami,Miami-Dade,FL,33122
W-8480127,Rain,Moderate,2022-11-20 16:17:00+00:00,2022-11-20 16:50:00+00:00,0.33,US/Eastern,KMIA,25.788,-80.3169,Miami,Miami-Dade,FL,33122
W-8480128,Rain,Heavy,2022-11-20 16:50:00+00:00,2022-11-20 17:01:00+00:00,0.72,US/Eastern,KMIA,25.788,-80.3169,Miami,Miami-Dade,FL,33122
W-8480129,Rain,Moderate,2022-11-20 17:01:00+00:00,2022-11-20 17:17:00+00:00,0.15,US/Eastern,KMIA,25.788,-80.3169,Miami,Miami-Dade,FL,33122
W-8480130,Rain,Heavy,2022-11-20 17:17:00+00:00,2022-11-20 17:58:00+00:00,3.9,US/Eastern,KMIA,25.788,-80.3169,Miami,Miami-Dade,FL,33122
W-8480131,Rain,Light,2022-11-20 17:58:00+00:00,2022-11-20 18:39:00+00:00,0.06,US/Eastern,KMIA,25.788,-80.3169,Miami,Miami-Dade,FL,33122
W-8480132,Rain,Heavy,2022-11-20 18:39:00+00:00,2022-11-20 19:30:00+00:00,1.11,US/Eastern,KMIA,25.788,-80.3169,Miami,Miami-Dade,FL,33122
W-8480133,Rain,Light,2022-11-20 19:30:00+00:00,2022-11-20 20:40:00+00:00,0.19,US/Eastern,KMIA,25.788,-80.3169,Miami,Miami-Dade,FL,33122
W-8480134,Rain,Moderate,2022-11-20 20:40:00+00:00,2022-11-20 22:12:00+00:00,0.75,US/Eastern,KMIA,25.788,-80.3169,Miami,Miami-Dade,FL,33122
W-8480135,Rain,Light,2022-11-20 22:12:00+00:00,2022-11-20 22:53:00+00:00,0.07,US/Eastern,KMIA,25.788,-80.3169,Miami,Miami-Dade,FL,33122
W-8480136,Rain,Moderate,2022-11-20 22:53:00+00:00,2022-11-21 01:22:00+00:00,0.8,US/Eastern,KMIA,25.788,-80.3169,Miami,Miami-Dade,FL,33122
W-8480137,Rain,Light,2022-11-21 01:22:00+00:00,2022-11-21 03:53:00+00:00,0.13,US/Eastern,KMIA,25.788,-80.3169,Miami,Miami-Dade,FL,33122
W-8480138,Rain,Light,2022-11-21 05:22:00+00:00,2022-11-21 05:53:00+00:00,0.0,US/Eastern,KMIA,25.788,-80.3169,Miami,Miami-Dade,FL,33122
W-8480139,Rain,Light,2022-11-21 10:53:00+00:00,2022-11-21 11:53:00+00:00,0.0,US/Eastern,KMIA,25.788,-80.3169,Miami,Miami-Dade,FL,33122
W-8480140,Rain,Light,2022-11-21 12:53:00+00:00,2022-11-21 14:16:00+00:00,0.0,US/Eastern,KMIA,25.788,-80.3169,Miami,Miami-Dade,FL,33122
W-8480141,Rain,Moderate,2022-11-21 14:16:00+00:00,2022-11-21 14:32:00+00:00,0.16,US/Eastern,KMIA,25.788,-80.3169,Miami,Miami-Dade,FL,33122
W-8480142,Rain,Heavy,2022-11-21 14:32:00+00:00,2022-11-21 15:40:00+00:00,0.81,US/Eastern,KMIA,25.788,-80.3169,Miami,Miami-Dade,FL,33122
W-8480143,Rain,Moderate,2022-11-21 15:40:00+00:00,2022-11-21 15:53:00+00:00,0.23,US/Eastern,KMIA,25.788,-80.3169,Miami,Miami-Dade,FL,33122
W-8480144,Rain,Heavy,2022-11-21 15:53:00+00:00,2022-11-21 16:53:00+00:00,0.36,US/Eastern,KMIA,25.788,-80.3169,Miami,Miami-Dade,FL,33122
W-8480145,Rain,Light,2022-11-21 17:53:00+00:00,2022-11-21 18:53:00+00:00,0.04,US/Eastern,KMIA,25.788,-80.3169,Miami,Miami-Dade,FL,33122
W-8480146,Rain,Light,2022-11-22 06:42:00+00:00,2022-11-22 07:53:00+00:00,0.08,US/Eastern,KMIA,25.788,-80.3169,Miami,Miami-Dade,FL,33122
W-8480147,Rain,Light,2022-11-22 09:46:00+00:00,2022-11-22 09:53:00+00:00,0.0,US/Eastern,KMIA,25.788,-80.3169,Miami,Miami-Dade,FL,33122
W-8480148,Fog,Severe,2022-11-23 10:20:00+00:00,2022-11-23 14:45:00+00:00,0.0,US/Eastern,KMIA,25.788,-80.3169,Miami,Miami-Dade,FL,33122
W-8480149,Rain,Light,2022-11-28 22:53:00+00:00,2022-11-28 23:53:00+00:00,0.0,US/Eastern,KMIA,25.788,-80.3169,Miami,Miami-Dade,FL,33122
W-8480150,Rain,Light,2022-12-01 01:49:00+00:00,2022-12-01 02:25:00+00:00,0.0,US/Eastern,KMIA,25.788,-80.3169,Miami,Miami-Dade,FL,33122
W-8480151,Rain,Heavy,2022-12-01 02:25:00+00:00,2022-12-01 02:53:00+00:00,0.32,US/Eastern,KMIA,25.788,-80.3169,Miami,Miami-Dade,FL,33122
W-8480152,Precipitation,UNK,2022-12-01 02:53:00+00:00,2022-12-01 03:53:00+00:00,0.32,US/Eastern,KMIA,25.788,-80.3169,Miami,Miami-Dade,FL,33122
W-8480153,Rain,Light,2022-12-01 16:51:00+00:00,2022-12-01 17:36:00+00:00,0.08,US/Eastern,KMIA,25.788,-80.3169,Miami,Miami-Dade,FL,33122
W-8480154,Rain,Light,2022-12-01 17:53:00+00:00,2022-12-01 18:53:00+00:00,0.0,US/Eastern,KMIA,25.788,-80.3169,Miami,Miami-Dade,FL,33122
W-8480155,Fog,Severe,2022-12-12 09:53:00+00:00,2022-12-12 12:45:00+00:00,0.0,US/Eastern,KMIA,25.788,-80.3169,Miami,Miami-Dade,FL,33122
W-8480156,Rain,Light,2022-12-16 09:53:00+00:00,2022-12-16 11:53:00+00:00,0.16,US/Eastern,KMIA,25.788,-80.3169,Miami,Miami-Dade,FL,33122
W-8480157,Rain,Light,2022-12-17 13:22:00+00:00,2022-12-17 13:53:00+00:00,0.0,US/Eastern,KMIA,25.788,-80.3169,Miami,Miami-Dade,FL,33122
W-8480158,Rain,Light,2022-12-17 22:53:00+00:00,2022-12-17 23:28:00+00:00,0.03,US/Eastern,KMIA,25.788,-80.3169,Miami,Miami-Dade,FL,33122
W-8480159,Rain,Light,2022-12-18 11:53:00+00:00,2022-12-18 12:45:00+00:00,0.0,US/Eastern,KMIA,25.788,-80.3169,Miami,Miami-Dade,FL,33122
W-8480160,Rain,Heavy,2022-12-20 22:53:00+00:00,2022-12-20 23:04:00+00:00,0.32,US/Eastern,KMIA,25.788,-80.3169,Miami,Miami-Dade,FL,33122
W-8480161,Rain,Light,2022-12-20 23:19:00+00:00,2022-12-20 23:53:00+00:00,0.03,US/Eastern,KMIA,25.788,-80.3169,Miami,Miami-Dade,FL,33122
W-8480162,Rain,Light,2022-12-21 00:53:00+00:00,2022-12-21 01:53:00+00:00,0.0,US/Eastern,KMIA,25.788,-80.3169,Miami,Miami-Dade,FL,33122
W-8480163,Rain,Light,2022-12-21 02:53:00+00:00,2022-12-21 03:53:00+00:00,0.01,US/Eastern,KMIA,25.788,-80.3169,Miami,Miami-Dade,FL,33122
W-8480164,Rain,Light,2022-12-23 11:53:00+00:00,2022-12-23 12:50:00+00:00,0.0,US/Eastern,KMIA,25.788,-80.3169,Miami,Miami-Dade,FL,33122
W-8480165,Rain,Light,2022-12-23 13:07:00+00:00,2022-12-23 13:53:00+00:00,0.02,US/Eastern,KMIA,25.788,-80.3169,Miami,Miami-Dade,FL,33122
W-8480166,Rain,Moderate,2022-12-23 14:24:00+00:00,2022-12-23 14:53:00+00:00,0.16,US/Eastern,KMIA,25.788,-80.3169,Miami,Miami-Dade,FL,33122
W-8480167,Rain,Light,2022-12-26 08:53:00+00:00,2022-12-26 09:40:00+00:00,0.0,US/Eastern,KMIA,25.788,-80.3169,Miami,Miami-Dade,FL,33122
W-8480168,Rain,Light,2022-12-26 12:48:00+00:00,2022-12-26 13:53:00+00:00,0.04,US/Eastern,KMIA,25.788,-80.3169,Miami,Miami-Dade,FL,33122
W-8480169,Rain,Light,2022-12-26 14:53:00+00:00,2022-12-26 16:53:00+00:00,0.07,US/Eastern,KMIA,25.788,-80.3169,Miami,Miami-Dade,FL,33122
W-8480170,Rain,Light,2022-12-26 21:53:00+00:00,2022-12-27 07:36:00+00:00,0.41,US/Eastern,KMIA,25.788,-80.3169,Miami,Miami-Dade,FL,33122
W-8480171,Rain,Light,2022-12-27 08:45:00+00:00,2022-12-27 08:53:00+00:00,0.02,US/Eastern,KMIA,25.788,-80.3169,Miami,Miami-Dade,FL,33122
W-8480172,Rain,Light,2022-12-27 09:53:00+00:00,2022-12-27 13:43:00+00:00,0.04,US/Eastern,KMIA,25.788,-80.3169,Miami,Miami-Dade,FL,33122
