EventId,Type,Severity,StartTime(UTC),EndTime(UTC),Precipitation(in),TimeZone,AirportCode,LocationLat,LocationLng,City,County,State,ZipCode
W-1058787,Fog,Moderate,2022-01-01 01:51:00+00:00,2022-01-01 02:51:00+00:00,0.0,US/Eastern,KNYC,40.779,-73.9692,New York,New York,NY,10024.0
W-1058788,Rain,Light,2022-01-01 08:51:00+00:00,2022-01-01 09:51:00+00:00,0.0,US/Eastern,KNYC,40.779,-73.9692,New York,New York,NY,10024.0
W-1058789,Rain,Light,2022-01-01 10:51:00+00:00,2022-01-01 19:51:00+00:00,0.25,US/Eastern,KNYC,40.779,-73.9692,New York,New York,NY,10024.0
W-1058790,Rain,Light,2022-01-01 21:51:00+00:00,2022-01-02 02:41:00+00:00,0.47,US/Eastern,KNYC,40.779,-73.9692,New York,New York,NY,10024.0
W-1058791,Rain,Moderate,2022-01-02 02:41:00+00:00,2022-01-02 04:22:00+00:00,1.07,US/Eastern,KNYC,40.779,-73.9692,New York,New York,NY,10024.0
W-1058792,Rain,Light,2022-01-02 04:22:00+00:00,2022-01-02 06:27:00+00:00,0.12,US/Eastern,KNYC,40.779,-73.9692,New York,New York,NY,10024.0
W-1058793,Rain,Light,2022-01-02 07:04:00+00:00,2022-01-02 07:51:00+00:00,0.0,US/Eastern,KNYC,40.779,-73.9692,New York,New York,NY,10024.0
W-1058794,Fog,Severe,2022-01-02 09:24:00+00:00,2022-01-02 10:00:00+00:00,0.0,US/Eastern,KNYC,40.779,-73.9692,New York,New York,NY,10024.0
W-1058795,Rain,Light,2022-01-02 10:51:00+00:00,2022-01-02 11:51:00+00:00,0.02,US/Eastern,KNYC,40.779,-73.9692,New York,New York,NY,10024.0
W-1058796,Fog,Severe,2022-01-02 11:51:00+00:00,2022-01-02 12:19:00+00:00,0.0,US/Eastern,KNYC,40.779,-73.9692,New York,New York,NY,10024.0
W-1058797,Fog,Severe,2022-01-02 12:32:00+00:00,2022-01-02 12:47:00+00:00,0.0,US/Eastern,KNYC,40.779,-73.9692,New York,New York,NY,10024.0
W-1058798,Rain,Light,2022-01-05 10:33:00+00:00,2022-01-05 13:13:00+00:00,0.06,US/Eastern,KNYC,40.779,-73.9692,New York,New York,NY,10024.0
W-1058799,Rain,Light,2022-01-05 13:30:00+00:00,2022-01-05 13:46:00+00:00,0.01,US/Eastern,KNYC,40.779,-73.9692,New York,New York,NY,10024.0
W-1058800,Fog,Severe,2022-01-05 13:46:00+00:00,2022-01-05 14:01:00+00:00,0.0,US/Eastern,KNYC,40.779,-73.9692,New York,New York,NY,10024.0
W-1058801,Rain,Light,2022-01-05 14:51:00+00:00,2022-01-05 17:17:00+00:00,0.54,US/Eastern,KNYC,40.779,-73.9692,New York,New York,NY,10024.0
W-1058802,Snow,Light,2022-01-07 06:51:00+00:00,2022-01-07 08:51:00+00:00,0.08,US/Eastern,KNYC,40.779,-73.9692,New York,New York,NY,10024.0
W-1058803,Snow,Heavy,2022-01-07 08:51:00+00:00,2022-01-07 09:07:00+00:00,0.1,US/Eastern,KNYC,40.779,-73.9692,New York,New York,NY,10024.0
W-1058804,Snow,Moderate,2022-01-07 09:07:00+00:00,2022-01-07 09:42:00+00:00,0.03,US/Eastern,KNYC,40.779,-73.9692,New York,New York,NY,10024.0
W-1058805,Snow,Heavy,2022-01-07 09:42:00+00:00,2022-01-07 11:01:00+00:00,0.25,US/Eastern,KNYC,40.779,-73.9692,New York,New York,NY,10024.0
W-1058806,Snow,Light,2022-01-07 11:01:00+00:00,2022-01-07 11:34:00+00:00,0.02,US/Eastern,KNYC,40.779,-73.9692,New York,New York,NY,10024.0
W-1058807,Snow,Moderate,2022-01-07 11:34:00+00:00,2022-01-07 11:51:00+00:00,0.1,US/Eastern,KNYC,40.779,-73.9692,New York,New York,NY,10024.0
W-1058808,Snow,Heavy,2022-01-07 11:51:00+00:00,2022-01-07 12:11:00+00:00,0.07,US/Eastern,KNYC,40.779,-73.9692,New York,New York,NY,10024.0
W-1058809,Snow,Light,2022-01-07 12:11:00+00:00,2022-01-07 14:11:00+00:00,0.05,US/Eastern,KNYC,40.779,-73.9692,New York,New York,NY,10024.0
W-1058810,Fog,Severe,2022-01-07 14:11:00+00:00,2022-01-07 14:51:00+00:00,0.0,US/Eastern,KNYC,40.779,-73.9692,New York,New York,NY,10024.0
W-1058811,Fog,Moderate,2022-01-07 14:51:00+00:00,2022-01-07 16:06:00+00:00,0.0,US/Eastern,KNYC,40.779,-73.9692,New York,New York,NY,10024.0
W-1058812,Snow,Light,2022-01-07 16:06:00+00:00,2022-01-07 16:51:00+00:00,0.0,US/Eastern,KNYC,40.779,-73.9692,New York,New York,NY,10024.0
W-1058813,Rain,Light,2022-01-09 15:51:00+00:00,2022-01-09 16:51:00+00:00,0.0,US/Eastern,KNYC,40.779,-73.9692,New York,New York,NY,10024.0
W-1058814,Rain,Light,2022-01-09 19:51:00+00:00,2022-01-10 02:31:00+00:00,0.13,US/Eastern,KNYC,40.779,-73.9692,New York,New York,NY,10024.0
W-1058815,Snow,Light,2022-01-11 05:51:00+00:00,2022-01-11 06:20:00+00:00,0.0,US/Eastern,KNYC,40.779,-73.9692,New York,New York,NY,10024.0
W-1058816,Snow,Light,2022-01-16 23:51:00+00:00,2022-01-17 01:46:00+00:00,0.09,US/Eastern,KNYC,40.779,-73.9692,New York,New York,NY,10024.0
W-1058817,Snow,Moderate,2022-01-17 01:46:00+00:00,2022-01-17 02:51:00+00:00,0.08,US/Eastern,KNYC,40.779,-73.9692,New York,New York,NY,10024.0
W-1058818,Snow,Heavy,2022-01-17 02:51:00+00:00,2022-01-17 03:09:00+00:00,0.07,US/Eastern,KNYC,40.779,-73.9692,New York,New York,NY,10024.0
W-1058819,Snow,Light,2022-01-17 03:09:00+00:00,2022-01-17 03:51:00+00:00,0.02,US/Eastern,KNYC,40.779,-73.9692,New York,New York,NY,10024.0
W-1058820,Rain,Light,2022-01-17 03:51:00+00:00,2022-01-17 04:51:00+00:00,0.09,US/Eastern,KNYC,40.779,-73.9692,New York,New York,NY,10024.0
W-1058821,Rain,Moderate,2022-01-17 04:51:00+00:00,2022-01-17 07:01:00+00:00,0.7,US/Eastern,KNYC,40.779,-73.9692,New York,New York,NY,10024.0
W-1058822,Rain,Light,2022-01-17 07:01:00+00:00,2022-01-17 07:51:00+00:00,0.09,US/Eastern,KNYC,40.779,-73.9692,New York,New York,NY,10024.0
W-1058823,Rain,Moderate,2022-01-17 07:51:00+00:00,2022-01-17 07:59:00+00:00,0.18,US/Eastern,KNYC,40.779,-73.9692,New York,New York,NY,10024.0
W-1058824,Rain,Light,2022-01-17 07:59:00+00:00,2022-01-17 08:37:00+00:00,0.06,US/Eastern,KNYC,40.779,-73.9692,New York,New York,NY,10024.0
W-1058825,Rain,Moderate,2022-01-17 08:37:00+00:00,2022-01-17 09:38:00+00:00,0.63,US/Eastern,KNYC,40.779,-73.9692,New York,New York,NY,10024.0
W-1058826,Rain,Heavy,2022-01-17 09:38:00+00:00,2022-01-17 10:00:00+00:00,0.69,US/Eastern,KNYC,40.779,-73.9692,New York,New York,NY,10024.0
W-1058827,Rain,Light,2022-01-17 10:00:00+00:00,2022-01-17 10:51:00+00:00,0.07,US/Eastern,KNYC,40.779,-73.9692,New York,New York,NY,10024.0
W-1058828,Rain,Light,2022-01-17 13:51:00+00:00,2022-01-17 14:51:00+00:00,0.0,US/Eastern,KNYC,40.779,-73.9692,New York,New York,NY,10024.0
W-1058829,Snow,Light,2022-01-17 21:51:00+00:00,2022-01-17 23:51:00+00:00,0.0,US/Eastern,KNYC,40.779,-73.9692,New York,New York,NY,10024.0
W-1058830,Rain,Light,2022-01-20 08:51:00+00:00,2022-01-20 13:51:00+00:00,0.34,US/Eastern,KNYC,40.779,-73.9692,New York,New York,NY,10024.0
W-1058831,Snow,Moderate,2022-01-20 13:51:00+00:00,2022-01-20 14:14:00+00:00,0.04,US/Eastern,KNYC,40.779,-73.9692,New York,New York,NY,10024.0
W-1058832,Snow,Light,2022-01-20 14:14:00+00:00,2022-01-20 14:51:00+00:00,0.02,US/Eastern,KNYC,40.779,-73.9692,New York,New York,NY,10024.0
W-1058833,Snow,Moderate,2022-01-20 14:51:00+00:00,2022-01-20 15:13:00+00:00,0.04,US/Eastern,KNYC,40.779,-73.9692,New York,New York,NY,10024.0
W-1058834,Snow,Light,2022-01-20 15:13:00+00:00,2022-01-20 17:11:00+00:00,0.09,US/Eastern,KNYC,40.779,-73.9692,New York,New York,NY,10024.0
W-1058835,Snow,Light,2022-01-24 00:37:00+00:00,2022-01-24 02:51:00+00:00,0.04,US/Eastern,KNYC,40.779,-73.9692,New York,New York,NY,10024.0
W-1058836,Fog,Moderate,2022-01-24 11:05:00+00:00,2022-01-24 11:21:00+00:00,0.0,US/Eastern,KNYC,40.779,-73.9692,New York,New York,NY,10024.0
W-1058837,Fog,Moderate,2022-01-24 11:51:00+00:00,2022-01-24 13:06:00+00:00,0.0,US/Eastern,KNYC,40.779,-73.9692,New York,New York,NY,10024.0
W-1058838,Fog,Moderate,2022-01-25 08:51:00+00:00,2022-01-25 09:51:00+00:00,0.0,US/Eastern,KNYC,40.779,-73.9692,New York,New York,NY,10024.0
W-1058839,Fog,Severe,2022-01-27 22:59:00+00:00,2022-01-27 23:08:00+00:00,0.0,US/Eastern,KNYC,40.779,-73.9692,New York,New York,NY,10024.0
W-1058840,Snow,Light,2022-01-28 12:45:00+00:00,2022-01-28 18:25:00+00:00,0.03,US/Eastern,KNYC,40.779,-73.9692,New York,New York,NY,10024.0
W-1058841,Fog,Severe,2022-01-28 18:25:00+00:00,2022-01-28 18:34:00+00:00,0.0,US/Eastern,KNYC,40.779,-73.9692,New York,New York,NY,10024.0
W-1058842,Fog,Moderate,2022-01-28 18:34:00+00:00,2022-01-28 19:00:00+00:00,0.0,US/Eastern,KNYC,40.779,-73.9692,New York,New York,NY,10024.0
W-1058843,Fog,Severe,2022-01-28 19:00:00+00:00,2022-01-28 19:16:00+00:00,0.0,US/Eastern,KNYC,40.779,-73.9692,New York,New York,NY,10024.0
W-1058844,Fog,Moderate,2022-01-28 19:16:00+00:00,2022-01-28 20:12:00+00:00,0.0,US/Eastern,KNYC,40.779,-73.9692,New York,New York,NY,10024.0
W-1058845,Snow,Light,2022-01-28 20:12:00+00:00,2022-01-28 20:22:00+00:00,0.0,US/Eastern,KNYC,40.779,-73.9692,New York,New York,NY,10024.0
W-1058846,Fog,Moderate,2022-01-28 20:22:00+00:00,2022-01-28 20:29:00+00:00,0.0,US/Eastern,KNYC,40.779,-73.9692,New York,New York,NY,10024.0
W-1058847,Snow,Light,2022-01-28 20:29:00+00:00,2022-01-28 20:39:00+00:00,0.0,US/Eastern,KNYC,40.779,-73.9692,New York,New York,NY,10024.0
W-1058848,Fog,Moderate,2022-01-28 20:39:00+00:00,2022-01-28 20:51:00+00:00,0.0,US/Eastern,KNYC,40.779,-73.9692,New York,New York,NY,10024.0
W-1058849,Snow,Light,2022-01-28 20:51:00+00:00,2022-01-28 21:51:00+00:00,0.0,US/Eastern,KNYC,40.779,-73.9692,New York,New York,NY,10024.0
W-1058850,Fog,Moderate,2022-01-28 22:51:00+00:00,2022-01-29 00:44:00+00:00,0.0,US/Eastern,KNYC,40.779,-73.9692,New York,New York,NY,10024.0
W-1058851,Snow,Light,2022-01-29 00:44:00+00:00,2022-01-29 04:51:00+00:00,0.06,US/Eastern,KNYC,40.779,-73.9692,New York,New York,NY,10024.0
W-1058852,Snow,Moderate,2022-01-29 04:51:00+00:00,2022-01-29 04:58:00+00:00,0.05,US/Eastern,KNYC,40.779,-73.9692,New York,New York,NY,10024.0
W-1058853,Snow,Light,2022-01-29 04:58:00+00:00,2022-01-29 09:51:00+00:00,0.01,US/Eastern,KNYC,40.779,-73.9692,New York,New York,NY,10024.0
W-1058854,Snow,Moderate,2022-01-29 09:51:00+00:00,2022-01-29 11:22:00+00:00,0.11,US/Eastern,KNYC,40.779,-73.9692,New York,New York,NY,10024.0
W-1058855,Snow,Light,2022-01-29 11:22:00+00:00,2022-01-29 11:51:00+00:00,0.02,US/Eastern,KNYC,40.779,-73.9692,New York,New York,NY,10024.0
W-1058856,Snow,Moderate,2022-01-29 11:51:00+00:00,2022-01-29 14:10:00+00:00,0.22,US/Eastern,KNYC,40.779,-73.9692,New York,New York,NY,10024.0
W-1058857,Snow,Light,2022-01-29 14:10:00+00:00,2022-01-29 14:25:00+00:00,0.02,US/Eastern,KNYC,40.779,-73.9692,New York,New York,NY,10024.0
W-1058858,Snow,Moderate,2022-01-29 14:25:00+00:00,2022-01-29 18:05:00+00:00,0.31,US/Eastern,KNYC,40.779,-73.9692,New York,New York,NY,10024.0
W-1058859,Snow,Light,2022-01-29 18:05:00+00:00,2022-01-29 20:51:00+00:00,0.05,US/Eastern,KNYC,40.779,-73.9692,New York,New York,NY,10024.0
W-1058860,Fog,Severe,2022-02-03 03:42:00+00:00,2022-02-03 03:51:00+00:00,0.0,US/Eastern,KNYC,40.779,-73.9692,New York,New York,NY,10024.0
W-1058861,Fog,Severe,2022-02-03 04:04:00+00:00,2022-02-03 04:59:00+00:00,0.0,US/Eastern,KNYC,40.779,-73.9692,New York,New York,NY,10024.0
W-1058862,Fog,Severe,2022-02-03 05:07:00+00:00,2022-02-03 07:58:00+00:00,0.0,US/Eastern,KNYC,40.779,-73.9692,New York,New York,NY,10024.0
W-1058863,Rain,Light,2022-02-03 10:51:00+00:00,2022-02-04 00:25:00+00:00,0.75,US/Eastern,KNYC,40.779,-73.9692,New York,New York,NY,10024.0
W-1058864,Rain,Light,2022-02-04 00:41:00+00:00,2022-02-04 03:51:00+00:00,0.06,US/Eastern,KNYC,40.779,-73.9692,New York,New York,NY,10024.0
W-1058865,Rain,Light,2022-02-04 04:51:00+00:00,2022-02-04 05:51:00+00:00,0.02,US/Eastern,KNYC,40.779,-73.9692,New York,New York,NY,10024.0
W-1058866,Rain,Light,2022-02-04 06:51:00+00:00,2022-02-04 07:10:00+00:00,0.0,US/Eastern,KNYC,40.779,-73.9692,New York,New York,NY,10024.0
W-1058867,Rain,Light,2022-02-04 07:44:00+00:00,2022-02-04 12:15:00+00:00,0.24,US/Eastern,KNYC,40.779,-73.9692,New York,New York,NY,10024.0
W-1058868,Rain,Light,2022-02-04 12:41:00+00:00,2022-02-04 19:21:00+00:00,0.42,US/Eastern,KNYC,40.779,-73.9692,New York,New York,NY,10024.0
W-1058869,Snow,Light,2022-02-05 02:46:00+00:00,2022-02-05 03:00:00+00:00,0.0,US/Eastern,KNYC,40.779,-73.9692,New York,New York,NY,10024.0
W-1058870,Snow,Light,2022-02-07 08:33:00+00:00,2022-02-07 08:51:00+00:00,0.0,US/Eastern,KNYC,40.779,-73.9692,New York,New York,NY,10024.0
W-1058871,Snow,Light,2022-02-07 12:37:00+00:00,2022-02-07 12:51:00+00:00,0.0,US/Eastern,KNYC,40.779,-73.9692,New York,New York,NY,10024.0
W-1058872,Rain,Light,2022-02-07 14:51:00+00:00,2022-02-07 15:31:00+00:00,0.02,US/Eastern,KNYC,40.779,-73.9692,New York,New York,NY,10024.0
W-1058873,Fog,Severe,2022-02-07 15:31:00+00:00,2022-02-07 15:51:00+00:00,0.0,US/Eastern,KNYC,40.779,-73.9692,New York,New York,NY,10024.0
W-1058874,Rain,Light,2022-02-07 15:51:00+00:00,2022-02-07 16:27:00+00:00,0.04,US/Eastern,KNYC,40.779,-73.9692,New York,New York,NY,10024.0
W-1058875,Fog,Severe,2022-02-07 16:27:00+00:00,2022-02-07 16:37:00+00:00,0.0,US/Eastern,KNYC,40.779,-73.9692,New York,New York,NY,10024.0
W-1058876,Rain,Light,2022-02-07 16:37:00+00:00,2022-02-07 17:07:00+00:00,0.06,US/Eastern,KNYC,40.779,-73.9692,New York,New York,NY,10024.0
W-1058877,Rain,Light,2022-02-07 17:16:00+00:00,2022-02-07 17:32:00+00:00,0.0,US/Eastern,KNYC,40.779,-73.9692,New York,New York,NY,10024.0
W-1058878,Rain,Light,2022-02-07 17:42:00+00:00,2022-02-07 18:38:00+00:00,0.0,US/Eastern,KNYC,40.779,-73.9692,New York,New York,NY,10024.0
W-1058879,Rain,Light,2022-02-07 19:17:00+00:00,2022-02-07 19:41:00+00:00,0.0,US/Eastern,KNYC,40.779,-73.9692,New York,New York,NY,10024.0
W-1058880,Fog,Severe,2022-02-07 19:41:00+00:00,2022-02-07 19:51:00+00:00,0.0,US/Eastern,KNYC,40.779,-73.9692,New York,New York,NY,10024.0
W-1058881,Rain,Light,2022-02-07 20:24:00+00:00,2022-02-07 20:51:00+00:00,0.03,US/Eastern,KNYC,40.779,-73.9692,New York,New York,NY,10024.0
W-1058882,Fog,Severe,2022-02-07 20:51:00+00:00,2022-02-07 20:59:00+00:00,0.0,US/Eastern,KNYC,40.779,-73.9692,New York,New York,NY,10024.0
W-1058883,Fog,Severe,2022-02-07 21:14:00+00:00,2022-02-07 23:51:00+00:00,0.0,US/Eastern,KNYC,40.779,-73.9692,New York,New York,NY,10024.0
W-1058884,Rain,Light,2022-02-08 01:51:00+00:00,2022-02-08 07:23:00+00:00,0.21,US/Eastern,KNYC,40.779,-73.9692,New York,New York,NY,10024.0
W-1058885,Cold,Severe,2022-02-09 11:51:00+00:00,2022-02-09 12:51:00+00:00,0.0,US/Eastern,KNYC,40.779,-73.9692,New York,New York,NY,10024.0
W-1058886,Snow,Light,2022-02-13 07:51:00+00:00,2022-02-13 09:23:00+00:00,0.04,US/Eastern,KNYC,40.779,-73.9692,New York,New York,NY,10024.0
W-1058887,Snow,Moderate,2022-02-13 09:23:00+00:00,2022-02-13 09:51:00+00:00,0.09,US/Eastern,KNYC,40.779,-73.9692,New York,New York,NY,10024.0
W-1058888,Snow,Heavy,2022-02-13 09:51:00+00:00,2022-02-13 09:59:00+00:00,0.07,US/Eastern,KNYC,40.779,-73.9692,New York,New York,NY,10024.0
W-1058889,Snow,Light,2022-02-13 09:59:00+00:00,2022-02-13 10:40:00+00:00,0.04,US/Eastern,KNYC,40.779,-73.9692,New York,New York,NY,10024.0
W-1058890,Snow,Moderate,2022-02-13 10:40:00+00:00,2022-02-13 11:07:00+00:00,0.07,US/Eastern,KNYC,40.779,-73.9692,New York,New York,NY,10024.0
W-1058891,Snow,Light,2022-02-13 11:07:00+00:00,2022-02-13 13:51:00+00:00,0.07,US/Eastern,KNYC,40.779,-73.9692,New York,New York,NY,10024.0
W-1058892,Snow,Moderate,2022-02-13 13:51:00+00:00,2022-02-13 13:55:00+00:00,0.03,US/Eastern,KNYC,40.779,-73.9692,New York,New York,NY,10024.0
W-1058893,Snow,Light,2022-02-13 13:55:00+00:00,2022-02-13 15:18:00+00:00,0.0,US/Eastern,KNYC,40.779,-73.9692,New York,New York,NY,10024.0
W-1058894,Cold,Severe,2022-02-13 15:18:00+00:00,2022-02-13 15:51:00+00:00,0.0,US/Eastern,KNYC,40.779,-73.9692,New York,New York,NY,10024.0
W-1058895,Snow,Light,2022-02-13 15:51:00+00:00,2022-02-13 19:24:00+00:00,0.07,US/Eastern,KNYC,40.779,-73.9692,New York,New York,NY,10024.0
W-1058896,Snow,Light,2022-02-13 19:51:00+00:00,2022-02-13 21:51:00+00:00,0.0,US/Eastern,KNYC,40.779,-73.9692,New York,New York,NY,10024.0
W-1058897,Cold,Severe,2022-02-15 16:51:00+00:00,2022-02-15 17:51:00+00:00,0.0,US/Eastern,KNYC,40.779,-73.9692,New York,New York,NY,10024.0
W-1058898,Rain,Light,2022-02-18 02:51:00+00:00,2022-02-18 03:40:00+00:00,0.03,US/Eastern,KNYC,40.779,-73.9692,New York,New York,NY,10024.0
W-1058899,Rain,Moderate,2022-02-18 03:40:00+00:00,2022-02-18 05:51:00+00:00,0.41,US/Eastern,KNYC,40.779,-73.9692,New York,New York,NY,10024.0
W-1058900,Rain,Light,2022-02-18 05:51:00+00:00,2022-02-18 06:51:00+00:00,0.22,US/Eastern,KNYC,40.779,-73.9692,New York,New York,NY,10024.0
W-1058901,Rain,Moderate,2022-02-18 06:51:00+00:00,2022-02-18 07:51:00+00:00,0.1,US/Eastern,KNYC,40.779,-73.9692,New York,New York,NY,10024.0
W-1058902,Rain,Light,2022-02-18 11:33:00+00:00,2022-02-18 11:41:00+00:00,0.0,US/Eastern,KNYC,40.779,-73.9692,New York,New York,NY,10024.0
W-1058903,Rain,Moderate,2022-02-18 11:41:00+00:00,2022-02-18 11:51:00+00:00,0.32,US/Eastern,KNYC,40.779,-73.9692,New York,New York,NY,10024.0
W-1058904,Snow,Light,2022-02-19 20:16:00+00:00,2022-02-19 20:39:00+00:00,0.0,US/Eastern,KNYC,40.779,-73.9692,New York,New York,NY,10024.0
W-1058905,Cold,Severe,2022-02-21 00:51:00+00:00,2022-02-21 01:51:00+00:00,0.0,US/Eastern,KNYC,40.779,-73.9692,New York,New York,NY,10024.0
W-1058906,Fog,Severe,2022-02-22 11:58:00+00:00,2022-02-22 12:22:00+00:00,0.0,US/Eastern,KNYC,40.779,-73.9692,New York,New York,NY,10024.0
W-1058907,Rain,Light,2022-02-22 18:51:00+00:00,2022-02-22 20:51:00+00:00,0.11,US/Eastern,KNYC,40.779,-73.9692,New York,New York,NY,10024.0
W-1058908,Rain,Light,2022-02-22 21:42:00+00:00,2022-02-23 00:51:00+00:00,0.23,US/Eastern,KNYC,40.779,-73.9692,New York,New York,NY,10024.0
W-1058909,Cold,Severe,2022-02-23 01:59:00+00:00,2022-02-23 02:51:00+00:00,0.0,US/Eastern,KNYC,40.779,-73.9692,New York,New York,NY,10024.0
W-1058910,Rain,Light,2022-02-25 06:27:00+00:00,2022-02-25 07:42:00+00:00,0.05,US/Eastern,KNYC,40.779,-73.9692,New York,New York,NY,10024.0
W-1058911,Fog,Severe,2022-02-25 17:23:00+00:00,2022-02-25 17:46:00+00:00,0.0,US/Eastern,KNYC,40.779,-73.9692,New York,New York,NY,10024.0
W-1058912,Rain,Light,2022-02-25 21:22:00+00:00,2022-02-25 21:51:00+00:00,0.0,US/Eastern,KNYC,40.779,-73.9692,New York,New York,NY,10024.0
W-1058913,Rain,Light,2022-03-03 07:51:00+00:00,2022-03-03 10:35:00+00:00,0.03,US/Eastern,KNYC,40.779,-73.9692,New York,New York,NY,10024.0
W-1058914,Fog,Moderate,2022-03-06 12:51:00+00:00,2022-03-06 13:51:00+00:00,0.0,US/Eastern,KNYC,40.779,-73.9692,New York,New York,NY,10024.0
W-1058915,Rain,Light,2022-03-06 14:19:00+00:00,2022-03-06 14:38:00+00:00,0.0,US/Eastern,KNYC,40.779,-73.9692,New York,New York,NY,10024.0
W-1058916,Rain,Light,2022-03-06 14:51:00+00:00,2022-03-06 15:58:00+00:00,0.2,US/Eastern,KNYC,40.779,-73.9692,New York,New York,NY,10024.0
W-1058917,Rain,Light,2022-03-06 16:34:00+00:00,2022-03-06 16:43:00+00:00,0.0,US/Eastern,KNYC,40.779,-73.9692,New York,New York,NY,10024.0
W-1058918,Rain,Light,2022-03-06 17:51:00+00:00,2022-03-06 18:39:00+00:00,0.0,US/Eastern,KNYC,40.779,-73.9692,New York,New York,NY,10024.0
W-1058919,Rain,Light,2022-03-07 21:51:00+00:00,2022-03-07 22:51:00+00:00,0.02,US/Eastern,KNYC,40.779,-73.9692,New York,New York,NY,10024.0
W-1058920,Rain,Light,2022-03-08 02:51:00+00:00,2022-03-08 03:51:00+00:00,0.0,US/Eastern,KNYC,40.779,-73.9692,New York,New York,NY,10024.0
W-1058921,Rain,Light,2022-03-09 11:32:00+00:00,2022-03-09 12:51:00+00:00,0.01,US/Eastern,KNYC,40.779,-73.9692,New York,New York,NY,10024.0
W-1058922,Rain,Light,2022-03-09 13:33:00+00:00,2022-03-09 15:21:00+00:00,0.06,US/Eastern,KNYC,40.779,-73.9692,New York,New York,NY,10024.0
W-1058923,Snow,Moderate,2022-03-09 15:21:00+00:00,2022-03-09 15:59:00+00:00,0.09,US/Eastern,KNYC,40.779,-73.9692,New York,New York,NY,10024.0
W-1058924,Snow,Light,2022-03-09 15:59:00+00:00,2022-03-09 16:22:00+00:00,0.03,US/Eastern,KNYC,40.779,-73.9692,New York,New York,NY,10024.0
W-1058925,Snow,Moderate,2022-03-09 16:22:00+00:00,2022-03-09 16:58:00+00:00,0.09,US/Eastern,KNYC,40.779,-73.9692,New York,New York,NY,10024.0
W-1058926,Snow,Light,2022-03-09 16:58:00+00:00,2022-03-09 18:48:00+00:00,0.02,US/Eastern,KNYC,40.779,-73.9692,New York,New York,NY,10024.0
W-1058927,Snow,Heavy,2022-03-09 18:48:00+00:00,2022-03-09 19:23:00+00:00,0.19,US/Eastern,KNYC,40.779,-73.9692,New York,New York,NY,10024.0
W-1058928,Snow,Moderate,2022-03-09 19:23:00+00:00,2022-03-09 19:51:00+00:00,0.11,US/Eastern,KNYC,40.779,-73.9692,New York,New York,NY,10024.0
W-1058929,Rain,Moderate,2022-03-09 19:51:00+00:00,2022-03-09 20:51:00+00:00,0.11,US/Eastern,KNYC,40.779,-73.9692,New York,New York,NY,10024.0
W-1058930,Snow,Heavy,2022-03-09 20:51:00+00:00,2022-03-09 21:51:00+00:00,0.07,US/Eastern,KNYC,40.779,-73.9692,New York,New York,NY,10024.0
W-1058931,Snow,Moderate,2022-03-09 21:51:00+00:00,2022-03-09 22:30:00+00:00,0.04,US/Eastern,KNYC,40.779,-73.9692,New York,New York,NY,10024.0
W-1058932,Snow,Light,2022-03-09 22:30:00+00:00,2022-03-09 22:51:00+00:00,0.03,US/Eastern,KNYC,40.779,-73.9692,New York,New York,NY,10024.0
W-1058933,Snow,Moderate,2022-03-09 22:51:00+00:00,2022-03-09 23:51:00+00:00,0.03,US/Eastern,KNYC,40.779,-73.9692,New York,New York,NY,10024.0
W-1058934,Fog,Severe,2022-03-10 12:12:00+00:00,2022-03-10 12:25:00+00:00,0.0,US/Eastern,KNYC,40.779,-73.9692,New York,New York,NY,10024.0
W-1058935,Fog,Moderate,2022-03-10 14:51:00+00:00,2022-03-10 16:51:00+00:00,0.0,US/Eastern,KNYC,40.779,-73.9692,New York,New York,NY,10024.0
W-1058936,Rain,Light,2022-03-12 10:01:00+00:00,2022-03-12 10:51:00+00:00,0.01,US/Eastern,KNYC,40.779,-73.9692,New York,New York,NY,10024.0
W-1058937,Rain,Light,2022-03-12 12:34:00+00:00,2022-03-12 13:51:00+00:00,0.15,US/Eastern,KNYC,40.779,-73.9692,New York,New York,NY,10024.0
W-1058938,Rain,Moderate,2022-03-12 13:51:00+00:00,2022-03-12 13:56:00+00:00,0.14,US/Eastern,KNYC,40.779,-73.9692,New York,New York,NY,10024.0
W-1058939,Rain,Light,2022-03-12 13:56:00+00:00,2022-03-12 14:38:00+00:00,0.25,US/Eastern,KNYC,40.779,-73.9692,New York,New York,NY,10024.0
W-1058940,Rain,Moderate,2022-03-12 14:38:00+00:00,2022-03-12 15:11:00+00:00,0.36,US/Eastern,KNYC,40.779,-73.9692,New York,New York,NY,10024.0
W-1058941,Snow,Light,2022-03-12 15:11:00+00:00,2022-03-12 15:22:00+00:00,0.01,US/Eastern,KNYC,40.779,-73.9692,New York,New York,NY,10024.0
W-1058942,Snow,Moderate,2022-03-12 15:22:00+00:00,2022-03-12 15:39:00+00:00,0.03,US/Eastern,KNYC,40.779,-73.9692,New York,New York,NY,10024.0
W-1058943,Snow,Heavy,2022-03-12 15:39:00+00:00,2022-03-12 15:51:00+00:00,0.18,US/Eastern,KNYC,40.779,-73.9692,New York,New York,NY,10024.0
W-1058944,Rain,Moderate,2022-03-12 15:51:00+00:00,2022-03-12 16:03:00+00:00,0.11,US/Eastern,KNYC,40.779,-73.9692,New York,New York,NY,10024.0
W-1058945,Rain,Light,2022-03-12 16:03:00+00:00,2022-03-12 16:32:00+00:00,0.05,US/Eastern,KNYC,40.779,-73.9692,New York,New York,NY,10024.0
W-1058946,Snow,Moderate,2022-03-12 16:32:00+00:00,2022-03-12 16:49:00+00:00,0.04,US/Eastern,KNYC,40.779,-73.9692,New York,New York,NY,10024.0
W-1058947,Rain,Light,2022-03-12 16:49:00+00:00,2022-03-12 17:05:00+00:00,0.1,US/Eastern,KNYC,40.779,-73.9692,New York,New York,NY,10024.0
W-1058948,Snow,Light,2022-03-12 17:05:00+00:00,2022-03-12 17:41:00+00:00,0.01,US/Eastern,KNYC,40.779,-73.9692,New York,New York,NY,10024.0
W-1058949,Snow,Light,2022-03-12 21:25:00+00:00,2022-03-12 23:05:00+00:00,0.0,US/Eastern,KNYC,40.779,-73.9692,New York,New York,NY,10024.0
W-1058950,Rain,Light,2022-03-16 02:51:00+00:00,2022-03-16 05:51:00+00:00,0.0,US/Eastern,KNYC,40.779,-73.9692,New York,New York,NY,10024.0
W-1058951,Fog,Severe,2022-03-17 08:26:00+00:00,2022-03-17 10:33:00+00:00,0.0,US/Eastern,KNYC,40.779,-73.9692,New York,New York,NY,10024.0
W-1058952,Fog,Severe,2022-03-17 12:39:00+00:00,2022-03-17 13:51:00+00:00,0.0,US/Eastern,KNYC,40.779,-73.9692,New York,New York,NY,10024.0
W-1058953,Rain,Light,2022-03-17 13:51:00+00:00,2022-03-17 15:19:00+00:00,0.05,US/Eastern,KNYC,40.779,-73.9692,New York,New York,NY,10024.0
W-1058954,Rain,Light,2022-03-17 15:51:00+00:00,2022-03-17 17:51:00+00:00,0.0,US/Eastern,KNYC,40.779,-73.9692,New York,New York,NY,10024.0
W-1058955,Rain,Light,2022-03-17 18:45:00+00:00,2022-03-17 19:46:00+00:00,0.05,US/Eastern,KNYC,40.779,-73.9692,New York,New York,NY,10024.0
W-1058956,Fog,Severe,2022-03-17 19:46:00+00:00,2022-03-18 06:34:00+00:00,0.0,US/Eastern,KNYC,40.779,-73.9692,New York,New York,NY,10024.0
W-1058957,Fog,Severe,2022-03-19 08:41:00+00:00,2022-03-19 10:31:00+00:00,0.0,US/Eastern,KNYC,40.779,-73.9692,New York,New York,NY,10024.0
W-1058958,Cold,Severe,2022-03-19 10:31:00+00:00,2022-03-19 10:49:00+00:00,0.0,US/Eastern,KNYC,40.779,-73.9692,New York,New York,NY,10024.0
W-1058959,Fog,Severe,2022-03-19 10:51:00+00:00,2022-03-19 13:34:00+00:00,0.0,US/Eastern,KNYC,40.779,-73.9692,New York,New York,NY,10024.0
W-1058960,Rain,Light,2022-03-20 02:51:00+00:00,2022-03-20 05:51:00+00:00,0.05,US/Eastern,KNYC,40.779,-73.9692,New York,New York,NY,10024.0
W-1058961,Fog,Severe,2022-03-21 20:51:00+00:00,2022-03-21 21:03:00+00:00,0.0,US/Eastern,KNYC,40.779,-73.9692,New York,New York,NY,10024.0
W-1058962,Rain,Light,2022-03-23 21:51:00+00:00,2022-03-23 22:51:00+00:00,0.0,US/Eastern,KNYC,40.779,-73.9692,New York,New York,NY,10024.0
W-1058963,Rain,Light,2022-03-23 23:51:00+00:00,2022-03-24 00:51:00+00:00,0.0,US/Eastern,KNYC,40.779,-73.9692,New York,New York,NY,10024.0
W-1058964,Rain,Light,2022-03-24 01:51:00+00:00,2022-03-24 02:51:00+00:00,0.01,US/Eastern,KNYC,40.779,-73.9692,New York,New York,NY,10024.0
W-1058965,Rain,Light,2022-03-24 03:51:00+00:00,2022-03-24 12:51:00+00:00,0.56,US/Eastern,KNYC,40.779,-73.9692,New York,New York,NY,10024.0
W-1058966,Rain,Light,2022-03-24 14:51:00+00:00,2022-03-24 15:51:00+00:00,0.0,US/Eastern,KNYC,40.779,-73.9692,New York,New York,NY,10024.0
W-1058967,Rain,Light,2022-03-25 03:10:00+00:00,2022-03-25 03:28:00+00:00,0.0,US/Eastern,KNYC,40.779,-73.9692,New York,New York,NY,10024.0
W-1058968,Rain,Moderate,2022-03-25 03:28:00+00:00,2022-03-25 03:59:00+00:00,0.28,US/Eastern,KNYC,40.779,-73.9692,New York,New York,NY,10024.0
W-1058969,Rain,Light,2022-03-25 03:59:00+00:00,2022-03-25 04:25:00+00:00,0.06,US/Eastern,KNYC,40.779,-73.9692,New York,New York,NY,10024.0
W-1058970,Rain,Moderate,2022-03-25 04:25:00+00:00,2022-03-25 04:41:00+00:00,0.45,US/Eastern,KNYC,40.779,-73.9692,New York,New York,NY,10024.0
W-1058971,Rain,Heavy,2022-03-25 04:41:00+00:00,2022-03-25 04:58:00+00:00,0.94,US/Eastern,KNYC,40.779,-73.9692,New York,New York,NY,10024.0
W-1058972,Rain,Light,2022-03-25 04:58:00+00:00,2022-03-25 05:40:00+00:00,0.13,US/Eastern,KNYC,40.779,-73.9692,New York,New York,NY,10024.0
W-1058973,Rain,Moderate,2022-03-25 05:40:00+00:00,2022-03-25 06:03:00+00:00,0.38,US/Eastern,KNYC,40.779,-73.9692,New York,New York,NY,10024.0
W-1058974,Rain,Light,2022-03-25 06:03:00+00:00,2022-03-25 07:29:00+00:00,0.07,US/Eastern,KNYC,40.779,-73.9692,New York,New York,NY,10024.0
W-1058975,Rain,Light,2022-03-26 16:51:00+00:00,2022-03-26 17:51:00+00:00,0.0,US/Eastern,KNYC,40.779,-73.9692,New York,New York,NY,10024.0
W-1058976,Fog,Severe,2022-03-31 10:17:00+00:00,2022-03-31 11:28:00+00:00,0.0,US/Eastern,KNYC,40.779,-73.9692,New York,New York,NY,10024.0
W-1058977,Fog,Severe,2022-03-31 12:10:00+00:00,2022-03-31 13:08:00+00:00,0.0,US/Eastern,KNYC,40.779,-73.9692,New York,New York,NY,10024.0
W-1058978,Fog,Moderate,2022-03-31 14:18:00+00:00,2022-03-31 15:51:00+00:00,0.0,US/Eastern,KNYC,40.779,-73.9692,New York,New York,NY,10024.0
W-1058979,Cold,Severe,2022-03-31 23:51:00+00:00,2022-04-01 00:29:00+00:00,0.0,US/Eastern,KNYC,40.779,-73.9692,New York,New York,NY,10024.0
W-1058980,Rain,Light,2022-04-01 02:51:00+00:00,2022-04-01 03:21:00+00:00,0.0,US/Eastern,KNYC,40.779,-73.9692,New York,New York,NY,10024.0
W-1058981,Rain,Light,2022-04-01 04:44:00+00:00,2022-04-01 05:51:00+00:00,0.12,US/Eastern,KNYC,40.779,-73.9692,New York,New York,NY,10024.0
W-1058982,Rain,Light,2022-04-01 07:28:00+00:00,2022-04-01 07:45:00+00:00,0.17,US/Eastern,KNYC,40.779,-73.9692,New York,New York,NY,10024.0
W-1058983,Rain,Moderate,2022-04-01 07:45:00+00:00,2022-04-01 07:53:00+00:00,0.23,US/Eastern,KNYC,40.779,-73.9692,New York,New York,NY,10024.0
W-1058984,Rain,Light,2022-04-01 07:53:00+00:00,2022-04-01 08:51:00+00:00,0.13,US/Eastern,KNYC,40.779,-73.9692,New York,New York,NY,10024.0
W-1058985,Rain,Light,2022-04-01 10:51:00+00:00,2022-04-01 11:51:00+00:00,0.06,US/Eastern,KNYC,40.779,-73.9692,New York,New York,NY,10024.0
W-1058986,Cold,Severe,2022-04-01 22:51:00+00:00,2022-04-01 23:51:00+00:00,0.0,US/Eastern,KNYC,40.779,-73.9692,New York,New York,NY,10024.0
W-1058987,Rain,Light,2022-04-03 14:51:00+00:00,2022-04-03 18:51:00+00:00,0.12,US/Eastern,KNYC,40.779,-73.9692,New York,New York,NY,10024.0
W-1058988,Rain,Light,2022-04-03 22:51:00+00:00,2022-04-03 23:51:00+00:00,0.0,US/Eastern,KNYC,40.779,-73.9692,New York,New York,NY,10024.0
W-1058989,Rain,Light,2022-04-06 03:51:00+00:00,2022-04-06 16:51:00+00:00,0.65,US/Eastern,KNYC,40.779,-73.9692,New York,New York,NY,10024.0
W-1058990,Rain,Light,2022-04-06 17:30:00+00:00,2022-04-06 17:51:00+00:00,0.0,US/Eastern,KNYC,40.779,-73.9692,New York,New York,NY,10024.0
W-1058991,Rain,Light,2022-04-07 17:24:00+00:00,2022-04-08 02:51:00+00:00,1.15,US/Eastern,KNYC,40.779,-73.9692,New York,New York,NY,10024.0
W-1058992,Rain,Light,2022-04-08 03:18:00+00:00,2022-04-08 04:04:00+00:00,0.14,US/Eastern,KNYC,40.779,-73.9692,New York,New York,NY,10024.0
W-1058993,Rain,Moderate,2022-04-08 04:04:00+00:00,2022-04-08 04:25:00+00:00,0.33,US/Eastern,KNYC,40.779,-73.9692,New York,New York,NY,10024.0
W-1058994,Rain,Heavy,2022-04-08 04:25:00+00:00,2022-04-08 05:00:00+00:00,1.58,US/Eastern,KNYC,40.779,-73.9692,New York,New York,NY,10024.0
W-1058995,Rain,Light,2022-04-08 05:00:00+00:00,2022-04-08 07:07:00+00:00,0.21,US/Eastern,KNYC,40.779,-73.9692,New York,New York,NY,10024.0
W-1058996,Rain,Light,2022-04-08 07:27:00+00:00,2022-04-08 07:34:00+00:00,0.0,US/Eastern,KNYC,40.779,-73.9692,New York,New York,NY,10024.0
W-1058997,Fog,Severe,2022-04-08 07:34:00+00:00,2022-04-08 08:08:00+00:00,0.0,US/Eastern,KNYC,40.779,-73.9692,New York,New York,NY,10024.0
W-1058998,Fog,Severe,2022-04-08 08:49:00+00:00,2022-04-08 09:20:00+00:00,0.0,US/Eastern,KNYC,40.779,-73.9692,New York,New York,NY,10024.0
W-1058999,Rain,Light,2022-04-09 07:51:00+00:00,2022-04-09 08:51:00+00:00,0.0,US/Eastern,KNYC,40.779,-73.9692,New York,New York,NY,10024.0
W-1059000,Rain,Light,2022-04-09 10:51:00+00:00,2022-04-09 11:51:00+00:00,0.0,US/Eastern,KNYC,40.779,-73.9692,New York,New York,NY,10024.0
W-1059001,Rain,Light,2022-04-09 15:51:00+00:00,2022-04-09 16:51:00+00:00,0.0,US/Eastern,KNYC,40.779,-73.9692,New York,New York,NY,10024.0
W-1059002,Rain,Light,2022-04-09 23:11:00+00:00,2022-04-09 23:18:00+00:00,0.02,US/Eastern,KNYC,40.779,-73.9692,New York,New York,NY,10024.0
W-1059003,Rain,Light,2022-04-12 12:51:00+00:00,2022-04-12 15:51:00+00:00,0.05,US/Eastern,KNYC,40.779,-73.9692,New York,New York,NY,10024.0
W-1059004,Rain,Light,2022-04-14 23:51:00+00:00,2022-04-15 01:51:00+00:00,0.15,US/Eastern,KNYC,40.779,-73.9692,New York,New York,NY,10024.0
W-1059005,Rain,Light,2022-04-15 03:51:00+00:00,2022-04-15 04:51:00+00:00,0.0,US/Eastern,KNYC,40.779,-73.9692,New York,New York,NY,10024.0
W-1059006,Rain,Light,2022-04-17 01:51:00+00:00,2022-04-17 03:51:00+00:00,0.12,US/Eastern,KNYC,40.779,-73.9692,New York,New York,NY,10024.0
W-1059007,Rain,Moderate,2022-04-17 03:51:00+00:00,2022-04-17 04:03:00+00:00,0.11,US/Eastern,KNYC,40.779,-73.9692,New York,New York,NY,10024.0
W-1059008,Rain,Light,2022-04-17 04:03:00+00:00,2022-04-17 04:51:00+00:00,0.02,US/Eastern,KNYC,40.779,-73.9692,New York,New York,NY,10024.0
W-1059009,Rain,Light,2022-04-19 01:51:00+00:00,2022-04-19 03:51:00+00:00,0.09,US/Eastern,KNYC,40.779,-73.9692,New York,New York,NY,10024.0
W-1059010,Rain,Moderate,2022-04-19 03:51:00+00:00,2022-04-19 05:00:00+00:00,0.7,US/Eastern,KNYC,40.779,-73.9692,New York,New York,NY,10024.0
W-1059011,Rain,Light,2022-04-19 05:00:00+00:00,2022-04-19 05:31:00+00:00,0.05,US/Eastern,KNYC,40.779,-73.9692,New York,New York,NY,10024.0
W-1059012,Rain,Moderate,2022-04-19 05:31:00+00:00,2022-04-19 05:51:00+00:00,0.44,US/Eastern,KNYC,40.779,-73.9692,New York,New York,NY,10024.0
W-1059013,Rain,Heavy,2022-04-19 05:51:00+00:00,2022-04-19 08:07:00+00:00,1.34,US/Eastern,KNYC,40.779,-73.9692,New York,New York,NY,10024.0
W-1059014,Rain,Light,2022-04-19 08:07:00+00:00,2022-04-19 08:15:00+00:00,0.08,US/Eastern,KNYC,40.779,-73.9692,New York,New York,NY,10024.0
W-1059015,Rain,Moderate,2022-04-19 08:15:00+00:00,2022-04-19 09:02:00+00:00,0.45,US/Eastern,KNYC,40.779,-73.9692,New York,New York,NY,10024.0
W-1059016,Rain,Light,2022-04-19 09:02:00+00:00,2022-04-19 11:51:00+00:00,0.27,US/Eastern,KNYC,40.779,-73.9692,New York,New York,NY,10024.0
W-1059017,Fog,Severe,2022-04-23 20:51:00+00:00,2022-04-23 20:59:00+00:00,0.0,US/Eastern,KNYC,40.779,-73.9692,New York,New York,NY,10024.0
W-1059018,Rain,Light,2022-04-26 22:51:00+00:00,2022-04-27 00:51:00+00:00,0.0,US/Eastern,KNYC,40.779,-73.9692,New York,New York,NY,10024.0
W-1059019,Rain,Light,2022-05-02 04:51:00+00:00,2022-05-02 05:51:00+00:00,0.0,US/Eastern,KNYC,40.779,-73.9692,New York,New York,NY,10024.0
W-1059020,Rain,Light,2022-05-02 11:01:00+00:00,2022-05-02 11:11:00+00:00,0.01,US/Eastern,KNYC,40.779,-73.9692,New York,New York,NY,10024.0
W-1059021,Rain,Moderate,2022-05-02 11:11:00+00:00,2022-05-02 11:14:00+00:00,0.17,US/Eastern,KNYC,40.779,-73.9692,New York,New York,NY,10024.0
W-1059022,Rain,Light,2022-05-02 11:14:00+00:00,2022-05-02 11:22:00+00:00,0.0,US/Eastern,KNYC,40.779,-73.9692,New York,New York,NY,10024.0
W-1059023,Rain,Moderate,2022-05-02 11:22:00+00:00,2022-05-02 12:42:00+00:00,0.61,US/Eastern,KNYC,40.779,-73.9692,New York,New York,NY,10024.0
W-1059024,Rain,Light,2022-05-02 12:42:00+00:00,2022-05-02 13:51:00+00:00,0.01,US/Eastern,KNYC,40.779,-73.9692,New York,New York,NY,10024.0
W-1059025,Fog,Severe,2022-05-02 16:27:00+00:00,2022-05-02 16:51:00+00:00,0.0,US/Eastern,KNYC,40.779,-73.9692,New York,New York,NY,10024.0
W-1059026,Rain,Light,2022-05-02 16:51:00+00:00,2022-05-02 17:51:00+00:00,0.0,US/Eastern,KNYC,40.779,-73.9692,New York,New York,NY,10024.0
W-1059027,Fog,Severe,2022-05-02 17:51:00+00:00,2022-05-02 19:26:00+00:00,0.0,US/Eastern,KNYC,40.779,-73.9692,New York,New York,NY,10024.0
W-1059028,Fog,Severe,2022-05-02 21:33:00+00:00,2022-05-02 21:51:00+00:00,0.0,US/Eastern,KNYC,40.779,-73.9692,New York,New York,NY,10024.0
W-1059029,Rain,Light,2022-05-02 21:51:00+00:00,2022-05-02 22:14:00+00:00,0.0,US/Eastern,KNYC,40.779,-73.9692,New York,New York,NY,10024.0
W-1059030,Fog,Severe,2022-05-03 00:04:00+00:00,2022-05-03 00:23:00+00:00,0.0,US/Eastern,KNYC,40.779,-73.9692,New York,New York,NY,10024.0
W-1059031,Rain,Light,2022-05-04 08:51:00+00:00,2022-05-04 09:51:00+00:00,0.02,US/Eastern,KNYC,40.779,-73.9692,New York,New York,NY,10024.0
W-1059032,Rain,Light,2022-05-04 10:51:00+00:00,2022-05-04 11:43:00+00:00,0.01,US/Eastern,KNYC,40.779,-73.9692,New York,New York,NY,10024.0
W-1059033,Rain,Light,2022-05-04 11:51:00+00:00,2022-05-04 12:51:00+00:00,0.01,US/Eastern,KNYC,40.779,-73.9692,New York,New York,NY,10024.0
W-1059034,Rain,Light,2022-05-04 13:51:00+00:00,2022-05-04 15:51:00+00:00,0.03,US/Eastern,KNYC,40.779,-73.9692,New York,New York,NY,10024.0
W-1059035,Rain,Light,2022-05-06 12:51:00+00:00,2022-05-06 20:51:00+00:00,0.21,US/Eastern,KNYC,40.779,-73.9692,New York,New York,NY,10024.0
W-1059036,Cold,Severe,2022-05-06 20:51:00+00:00,2022-05-06 21:51:00+00:00,0.0,US/Eastern,KNYC,40.779,-73.9692,New York,New York,NY,10024.0
W-1059037,Rain,Light,2022-05-06 21:51:00+00:00,2022-05-07 17:32:00+00:00,1.37,US/Eastern,KNYC,40.779,-73.9692,New York,New York,NY,10024.0
W-1059038,Rain,Moderate,2022-05-07 17:32:00+00:00,2022-05-07 19:01:00+00:00,0.72,US/Eastern,KNYC,40.779,-73.9692,New York,New York,NY,10024.0
W-1059039,Rain,Light,2022-05-07 19:01:00+00:00,2022-05-08 01:51:00+00:00,0.32,US/Eastern,KNYC,40.779,-73.9692,New York,New York,NY,10024.0
W-1059040,Rain,Light,2022-05-08 03:51:00+00:00,2022-05-08 04:51:00+00:00,0.0,US/Eastern,KNYC,40.779,-73.9692,New York,New York,NY,10024.0
W-1059041,Rain,Light,2022-05-08 05:51:00+00:00,2022-05-08 09:51:00+00:00,0.0,US/Eastern,KNYC,40.779,-73.9692,New York,New York,NY,10024.0
W-1059042,Rain,Light,2022-05-08 10:51:00+00:00,2022-05-08 11:51:00+00:00,0.0,US/Eastern,KNYC,40.779,-73.9692,New York,New York,NY,10024.0
W-1059043,Rain,Light,2022-05-08 13:51:00+00:00,2022-05-08 14:51:00+00:00,0.0,US/Eastern,KNYC,40.779,-73.9692,New York,New York,NY,10024.0
W-1059044,Fog,Severe,2022-05-13 07:00:00+00:00,2022-05-13 07:07:00+00:00,0.0,US/Eastern,KNYC,40.779,-73.9692,New York,New York,NY,10024.0
W-1059045,Fog,Severe,2022-05-13 07:23:00+00:00,2022-05-13 07:59:00+00:00,0.0,US/Eastern,KNYC,40.779,-73.9692,New York,New York,NY,10024.0
W-1059046,Rain,Light,2022-05-13 21:51:00+00:00,2022-05-13 22:21:00+00:00,0.0,US/Eastern,KNYC,40.779,-73.9692,New York,New York,NY,10024.0
W-1059047,Rain,Light,2022-05-13 23:51:00+00:00,2022-05-14 00:51:00+00:00,0.02,US/Eastern,KNYC,40.779,-73.9692,New York,New York,NY,10024.0
W-1059048,Fog,Severe,2022-05-14 02:10:00+00:00,2022-05-14 02:31:00+00:00,0.0,US/Eastern,KNYC,40.779,-73.9692,New York,New York,NY,10024.0
W-1059049,Fog,Severe,2022-05-14 12:41:00+00:00,2022-05-14 13:10:00+00:00,0.0,US/Eastern,KNYC,40.779,-73.9692,New York,New York,NY,10024.0
W-1059050,Fog,Moderate,2022-05-14 15:51:00+00:00,2022-05-14 16:51:00+00:00,0.0,US/Eastern,KNYC,40.779,-73.9692,New York,New York,NY,10024.0
W-1059051,Rain,Light,2022-05-14 21:22:00+00:00,2022-05-15 00:51:00+00:00,0.12,US/Eastern,KNYC,40.779,-73.9692,New York,New York,NY,10024.0
W-1059052,Fog,Severe,2022-05-15 02:40:00+00:00,2022-05-15 03:03:00+00:00,0.0,US/Eastern,KNYC,40.779,-73.9692,New York,New York,NY,10024.0
W-1059053,Rain,Light,2022-05-15 03:51:00+00:00,2022-05-15 04:22:00+00:00,0.06,US/Eastern,KNYC,40.779,-73.9692,New York,New York,NY,10024.0
W-1059054,Rain,Moderate,2022-05-15 04:22:00+00:00,2022-05-15 04:51:00+00:00,0.44,US/Eastern,KNYC,40.779,-73.9692,New York,New York,NY,10024.0
W-1059055,Rain,Light,2022-05-15 06:17:00+00:00,2022-05-15 06:44:00+00:00,0.0,US/Eastern,KNYC,40.779,-73.9692,New York,New York,NY,10024.0
W-1059056,Fog,Severe,2022-05-15 06:44:00+00:00,2022-05-15 07:01:00+00:00,0.0,US/Eastern,KNYC,40.779,-73.9692,New York,New York,NY,10024.0
W-1059057,Fog,Severe,2022-05-15 07:23:00+00:00,2022-05-15 07:34:00+00:00,0.0,US/Eastern,KNYC,40.779,-73.9692,New York,New York,NY,10024.0
W-1059058,Rain,Light,2022-05-15 07:44:00+00:00,2022-05-15 08:51:00+00:00,0.24,US/Eastern,KNYC,40.779,-73.9692,New York,New York,NY,10024.0
W-1059059,Fog,Severe,2022-05-15 10:49:00+00:00,2022-05-15 13:27:00+00:00,0.0,US/Eastern,KNYC,40.779,-73.9692,New York,New York,NY,10024.0
W-1059060,Rain,Light,2022-05-16 18:36:00+00:00,2022-05-16 19:51:00+00:00,0.14,US/Eastern,KNYC,40.779,-73.9692,New York,New York,NY,10024.0
W-1059061,Rain,Light,2022-05-16 23:51:00+00:00,2022-05-17 01:51:00+00:00,0.02,US/Eastern,KNYC,40.779,-73.9692,New York,New York,NY,10024.0
W-1059062,Rain,Light,2022-05-19 05:51:00+00:00,2022-05-19 09:51:00+00:00,0.27,US/Eastern,KNYC,40.779,-73.9692,New York,New York,NY,10024.0
W-1059063,Rain,Moderate,2022-05-19 09:51:00+00:00,2022-05-19 10:10:00+00:00,0.13,US/Eastern,KNYC,40.779,-73.9692,New York,New York,NY,10024.0
W-1059064,Rain,Light,2022-05-19 10:10:00+00:00,2022-05-19 10:24:00+00:00,0.09,US/Eastern,KNYC,40.779,-73.9692,New York,New York,NY,10024.0
W-1059065,Rain,Moderate,2022-05-19 10:24:00+00:00,2022-05-19 10:58:00+00:00,0.57,US/Eastern,KNYC,40.779,-73.9692,New York,New York,NY,10024.0
W-1059066,Rain,Light,2022-05-19 10:58:00+00:00,2022-05-19 11:15:00+00:00,0.12,US/Eastern,KNYC,40.779,-73.9692,New York,New York,NY,10024.0
W-1059067,Rain,Moderate,2022-05-19 11:15:00+00:00,2022-05-19 12:00:00+00:00,0.62,US/Eastern,KNYC,40.779,-73.9692,New York,New York,NY,10024.0
W-1059068,Rain,Light,2022-05-19 12:00:00+00:00,2022-05-19 14:40:00+00:00,0.14,US/Eastern,KNYC,40.779,-73.9692,New York,New York,NY,10024.0
W-1059069,Rain,Light,2022-05-19 14:51:00+00:00,2022-05-19 15:19:00+00:00,0.01,US/Eastern,KNYC,40.779,-73.9692,New York,New York,NY,10024.0
W-1059070,Fog,Severe,2022-05-20 08:35:00+00:00,2022-05-20 09:04:00+00:00,0.0,US/Eastern,KNYC,40.779,-73.9692,New York,New York,NY,10024.0
W-1059071,Fog,Severe,2022-05-20 09:12:00+00:00,2022-05-20 13:18:00+00:00,0.0,US/Eastern,KNYC,40.779,-73.9692,New York,New York,NY,10024.0
W-1059072,Fog,Moderate,2022-05-20 13:35:00+00:00,2022-05-20 15:51:00+00:00,0.0,US/Eastern,KNYC,40.779,-73.9692,New York,New York,NY,10024.0
W-1059073,Rain,Light,2022-05-20 21:03:00+00:00,2022-05-20 21:51:00+00:00,0.0,US/Eastern,KNYC,40.779,-73.9692,New York,New York,NY,10024.0
W-1059074,Fog,Moderate,2022-05-20 21:51:00+00:00,2022-05-20 22:03:00+00:00,0.0,US/Eastern,KNYC,40.779,-73.9692,New York,New York,NY,10024.0
W-1059075,Rain,Light,2022-05-20 22:03:00+00:00,2022-05-20 22:29:00+00:00,0.06,US/Eastern,KNYC,40.779,-73.9692,New York,New York,NY,10024.0
W-1059076,Rain,Moderate,2022-05-20 22:29:00+00:00,2022-05-20 22:46:00+00:00,0.43,US/Eastern,KNYC,40.779,-73.9692,New York,New York,NY,10024.0
W-1059077,Rain,Heavy,2022-05-20 22:46:00+00:00,2022-05-20 23:19:00+00:00,0.32,US/Eastern,KNYC,40.779,-73.9692,New York,New York,NY,10024.0
W-1059078,Rain,Light,2022-05-20 23:19:00+00:00,2022-05-21 00:26:00+00:00,0.13,US/Eastern,KNYC,40.779,-73.9692,New York,New York,NY,10024.0
W-1059079,Fog,Severe,2022-05-21 00:26:00+00:00,2022-05-21 14:25:00+00:00,0.0,US/Eastern,KNYC,40.779,-73.9692,New York,New York,NY,10024.0
W-1059080,Rain,Light,2022-05-27 22:26:00+00:00,2022-05-27 22:33:00+00:00,0.0,US/Eastern,KNYC,40.779,-73.9692,New York,New York,NY,10024.0
W-1059081,Cold,Severe,2022-05-27 22:33:00+00:00,2022-05-27 22:40:00+00:00,0.0,US/Eastern,KNYC,40.779,-73.9692,New York,New York,NY,10024.0
W-1059082,Rain,Light,2022-05-27 22:40:00+00:00,2022-05-27 22:51:00+00:00,0.0,US/Eastern,KNYC,40.779,-73.9692,New York,New York,NY,10024.0
W-1059083,Rain,Moderate,2022-05-27 22:51:00+00:00,2022-05-27 23:51:00+00:00,0.25,US/Eastern,KNYC,40.779,-73.9692,New York,New York,NY,10024.0
W-1059084,Rain,Light,2022-05-28 05:20:00+00:00,2022-05-28 06:51:00+00:00,0.2,US/Eastern,KNYC,40.779,-73.9692,New York,New York,NY,10024.0
W-1059085,Rain,Light,2022-05-28 17:35:00+00:00,2022-05-28 17:47:00+00:00,0.02,US/Eastern,KNYC,40.779,-73.9692,New York,New York,NY,10024.0
W-1059086,Rain,Moderate,2022-05-28 17:47:00+00:00,2022-05-28 18:09:00+00:00,0.22,US/Eastern,KNYC,40.779,-73.9692,New York,New York,NY,10024.0
W-1059087,Rain,Heavy,2022-05-28 18:09:00+00:00,2022-05-28 18:15:00+00:00,0.52,US/Eastern,KNYC,40.779,-73.9692,New York,New York,NY,10024.0
W-1059088,Cold,Severe,2022-05-28 18:15:00+00:00,2022-05-28 18:51:00+00:00,0.0,US/Eastern,KNYC,40.779,-73.9692,New York,New York,NY,10024.0
W-1059089,Precipitation,UNK,2022-05-28 18:51:00+00:00,2022-05-28 19:51:00+00:00,0.53,US/Eastern,KNYC,40.779,-73.9692,New York,New York,NY,10024.0
W-1059090,Rain,Light,2022-05-29 01:51:00+00:00,2022-05-29 02:51:00+00:00,0.0,US/Eastern,KNYC,40.779,-73.9692,New York,New York,NY,10024.0
W-1059091,Rain,Light,2022-06-01 08:51:00+00:00,2022-06-01 09:51:00+00:00,0.0,US/Eastern,KNYC,40.779,-73.9692,New York,New York,NY,10024.0
W-1059092,Rain,Light,2022-06-01 22:51:00+00:00,2022-06-01 23:17:00+00:00,0.04,US/Eastern,KNYC,40.779,-73.9692,New York,New York,NY,10024.0
W-1059093,Rain,Light,2022-06-02 00:51:00+00:00,2022-06-02 01:14:00+00:00,0.03,US/Eastern,KNYC,40.779,-73.9692,New York,New York,NY,10024.0
W-1059094,Rain,Moderate,2022-06-02 01:14:00+00:00,2022-06-02 01:29:00+00:00,0.15,US/Eastern,KNYC,40.779,-73.9692,New York,New York,NY,10024.0
W-1059095,Rain,Heavy,2022-06-02 01:29:00+00:00,2022-06-02 02:30:00+00:00,1.9,US/Eastern,KNYC,40.779,-73.9692,New York,New York,NY,10024.0
W-1059096,Rain,Light,2022-06-02 03:04:00+00:00,2022-06-02 03:48:00+00:00,0.08,US/Eastern,KNYC,40.779,-73.9692,New York,New York,NY,10024.0
W-1059097,Rain,Moderate,2022-06-02 03:48:00+00:00,2022-06-02 04:13:00+00:00,0.34,US/Eastern,KNYC,40.779,-73.9692,New York,New York,NY,10024.0
W-1059098,Rain,Light,2022-06-02 04:13:00+00:00,2022-06-02 05:51:00+00:00,0.26,US/Eastern,KNYC,40.779,-73.9692,New York,New York,NY,10024.0
W-1059099,Fog,Severe,2022-06-02 07:11:00+00:00,2022-06-02 08:31:00+00:00,0.0,US/Eastern,KNYC,40.779,-73.9692,New York,New York,NY,10024.0
W-1059100,Fog,Severe,2022-06-02 08:39:00+00:00,2022-06-02 09:02:00+00:00,0.0,US/Eastern,KNYC,40.779,-73.9692,New York,New York,NY,10024.0
W-1059101,Rain,Light,2022-06-02 09:02:00+00:00,2022-06-02 09:42:00+00:00,0.0,US/Eastern,KNYC,40.779,-73.9692,New York,New York,NY,10024.0
W-1059102,Fog,Severe,2022-06-02 09:53:00+00:00,2022-06-02 10:01:00+00:00,0.0,US/Eastern,KNYC,40.779,-73.9692,New York,New York,NY,10024.0
W-1059103,Rain,Light,2022-06-02 21:29:00+00:00,2022-06-02 21:43:00+00:00,0.0,US/Eastern,KNYC,40.779,-73.9692,New York,New York,NY,10024.0
W-1059104,Rain,Moderate,2022-06-02 21:43:00+00:00,2022-06-02 22:51:00+00:00,0.92,US/Eastern,KNYC,40.779,-73.9692,New York,New York,NY,10024.0
W-1059105,Precipitation,UNK,2022-06-02 22:51:00+00:00,2022-06-02 23:08:00+00:00,0.25,US/Eastern,KNYC,40.779,-73.9692,New York,New York,NY,10024.0
W-1059106,Rain,Light,2022-06-02 23:27:00+00:00,2022-06-02 23:36:00+00:00,0.0,US/Eastern,KNYC,40.779,-73.9692,New York,New York,NY,10024.0
W-1059107,Fog,Severe,2022-06-02 23:36:00+00:00,2022-06-02 23:51:00+00:00,0.0,US/Eastern,KNYC,40.779,-73.9692,New York,New York,NY,10024.0
W-1059108,Rain,Light,2022-06-02 23:51:00+00:00,2022-06-03 00:10:00+00:00,0.0,US/Eastern,KNYC,40.779,-73.9692,New York,New York,NY,10024.0
W-1059109,Fog,Severe,2022-06-03 00:10:00+00:00,2022-06-03 00:56:00+00:00,0.0,US/Eastern,KNYC,40.779,-73.9692,New York,New York,NY,10024.0
W-1059110,Fog,Severe,2022-06-03 01:04:00+00:00,2022-06-03 01:49:00+00:00,0.0,US/Eastern,KNYC,40.779,-73.9692,New York,New York,NY,10024.0
W-1059111,Fog,Severe,2022-06-03 02:06:00+00:00,2022-06-03 02:51:00+00:00,0.0,US/Eastern,KNYC,40.779,-73.9692,New York,New York,NY,10024.0
W-1059112,Fog,Severe,2022-06-03 04:09:00+00:00,2022-06-03 07:24:00+00:00,0.0,US/Eastern,KNYC,40.779,-73.9692,New York,New York,NY,10024.0
W-1059113,Rain,Light,2022-06-03 07:24:00+00:00,2022-06-03 07:35:00+00:00,0.0,US/Eastern,KNYC,40.779,-73.9692,New York,New York,NY,10024.0
W-1059114,Fog,Severe,2022-06-03 07:43:00+00:00,2022-06-03 08:17:00+00:00,0.0,US/Eastern,KNYC,40.779,-73.9692,New York,New York,NY,10024.0
W-1059115,Fog,Severe,2022-06-03 08:28:00+00:00,2022-06-03 08:43:00+00:00,0.0,US/Eastern,KNYC,40.779,-73.9692,New York,New York,NY,10024.0
W-1059116,Fog,Severe,2022-06-03 09:36:00+00:00,2022-06-03 09:59:00+00:00,0.0,US/Eastern,KNYC,40.779,-73.9692,New York,New York,NY,10024.0
W-1059117,Rain,Light,2022-06-08 01:51:00+00:00,2022-06-08 03:51:00+00:00,0.03,US/Eastern,KNYC,40.779,-73.9692,New York,New York,NY,10024.0
W-1059118,Rain,Light,2022-06-08 05:51:00+00:00,2022-06-08 06:51:00+00:00,0.03,US/Eastern,KNYC,40.779,-73.9692,New York,New York,NY,10024.0
W-1059119,Rain,Light,2022-06-08 07:51:00+00:00,2022-06-08 09:51:00+00:00,0.02,US/Eastern,KNYC,40.779,-73.9692,New York,New York,NY,10024.0
W-1059120,Rain,Light,2022-06-09 06:51:00+00:00,2022-06-09 07:33:00+00:00,0.08,US/Eastern,KNYC,40.779,-73.9692,New York,New York,NY,10024.0
W-1059121,Rain,Moderate,2022-06-09 07:33:00+00:00,2022-06-09 08:07:00+00:00,0.53,US/Eastern,KNYC,40.779,-73.9692,New York,New York,NY,10024.0
W-1059122,Rain,Light,2022-06-09 08:07:00+00:00,2022-06-09 10:23:00+00:00,0.34,US/Eastern,KNYC,40.779,-73.9692,New York,New York,NY,10024.0
W-1059123,Rain,Heavy,2022-06-09 10:23:00+00:00,2022-06-09 10:31:00+00:00,0.35,US/Eastern,KNYC,40.779,-73.9692,New York,New York,NY,10024.0
W-1059124,Rain,Light,2022-06-09 10:31:00+00:00,2022-06-09 10:38:00+00:00,0.0,US/Eastern,KNYC,40.779,-73.9692,New York,New York,NY,10024.0
W-1059125,Rain,Heavy,2022-06-09 10:38:00+00:00,2022-06-09 10:58:00+00:00,0.77,US/Eastern,KNYC,40.779,-73.9692,New York,New York,NY,10024.0
W-1059126,Rain,Light,2022-06-09 10:58:00+00:00,2022-06-09 11:36:00+00:00,0.1,US/Eastern,KNYC,40.779,-73.9692,New York,New York,NY,10024.0
W-1059127,Fog,Severe,2022-06-10 20:28:00+00:00,2022-06-10 20:40:00+00:00,0.0,US/Eastern,KNYC,40.779,-73.9692,New York,New York,NY,10024.0
W-1059128,Rain,Light,2022-06-12 12:51:00+00:00,2022-06-12 14:51:00+00:00,0.03,US/Eastern,KNYC,40.779,-73.9692,New York,New York,NY,10024.0
W-1059129,Rain,Light,2022-06-12 15:16:00+00:00,2022-06-12 15:26:00+00:00,0.0,US/Eastern,KNYC,40.779,-73.9692,New York,New York,NY,10024.0
W-1059130,Rain,Light,2022-06-12 15:51:00+00:00,2022-06-12 17:51:00+00:00,0.02,US/Eastern,KNYC,40.779,-73.9692,New York,New York,NY,10024.0
W-1059131,Rain,Light,2022-06-13 05:51:00+00:00,2022-06-13 06:51:00+00:00,0.0,US/Eastern,KNYC,40.779,-73.9692,New York,New York,NY,10024.0
W-1059132,Rain,Light,2022-06-16 11:44:00+00:00,2022-06-16 12:44:00+00:00,0.11,US/Eastern,KNYC,40.779,-73.9692,New York,New York,NY,10024.0
W-1059133,Rain,Moderate,2022-06-16 12:44:00+00:00,2022-06-16 13:03:00+00:00,0.31,US/Eastern,KNYC,40.779,-73.9692,New York,New York,NY,10024.0
W-1059134,Rain,Light,2022-06-16 13:03:00+00:00,2022-06-16 13:51:00+00:00,0.11,US/Eastern,KNYC,40.779,-73.9692,New York,New York,NY,10024.0
W-1059135,Rain,Light,2022-06-21 23:51:00+00:00,2022-06-22 00:51:00+00:00,0.02,US/Eastern,KNYC,40.779,-73.9692,New York,New York,NY,10024.0
W-1059136,Rain,Light,2022-06-22 01:51:00+00:00,2022-06-22 02:51:00+00:00,0.0,US/Eastern,KNYC,40.779,-73.9692,New York,New York,NY,10024.0
W-1059137,Fog,Severe,2022-06-22 20:26:00+00:00,2022-06-22 20:36:00+00:00,0.0,US/Eastern,KNYC,40.779,-73.9692,New York,New York,NY,10024.0
W-1059138,Rain,Light,2022-06-22 20:36:00+00:00,2022-06-22 20:51:00+00:00,0.0,US/Eastern,KNYC,40.779,-73.9692,New York,New York,NY,10024.0
W-1059139,Rain,Light,2022-06-22 22:36:00+00:00,2022-06-22 23:09:00+00:00,0.01,US/Eastern,KNYC,40.779,-73.9692,New York,New York,NY,10024.0
W-1059140,Rain,Light,2022-06-23 03:51:00+00:00,2022-06-23 04:48:00+00:00,0.0,US/Eastern,KNYC,40.779,-73.9692,New York,New York,NY,10024.0
W-1059141,Rain,Light,2022-06-24 01:51:00+00:00,2022-06-24 02:41:00+00:00,0.08,US/Eastern,KNYC,40.779,-73.9692,New York,New York,NY,10024.0
W-1059142,Fog,Severe,2022-06-24 10:47:00+00:00,2022-06-24 11:02:00+00:00,0.0,US/Eastern,KNYC,40.779,-73.9692,New York,New York,NY,10024.0
W-1059143,Fog,Severe,2022-06-24 11:09:00+00:00,2022-06-24 11:31:00+00:00,0.0,US/Eastern,KNYC,40.779,-73.9692,New York,New York,NY,10024.0
W-1059144,Fog,Moderate,2022-06-24 13:51:00+00:00,2022-06-24 14:51:00+00:00,0.0,US/Eastern,KNYC,40.779,-73.9692,New York,New York,NY,10024.0
W-1059145,Rain,Light,2022-06-27 14:51:00+00:00,2022-06-27 15:51:00+00:00,0.01,US/Eastern,KNYC,40.779,-73.9692,New York,New York,NY,10024.0
W-1059146,Rain,Light,2022-06-27 17:10:00+00:00,2022-06-27 17:51:00+00:00,0.08,US/Eastern,KNYC,40.779,-73.9692,New York,New York,NY,10024.0
W-1059147,Rain,Light,2022-06-27 19:01:00+00:00,2022-06-27 20:13:00+00:00,0.09,US/Eastern,KNYC,40.779,-73.9692,New York,New York,NY,10024.0
W-1059148,Rain,Moderate,2022-06-27 20:13:00+00:00,2022-06-27 20:51:00+00:00,0.54,US/Eastern,KNYC,40.779,-73.9692,New York,New York,NY,10024.0
W-1059149,Fog,Severe,2022-06-30 00:59:00+00:00,2022-06-30 01:08:00+00:00,0.0,US/Eastern,KNYC,40.779,-73.9692,New York,New York,NY,10024.0
W-1059150,Fog,Moderate,2022-07-01 12:51:00+00:00,2022-07-01 13:51:00+00:00,0.0,US/Eastern,KNYC,40.779,-73.9692,New York,New York,NY,10024.0
W-1059151,Rain,Light,2022-07-05 22:44:00+00:00,2022-07-05 23:51:00+00:00,0.06,US/Eastern,KNYC,40.779,-73.9692,New York,New York,NY,10024.0
W-1059152,Rain,Light,2022-07-06 01:29:00+00:00,2022-07-06 02:38:00+00:00,0.14,US/Eastern,KNYC,40.779,-73.9692,New York,New York,NY,10024.0
W-1059153,Fog,Moderate,2022-07-06 12:51:00+00:00,2022-07-06 13:51:00+00:00,0.0,US/Eastern,KNYC,40.779,-73.9692,New York,New York,NY,10024.0
W-1059154,Rain,Moderate,2022-07-08 20:24:00+00:00,2022-07-08 21:01:00+00:00,0.57,US/Eastern,KNYC,40.779,-73.9692,New York,New York,NY,10024.0
W-1059155,Fog,Severe,2022-07-08 21:01:00+00:00,2022-07-08 21:37:00+00:00,0.0,US/Eastern,KNYC,40.779,-73.9692,New York,New York,NY,10024.0
W-1059156,Rain,Light,2022-07-08 22:03:00+00:00,2022-07-08 22:51:00+00:00,0.0,US/Eastern,KNYC,40.779,-73.9692,New York,New York,NY,10024.0
W-1059157,Fog,Severe,2022-07-11 13:19:00+00:00,2022-07-11 14:04:00+00:00,0.0,US/Eastern,KNYC,40.779,-73.9692,New York,New York,NY,10024.0
W-1059158,Rain,Light,2022-07-16 19:48:00+00:00,2022-07-16 19:57:00+00:00,0.08,US/Eastern,KNYC,40.779,-73.9692,New York,New York,NY,10024.0
W-1059159,Rain,Heavy,2022-07-16 19:57:00+00:00,2022-07-16 20:03:00+00:00,0.39,US/Eastern,KNYC,40.779,-73.9692,New York,New York,NY,10024.0
W-1059160,Rain,Light,2022-07-16 20:03:00+00:00,2022-07-16 20:11:00+00:00,0.0,US/Eastern,KNYC,40.779,-73.9692,New York,New York,NY,10024.0
W-1059161,Rain,Heavy,2022-07-16 20:11:00+00:00,2022-07-16 20:23:00+00:00,1.98,US/Eastern,KNYC,40.779,-73.9692,New York,New York,NY,10024.0
W-1059162,Rain,Light,2022-07-16 20:23:00+00:00,2022-07-16 20:28:00+00:00,0.0,US/Eastern,KNYC,40.779,-73.9692,New York,New York,NY,10024.0
W-1059163,Rain,Heavy,2022-07-16 20:28:00+00:00,2022-07-16 20:51:00+00:00,1.02,US/Eastern,KNYC,40.779,-73.9692,New York,New York,NY,10024.0
W-1059164,Precipitation,UNK,2022-07-16 20:51:00+00:00,2022-07-16 21:51:00+00:00,1.02,US/Eastern,KNYC,40.779,-73.9692,New York,New York,NY,10024.0
W-1059165,Rain,Light,2022-07-17 03:51:00+00:00,2022-07-17 04:51:00+00:00,0.0,US/Eastern,KNYC,40.779,-73.9692,New York,New York,NY,10024.0
W-1059166,Rain,Light,2022-07-17 05:51:00+00:00,2022-07-17 06:15:00+00:00,0.01,US/Eastern,KNYC,40.779,-73.9692,New York,New York,NY,10024.0
W-1059167,Rain,Light,2022-07-17 08:51:00+00:00,2022-07-17 09:51:00+00:00,0.0,US/Eastern,KNYC,40.779,-73.9692,New York,New York,NY,10024.0
W-1059168,Rain,Light,2022-07-18 11:58:00+00:00,2022-07-18 12:02:00+00:00,0.02,US/Eastern,KNYC,40.779,-73.9692,New York,New York,NY,10024.0
W-1059169,Rain,Moderate,2022-07-18 12:02:00+00:00,2022-07-18 12:13:00+00:00,0.1,US/Eastern,KNYC,40.779,-73.9692,New York,New York,NY,10024.0
W-1059170,Rain,Heavy,2022-07-18 12:13:00+00:00,2022-07-18 12:25:00+00:00,2.37,US/Eastern,KNYC,40.779,-73.9692,New York,New York,NY,10024.0
W-1059171,Precipitation,UNK,2022-07-18 12:25:00+00:00,2022-07-18 12:43:00+00:00,0.79,US/Eastern,KNYC,40.779,-73.9692,New York,New York,NY,10024.0
W-1059172,Rain,Light,2022-07-18 12:43:00+00:00,2022-07-18 12:51:00+00:00,0.0,US/Eastern,KNYC,40.779,-73.9692,New York,New York,NY,10024.0
W-1059173,Rain,Heavy,2022-07-18 12:51:00+00:00,2022-07-18 12:56:00+00:00,0.84,US/Eastern,KNYC,40.779,-73.9692,New York,New York,NY,10024.0
W-1059174,Fog,Severe,2022-07-18 14:51:00+00:00,2022-07-18 14:58:00+00:00,0.0,US/Eastern,KNYC,40.779,-73.9692,New York,New York,NY,10024.0
W-1059175,Fog,Severe,2022-07-18 15:14:00+00:00,2022-07-18 15:26:00+00:00,0.0,US/Eastern,KNYC,40.779,-73.9692,New York,New York,NY,10024.0
W-1059176,Rain,Light,2022-07-18 15:37:00+00:00,2022-07-18 15:51:00+00:00,0.02,US/Eastern,KNYC,40.779,-73.9692,New York,New York,NY,10024.0
W-1059177,Fog,Severe,2022-07-18 16:11:00+00:00,2022-07-18 16:22:00+00:00,0.0,US/Eastern,KNYC,40.779,-73.9692,New York,New York,NY,10024.0
W-1059178,Rain,Light,2022-07-18 17:26:00+00:00,2022-07-18 17:36:00+00:00,0.0,US/Eastern,KNYC,40.779,-73.9692,New York,New York,NY,10024.0
W-1059179,Rain,Moderate,2022-07-18 17:36:00+00:00,2022-07-18 17:49:00+00:00,0.1,US/Eastern,KNYC,40.779,-73.9692,New York,New York,NY,10024.0
W-1059180,Rain,Light,2022-07-18 17:49:00+00:00,2022-07-18 17:51:00+00:00,0.0,US/Eastern,KNYC,40.779,-73.9692,New York,New York,NY,10024.0
W-1059181,Rain,Moderate,2022-07-18 17:51:00+00:00,2022-07-18 17:59:00+00:00,0.12,US/Eastern,KNYC,40.779,-73.9692,New York,New York,NY,10024.0
W-1059182,Fog,Severe,2022-07-18 17:59:00+00:00,2022-07-18 18:06:00+00:00,0.0,US/Eastern,KNYC,40.779,-73.9692,New York,New York,NY,10024.0
W-1059183,Rain,Light,2022-07-18 18:06:00+00:00,2022-07-18 18:17:00+00:00,0.0,US/Eastern,KNYC,40.779,-73.9692,New York,New York,NY,10024.0
W-1059184,Rain,Light,2022-07-18 20:08:00+00:00,2022-07-18 20:33:00+00:00,0.01,US/Eastern,KNYC,40.779,-73.9692,New York,New York,NY,10024.0
W-1059185,Rain,Moderate,2022-07-18 20:33:00+00:00,2022-07-18 20:40:00+00:00,0.15,US/Eastern,KNYC,40.779,-73.9692,New York,New York,NY,10024.0
W-1059186,Rain,Heavy,2022-07-18 20:40:00+00:00,2022-07-18 20:47:00+00:00,0.36,US/Eastern,KNYC,40.779,-73.9692,New York,New York,NY,10024.0
W-1059187,Rain,Light,2022-07-18 20:47:00+00:00,2022-07-18 20:51:00+00:00,0.0,US/Eastern,KNYC,40.779,-73.9692,New York,New York,NY,10024.0
W-1059188,Rain,Heavy,2022-07-18 20:51:00+00:00,2022-07-18 20:55:00+00:00,0.73,US/Eastern,KNYC,40.779,-73.9692,New York,New York,NY,10024.0
W-1059189,Rain,Light,2022-07-18 20:55:00+00:00,2022-07-18 21:09:00+00:00,0.01,US/Eastern,KNYC,40.779,-73.9692,New York,New York,NY,10024.0
W-1059190,Rain,Light,2022-07-18 22:02:00+00:00,2022-07-18 22:40:00+00:00,0.03,US/Eastern,KNYC,40.779,-73.9692,New York,New York,NY,10024.0
W-1059191,Fog,Severe,2022-07-18 22:40:00+00:00,2022-07-18 22:51:00+00:00,0.0,US/Eastern,KNYC,40.779,-73.9692,New York,New York,NY,10024.0
W-1059192,Rain,Light,2022-07-18 23:54:00+00:00,2022-07-19 00:08:00+00:00,0.0,US/Eastern,KNYC,40.779,-73.9692,New York,New York,NY,10024.0
W-1059193,Rain,Moderate,2022-07-19 00:08:00+00:00,2022-07-19 00:26:00+00:00,0.24,US/Eastern,KNYC,40.779,-73.9692,New York,New York,NY,10024.0
W-1059194,Rain,Light,2022-07-21 18:14:00+00:00,2022-07-21 18:49:00+00:00,0.1,US/Eastern,KNYC,40.779,-73.9692,New York,New York,NY,10024.0
W-1059195,Rain,Moderate,2022-07-21 18:49:00+00:00,2022-07-21 19:51:00+00:00,0.32,US/Eastern,KNYC,40.779,-73.9692,New York,New York,NY,10024.0
W-1059196,Rain,Light,2022-07-22 23:51:00+00:00,2022-07-23 00:51:00+00:00,0.0,US/Eastern,KNYC,40.779,-73.9692,New York,New York,NY,10024.0
W-1059197,Rain,Light,2022-07-25 17:58:00+00:00,2022-07-25 18:02:00+00:00,0.0,US/Eastern,KNYC,40.779,-73.9692,New York,New York,NY,10024.0
W-1059198,Rain,Moderate,2022-07-25 18:02:00+00:00,2022-07-25 18:06:00+00:00,0.19,US/Eastern,KNYC,40.779,-73.9692,New York,New York,NY,10024.0
W-1059199,Rain,Heavy,2022-07-25 18:06:00+00:00,2022-07-25 19:51:00+00:00,2.98,US/Eastern,KNYC,40.779,-73.9692,New York,New York,NY,10024.0
W-1059200,Rain,Light,2022-07-28 08:39:00+00:00,2022-07-28 09:51:00+00:00,0.02,US/Eastern,KNYC,40.779,-73.9692,New York,New York,NY,10024.0
W-1059201,Rain,Light,2022-07-30 01:51:00+00:00,2022-07-30 02:40:00+00:00,0.08,US/Eastern,KNYC,40.779,-73.9692,New York,New York,NY,10024.0
W-1059202,Rain,Light,2022-07-30 02:51:00+00:00,2022-07-30 03:51:00+00:00,0.09,US/Eastern,KNYC,40.779,-73.9692,New York,New York,NY,10024.0
W-1059203,Rain,Light,2022-07-30 08:51:00+00:00,2022-07-30 09:51:00+00:00,0.0,US/Eastern,KNYC,40.779,-73.9692,New York,New York,NY,10024.0
W-1059204,Rain,Light,2022-08-01 05:51:00+00:00,2022-08-01 06:51:00+00:00,0.0,US/Eastern,KNYC,40.779,-73.9692,New York,New York,NY,10024.0
W-1059205,Rain,Light,2022-08-01 07:51:00+00:00,2022-08-01 08:12:00+00:00,0.03,US/Eastern,KNYC,40.779,-73.9692,New York,New York,NY,10024.0
W-1059206,Rain,Moderate,2022-08-01 08:12:00+00:00,2022-08-01 09:04:00+00:00,0.64,US/Eastern,KNYC,40.779,-73.9692,New York,New York,NY,10024.0
W-1059207,Rain,Light,2022-08-01 09:04:00+00:00,2022-08-01 09:51:00+00:00,0.1,US/Eastern,KNYC,40.779,-73.9692,New York,New York,NY,10024.0
W-1059208,Rain,Moderate,2022-08-01 09:51:00+00:00,2022-08-01 11:51:00+00:00,0.33,US/Eastern,KNYC,40.779,-73.9692,New York,New York,NY,10024.0
W-1059209,Fog,Severe,2022-08-01 14:51:00+00:00,2022-08-01 15:51:00+00:00,0.0,US/Eastern,KNYC,40.779,-73.9692,New York,New York,NY,10024.0
W-1059210,Fog,Severe,2022-08-01 16:01:00+00:00,2022-08-01 16:22:00+00:00,0.0,US/Eastern,KNYC,40.779,-73.9692,New York,New York,NY,10024.0
W-1059211,Fog,Severe,2022-08-01 17:13:00+00:00,2022-08-01 17:34:00+00:00,0.0,US/Eastern,KNYC,40.779,-73.9692,New York,New York,NY,10024.0
W-1059212,Fog,Severe,2022-08-01 17:51:00+00:00,2022-08-01 18:20:00+00:00,0.0,US/Eastern,KNYC,40.779,-73.9692,New York,New York,NY,10024.0
W-1059213,Rain,Light,2022-08-07 19:12:00+00:00,2022-08-07 19:21:00+00:00,0.0,US/Eastern,KNYC,40.779,-73.9692,New York,New York,NY,10024.0
W-1059214,Rain,Moderate,2022-08-07 19:21:00+00:00,2022-08-07 19:34:00+00:00,0.3,US/Eastern,KNYC,40.779,-73.9692,New York,New York,NY,10024.0
W-1059215,Rain,Moderate,2022-08-07 19:51:00+00:00,2022-08-07 20:51:00+00:00,0.16,US/Eastern,KNYC,40.779,-73.9692,New York,New York,NY,10024.0
W-1059216,Rain,Light,2022-08-09 23:51:00+00:00,2022-08-10 00:12:00+00:00,0.05,US/Eastern,KNYC,40.779,-73.9692,New York,New York,NY,10024.0
W-1059217,Rain,Light,2022-08-11 11:51:00+00:00,2022-08-11 13:51:00+00:00,0.19,US/Eastern,KNYC,40.779,-73.9692,New York,New York,NY,10024.0
W-1059218,Rain,Light,2022-08-18 02:28:00+00:00,2022-08-18 02:36:00+00:00,0.0,US/Eastern,KNYC,40.779,-73.9692,New York,New York,NY,10024.0
W-1059219,Rain,Moderate,2022-08-18 02:36:00+00:00,2022-08-18 02:41:00+00:00,0.28,US/Eastern,KNYC,40.779,-73.9692,New York,New York,NY,10024.0
W-1059220,Rain,Heavy,2022-08-18 02:41:00+00:00,2022-08-18 03:51:00+00:00,1.02,US/Eastern,KNYC,40.779,-73.9692,New York,New York,NY,10024.0
W-1059221,Rain,Light,2022-08-22 08:51:00+00:00,2022-08-22 09:58:00+00:00,0.0,US/Eastern,KNYC,40.779,-73.9692,New York,New York,NY,10024.0
W-1059222,Rain,Light,2022-08-22 16:51:00+00:00,2022-08-22 17:38:00+00:00,0.07,US/Eastern,KNYC,40.779,-73.9692,New York,New York,NY,10024.0
W-1059223,Rain,Moderate,2022-08-22 17:38:00+00:00,2022-08-22 17:53:00+00:00,0.34,US/Eastern,KNYC,40.779,-73.9692,New York,New York,NY,10024.0
W-1059224,Rain,Light,2022-08-22 17:53:00+00:00,2022-08-22 18:35:00+00:00,0.01,US/Eastern,KNYC,40.779,-73.9692,New York,New York,NY,10024.0
W-1059225,Rain,Light,2022-08-22 21:51:00+00:00,2022-08-22 23:51:00+00:00,0.0,US/Eastern,KNYC,40.779,-73.9692,New York,New York,NY,10024.0
W-1059226,Rain,Light,2022-08-23 03:51:00+00:00,2022-08-23 05:08:00+00:00,0.12,US/Eastern,KNYC,40.779,-73.9692,New York,New York,NY,10024.0
W-1059227,Fog,Severe,2022-08-23 05:16:00+00:00,2022-08-23 05:39:00+00:00,0.0,US/Eastern,KNYC,40.779,-73.9692,New York,New York,NY,10024.0
W-1059228,Fog,Severe,2022-08-23 08:51:00+00:00,2022-08-23 09:19:00+00:00,0.0,US/Eastern,KNYC,40.779,-73.9692,New York,New York,NY,10024.0
W-1059229,Fog,Severe,2022-08-23 09:53:00+00:00,2022-08-23 10:02:00+00:00,0.0,US/Eastern,KNYC,40.779,-73.9692,New York,New York,NY,10024.0
W-1059230,Fog,Severe,2022-08-23 10:41:00+00:00,2022-08-23 11:13:00+00:00,0.0,US/Eastern,KNYC,40.779,-73.9692,New York,New York,NY,10024.0
W-1059231,Fog,Severe,2022-08-23 11:23:00+00:00,2022-08-23 13:38:00+00:00,0.0,US/Eastern,KNYC,40.779,-73.9692,New York,New York,NY,10024.0
W-1059232,Fog,Severe,2022-08-23 13:51:00+00:00,2022-08-23 14:11:00+00:00,0.0,US/Eastern,KNYC,40.779,-73.9692,New York,New York,NY,10024.0
W-1059233,Fog,Severe,2022-08-23 14:30:00+00:00,2022-08-23 14:40:00+00:00,0.0,US/Eastern,KNYC,40.779,-73.9692,New York,New York,NY,10024.0
W-1059234,Rain,Light,2022-08-26 18:54:00+00:00,2022-08-26 19:00:00+00:00,0.01,US/Eastern,KNYC,40.779,-73.9692,New York,New York,NY,10024.0
W-1059235,Rain,Moderate,2022-08-26 19:00:00+00:00,2022-08-26 19:30:00+00:00,0.37,US/Eastern,KNYC,40.779,-73.9692,New York,New York,NY,10024.0
W-1059236,Fog,Severe,2022-08-26 19:30:00+00:00,2022-08-26 19:42:00+00:00,0.0,US/Eastern,KNYC,40.779,-73.9692,New York,New York,NY,10024.0
W-1059237,Precipitation,UNK,2022-08-26 19:42:00+00:00,2022-08-26 20:51:00+00:00,0.48,US/Eastern,KNYC,40.779,-73.9692,New York,New York,NY,10024.0
W-1059238,Rain,Light,2022-08-31 02:51:00+00:00,2022-08-31 06:09:00+00:00,0.12,US/Eastern,KNYC,40.779,-73.9692,New York,New York,NY,10024.0
W-1059239,Rain,Light,2022-08-31 06:51:00+00:00,2022-08-31 07:51:00+00:00,0.0,US/Eastern,KNYC,40.779,-73.9692,New York,New York,NY,10024.0
W-1059240,Fog,Severe,2022-09-01 13:29:00+00:00,2022-09-01 13:44:00+00:00,0.0,US/Eastern,KNYC,40.779,-73.9692,New York,New York,NY,10024.0
W-1059241,Fog,Severe,2022-09-01 13:51:00+00:00,2022-09-01 13:59:00+00:00,0.0,US/Eastern,KNYC,40.779,-73.9692,New York,New York,NY,10024.0
W-1059242,Rain,Light,2022-09-04 21:51:00+00:00,2022-09-04 22:51:00+00:00,0.0,US/Eastern,KNYC,40.779,-73.9692,New York,New York,NY,10024.0
W-1059243,Rain,Light,2022-09-05 04:51:00+00:00,2022-09-05 05:51:00+00:00,0.0,US/Eastern,KNYC,40.779,-73.9692,New York,New York,NY,10024.0
W-1059244,Rain,Light,2022-09-05 23:41:00+00:00,2022-09-05 23:58:00+00:00,0.06,US/Eastern,KNYC,40.779,-73.9692,New York,New York,NY,10024.0
W-1059245,Rain,Light,2022-09-06 03:51:00+00:00,2022-09-06 09:51:00+00:00,0.03,US/Eastern,KNYC,40.779,-73.9692,New York,New York,NY,10024.0
W-1059246,Rain,Light,2022-09-06 10:51:00+00:00,2022-09-06 16:23:00+00:00,0.47,US/Eastern,KNYC,40.779,-73.9692,New York,New York,NY,10024.0
W-1059247,Rain,Moderate,2022-09-06 16:23:00+00:00,2022-09-06 16:57:00+00:00,0.53,US/Eastern,KNYC,40.779,-73.9692,New York,New York,NY,10024.0
W-1059248,Rain,Light,2022-09-06 16:57:00+00:00,2022-09-06 21:06:00+00:00,0.2,US/Eastern,KNYC,40.779,-73.9692,New York,New York,NY,10024.0
W-1059249,Rain,Light,2022-09-06 21:39:00+00:00,2022-09-07 00:00:00+00:00,0.38,US/Eastern,KNYC,40.779,-73.9692,New York,New York,NY,10024.0
W-1059250,Fog,Severe,2022-09-07 00:00:00+00:00,2022-09-07 00:37:00+00:00,0.0,US/Eastern,KNYC,40.779,-73.9692,New York,New York,NY,10024.0
W-1059251,Rain,Light,2022-09-07 00:46:00+00:00,2022-09-07 00:58:00+00:00,0.0,US/Eastern,KNYC,40.779,-73.9692,New York,New York,NY,10024.0
W-1059252,Fog,Severe,2022-09-07 00:58:00+00:00,2022-09-07 01:22:00+00:00,0.0,US/Eastern,KNYC,40.779,-73.9692,New York,New York,NY,10024.0
W-1059253,Rain,Light,2022-09-07 01:22:00+00:00,2022-09-07 01:51:00+00:00,0.0,US/Eastern,KNYC,40.779,-73.9692,New York,New York,NY,10024.0
W-1059254,Rain,Light,2022-09-07 02:11:00+00:00,2022-09-07 03:13:00+00:00,0.09,US/Eastern,KNYC,40.779,-73.9692,New York,New York,NY,10024.0
W-1059255,Rain,Light,2022-09-07 05:14:00+00:00,2022-09-07 05:51:00+00:00,0.0,US/Eastern,KNYC,40.779,-73.9692,New York,New York,NY,10024.0
W-1059256,Rain,Light,2022-09-11 16:51:00+00:00,2022-09-11 20:51:00+00:00,0.08,US/Eastern,KNYC,40.779,-73.9692,New York,New York,NY,10024.0
W-1059257,Rain,Light,2022-09-11 21:51:00+00:00,2022-09-11 23:13:00+00:00,0.01,US/Eastern,KNYC,40.779,-73.9692,New York,New York,NY,10024.0
W-1059258,Rain,Light,2022-09-11 23:51:00+00:00,2022-09-12 00:41:00+00:00,0.02,US/Eastern,KNYC,40.779,-73.9692,New York,New York,NY,10024.0
W-1059259,Rain,Light,2022-09-12 01:12:00+00:00,2022-09-12 06:51:00+00:00,0.4,US/Eastern,KNYC,40.779,-73.9692,New York,New York,NY,10024.0
W-1059260,Rain,Moderate,2022-09-12 06:51:00+00:00,2022-09-12 07:38:00+00:00,0.42,US/Eastern,KNYC,40.779,-73.9692,New York,New York,NY,10024.0
W-1059261,Rain,Light,2022-09-12 08:31:00+00:00,2022-09-12 08:51:00+00:00,0.0,US/Eastern,KNYC,40.779,-73.9692,New York,New York,NY,10024.0
W-1059262,Fog,Severe,2022-09-12 08:51:00+00:00,2022-09-12 08:59:00+00:00,0.0,US/Eastern,KNYC,40.779,-73.9692,New York,New York,NY,10024.0
W-1059263,Rain,Light,2022-09-12 08:59:00+00:00,2022-09-12 09:11:00+00:00,0.01,US/Eastern,KNYC,40.779,-73.9692,New York,New York,NY,10024.0
W-1059264,Fog,Severe,2022-09-12 09:34:00+00:00,2022-09-12 09:51:00+00:00,0.0,US/Eastern,KNYC,40.779,-73.9692,New York,New York,NY,10024.0
W-1059265,Rain,Light,2022-09-13 03:51:00+00:00,2022-09-13 05:29:00+00:00,0.07,US/Eastern,KNYC,40.779,-73.9692,New York,New York,NY,10024.0
W-1059266,Rain,Moderate,2022-09-13 05:29:00+00:00,2022-09-13 05:41:00+00:00,0.24,US/Eastern,KNYC,40.779,-73.9692,New York,New York,NY,10024.0
W-1059267,Rain,Heavy,2022-09-13 05:41:00+00:00,2022-09-13 05:51:00+00:00,0.51,US/Eastern,KNYC,40.779,-73.9692,New York,New York,NY,10024.0
W-1059268,Fog,Severe,2022-09-13 05:51:00+00:00,2022-09-13 05:58:00+00:00,0.0,US/Eastern,KNYC,40.779,-73.9692,New York,New York,NY,10024.0
W-1059269,Rain,Light,2022-09-13 05:58:00+00:00,2022-09-13 06:07:00+00:00,0.01,US/Eastern,KNYC,40.779,-73.9692,New York,New York,NY,10024.0
W-1059270,Rain,Light,2022-09-13 06:23:00+00:00,2022-09-13 06:29:00+00:00,0.02,US/Eastern,KNYC,40.779,-73.9692,New York,New York,NY,10024.0
W-1059271,Rain,Moderate,2022-09-13 06:29:00+00:00,2022-09-13 06:51:00+00:00,0.41,US/Eastern,KNYC,40.779,-73.9692,New York,New York,NY,10024.0
W-1059272,Fog,Severe,2022-09-13 07:11:00+00:00,2022-09-13 07:34:00+00:00,0.0,US/Eastern,KNYC,40.779,-73.9692,New York,New York,NY,10024.0
W-1059273,Rain,Light,2022-09-13 07:34:00+00:00,2022-09-13 07:51:00+00:00,0.07,US/Eastern,KNYC,40.779,-73.9692,New York,New York,NY,10024.0
W-1059274,Rain,Moderate,2022-09-13 07:51:00+00:00,2022-09-13 08:13:00+00:00,0.11,US/Eastern,KNYC,40.779,-73.9692,New York,New York,NY,10024.0
W-1059275,Rain,Light,2022-09-13 08:13:00+00:00,2022-09-13 08:43:00+00:00,0.1,US/Eastern,KNYC,40.779,-73.9692,New York,New York,NY,10024.0
W-1059276,Fog,Severe,2022-09-13 08:43:00+00:00,2022-09-13 08:51:00+00:00,0.0,US/Eastern,KNYC,40.779,-73.9692,New York,New York,NY,10024.0
W-1059277,Rain,Light,2022-09-13 08:51:00+00:00,2022-09-13 09:07:00+00:00,0.05,US/Eastern,KNYC,40.779,-73.9692,New York,New York,NY,10024.0
W-1059278,Fog,Severe,2022-09-13 09:14:00+00:00,2022-09-13 09:32:00+00:00,0.0,US/Eastern,KNYC,40.779,-73.9692,New York,New York,NY,10024.0
W-1059279,Rain,Light,2022-09-13 09:32:00+00:00,2022-09-13 10:36:00+00:00,0.19,US/Eastern,KNYC,40.779,-73.9692,New York,New York,NY,10024.0
W-1059280,Fog,Severe,2022-09-13 10:36:00+00:00,2022-09-13 10:51:00+00:00,0.0,US/Eastern,KNYC,40.779,-73.9692,New York,New York,NY,10024.0
W-1059281,Fog,Severe,2022-09-13 11:18:00+00:00,2022-09-13 11:40:00+00:00,0.0,US/Eastern,KNYC,40.779,-73.9692,New York,New York,NY,10024.0
W-1059282,Rain,Light,2022-09-13 11:40:00+00:00,2022-09-13 11:48:00+00:00,0.0,US/Eastern,KNYC,40.779,-73.9692,New York,New York,NY,10024.0
W-1059283,Rain,Light,2022-09-19 22:22:00+00:00,2022-09-19 22:43:00+00:00,0.09,US/Eastern,KNYC,40.779,-73.9692,New York,New York,NY,10024.0
W-1059284,Rain,Moderate,2022-09-19 22:43:00+00:00,2022-09-19 23:51:00+00:00,0.25,US/Eastern,KNYC,40.779,-73.9692,New York,New York,NY,10024.0
W-1059285,Rain,Light,2022-09-22 12:35:00+00:00,2022-09-22 13:43:00+00:00,0.07,US/Eastern,KNYC,40.779,-73.9692,New York,New York,NY,10024.0
W-1059286,Rain,Light,2022-09-22 16:21:00+00:00,2022-09-22 16:31:00+00:00,0.07,US/Eastern,KNYC,40.779,-73.9692,New York,New York,NY,10024.0
W-1059287,Rain,Moderate,2022-09-22 16:31:00+00:00,2022-09-22 16:51:00+00:00,0.72,US/Eastern,KNYC,40.779,-73.9692,New York,New York,NY,10024.0
W-1059288,Precipitation,UNK,2022-09-22 16:51:00+00:00,2022-09-22 17:03:00+00:00,0.24,US/Eastern,KNYC,40.779,-73.9692,New York,New York,NY,10024.0
W-1059289,Rain,Light,2022-09-22 17:03:00+00:00,2022-09-22 17:20:00+00:00,0.02,US/Eastern,KNYC,40.779,-73.9692,New York,New York,NY,10024.0
W-1059290,Rain,Moderate,2022-09-22 17:20:00+00:00,2022-09-22 17:51:00+00:00,0.27,US/Eastern,KNYC,40.779,-73.9692,New York,New York,NY,10024.0
W-1059291,Rain,Light,2022-09-22 18:27:00+00:00,2022-09-22 20:51:00+00:00,0.02,US/Eastern,KNYC,40.779,-73.9692,New York,New York,NY,10024.0
W-1059292,Rain,Light,2022-09-26 02:28:00+00:00,2022-09-26 02:51:00+00:00,0.04,US/Eastern,KNYC,40.779,-73.9692,New York,New York,NY,10024.0
W-1059293,Rain,Heavy,2022-09-26 02:51:00+00:00,2022-09-26 03:06:00+00:00,0.45,US/Eastern,KNYC,40.779,-73.9692,New York,New York,NY,10024.0
W-1059294,Rain,Moderate,2022-09-26 03:06:00+00:00,2022-09-26 03:32:00+00:00,0.45,US/Eastern,KNYC,40.779,-73.9692,New York,New York,NY,10024.0
W-1059295,Rain,Heavy,2022-09-26 03:32:00+00:00,2022-09-26 04:51:00+00:00,2.49,US/Eastern,KNYC,40.779,-73.9692,New York,New York,NY,10024.0
W-1059296,Rain,Light,2022-10-01 06:51:00+00:00,2022-10-01 08:51:00+00:00,0.02,US/Eastern,KNYC,40.779,-73.9692,New York,New York,NY,10024.0
W-1059297,Rain,Light,2022-10-01 09:51:00+00:00,2022-10-01 11:41:00+00:00,0.11,US/Eastern,KNYC,40.779,-73.9692,New York,New York,NY,10024.0
W-1059298,Rain,Moderate,2022-10-01 11:41:00+00:00,2022-10-01 12:51:00+00:00,0.35,US/Eastern,KNYC,40.779,-73.9692,New York,New York,NY,10024.0
W-1059299,Rain,Light,2022-10-01 12:51:00+00:00,2022-10-01 14:17:00+00:00,0.09,US/Eastern,KNYC,40.779,-73.9692,New York,New York,NY,10024.0
W-1059300,Rain,Light,2022-10-01 15:51:00+00:00,2022-10-01 16:30:00+00:00,0.07,US/Eastern,KNYC,40.779,-73.9692,New York,New York,NY,10024.0
W-1059301,Rain,Moderate,2022-10-01 16:30:00+00:00,2022-10-01 16:57:00+00:00,0.81,US/Eastern,KNYC,40.779,-73.9692,New York,New York,NY,10024.0
W-1059302,Rain,Light,2022-10-01 16:57:00+00:00,2022-10-01 17:51:00+00:00,0.0,US/Eastern,KNYC,40.779,-73.9692,New York,New York,NY,10024.0
W-1059303,Rain,Light,2022-10-01 22:51:00+00:00,2022-10-02 00:33:00+00:00,0.01,US/Eastern,KNYC,40.779,-73.9692,New York,New York,NY,10024.0
W-1059304,Rain,Light,2022-10-02 17:51:00+00:00,2022-10-02 18:22:00+00:00,0.0,US/Eastern,KNYC,40.779,-73.9692,New York,New York,NY,10024.0
W-1059305,Rain,Light,2022-10-02 19:51:00+00:00,2022-10-02 22:51:00+00:00,0.0,US/Eastern,KNYC,40.779,-73.9692,New York,New York,NY,10024.0
W-1059306,Rain,Light,2022-10-03 01:51:00+00:00,2022-10-03 02:51:00+00:00,0.0,US/Eastern,KNYC,40.779,-73.9692,New York,New York,NY,10024.0
W-1059307,Rain,Light,2022-10-03 03:51:00+00:00,2022-10-03 04:51:00+00:00,0.0,US/Eastern,KNYC,40.779,-73.9692,New York,New York,NY,10024.0
W-1059308,Rain,Light,2022-10-03 05:51:00+00:00,2022-10-03 06:51:00+00:00,0.0,US/Eastern,KNYC,40.779,-73.9692,New York,New York,NY,10024.0
W-1059309,Rain,Light,2022-10-03 08:51:00+00:00,2022-10-03 10:51:00+00:00,0.01,US/Eastern,KNYC,40.779,-73.9692,New York,New York,NY,10024.0
W-1059310,Rain,Light,2022-10-03 17:51:00+00:00,2022-10-03 18:51:00+00:00,0.01,US/Eastern,KNYC,40.779,-73.9692,New York,New York,NY,10024.0
W-1059311,Rain,Light,2022-10-03 19:51:00+00:00,2022-10-03 23:51:00+00:00,0.12,US/Eastern,KNYC,40.779,-73.9692,New York,New York,NY,10024.0
W-1059312,Rain,Moderate,2022-10-03 23:51:00+00:00,2022-10-04 00:51:00+00:00,0.11,US/Eastern,KNYC,40.779,-73.9692,New York,New York,NY,10024.0
W-1059313,Rain,Light,2022-10-04 00:51:00+00:00,2022-10-04 07:51:00+00:00,0.32,US/Eastern,KNYC,40.779,-73.9692,New York,New York,NY,10024.0
W-1059314,Rain,Heavy,2022-10-04 07:51:00+00:00,2022-10-04 08:13:00+00:00,0.39,US/Eastern,KNYC,40.779,-73.9692,New York,New York,NY,10024.0
W-1059315,Rain,Moderate,2022-10-04 08:13:00+00:00,2022-10-04 08:30:00+00:00,0.25,US/Eastern,KNYC,40.779,-73.9692,New York,New York,NY,10024.0
W-1059316,Rain,Heavy,2022-10-04 08:30:00+00:00,2022-10-04 09:30:00+00:00,1.9,US/Eastern,KNYC,40.779,-73.9692,New York,New York,NY,10024.0
W-1059317,Rain,Light,2022-10-04 09:30:00+00:00,2022-10-04 09:41:00+00:00,0.06,US/Eastern,KNYC,40.779,-73.9692,New York,New York,NY,10024.0
W-1059318,Rain,Moderate,2022-10-04 09:41:00+00:00,2022-10-04 10:27:00+00:00,0.38,US/Eastern,KNYC,40.779,-73.9692,New York,New York,NY,10024.0
W-1059319,Rain,Light,2022-10-04 10:27:00+00:00,2022-10-04 10:51:00+00:00,0.08,US/Eastern,KNYC,40.779,-73.9692,New York,New York,NY,10024.0
W-1059320,Rain,Moderate,2022-10-04 10:51:00+00:00,2022-10-04 11:35:00+00:00,0.14,US/Eastern,KNYC,40.779,-73.9692,New York,New York,NY,10024.0
W-1059321,Rain,Light,2022-10-04 11:35:00+00:00,2022-10-04 11:51:00+00:00,0.07,US/Eastern,KNYC,40.779,-73.9692,New York,New York,NY,10024.0
W-1059322,Rain,Moderate,2022-10-04 11:51:00+00:00,2022-10-04 12:28:00+00:00,0.1,US/Eastern,KNYC,40.779,-73.9692,New York,New York,NY,10024.0
W-1059323,Rain,Light,2022-10-04 12:28:00+00:00,2022-10-04 15:51:00+00:00,0.33,US/Eastern,KNYC,40.779,-73.9692,New York,New York,NY,10024.0
W-1059324,Rain,Light,2022-10-04 16:51:00+00:00,2022-10-04 21:51:00+00:00,0.19,US/Eastern,KNYC,40.779,-73.9692,New York,New York,NY,10024.0
W-1059325,Rain,Light,2022-10-05 03:51:00+00:00,2022-10-05 04:37:00+00:00,0.02,US/Eastern,KNYC,40.779,-73.9692,New York,New York,NY,10024.0
W-1059326,Rain,Light,2022-10-05 05:32:00+00:00,2022-10-05 05:51:00+00:00,0.19,US/Eastern,KNYC,40.779,-73.9692,New York,New York,NY,10024.0
W-1059327,Rain,Moderate,2022-10-05 05:51:00+00:00,2022-10-05 06:51:00+00:00,0.1,US/Eastern,KNYC,40.779,-73.9692,New York,New York,NY,10024.0
W-1059328,Rain,Light,2022-10-05 09:51:00+00:00,2022-10-05 10:34:00+00:00,0.02,US/Eastern,KNYC,40.779,-73.9692,New York,New York,NY,10024.0
W-1059329,Rain,Moderate,2022-10-05 10:34:00+00:00,2022-10-05 11:01:00+00:00,0.31,US/Eastern,KNYC,40.779,-73.9692,New York,New York,NY,10024.0
W-1059330,Rain,Light,2022-10-05 11:01:00+00:00,2022-10-05 11:51:00+00:00,0.0,US/Eastern,KNYC,40.779,-73.9692,New York,New York,NY,10024.0
W-1059331,Rain,Light,2022-10-05 13:27:00+00:00,2022-10-05 15:51:00+00:00,0.05,US/Eastern,KNYC,40.779,-73.9692,New York,New York,NY,10024.0
W-1059332,Rain,Light,2022-10-05 21:51:00+00:00,2022-10-05 23:44:00+00:00,0.08,US/Eastern,KNYC,40.779,-73.9692,New York,New York,NY,10024.0
W-1059333,Rain,Light,2022-10-13 18:51:00+00:00,2022-10-13 19:51:00+00:00,0.02,US/Eastern,KNYC,40.779,-73.9692,New York,New York,NY,10024.0
W-1059334,Rain,Light,2022-10-13 21:51:00+00:00,2022-10-13 23:27:00+00:00,0.42,US/Eastern,KNYC,40.779,-73.9692,New York,New York,NY,10024.0
W-1059335,Rain,Moderate,2022-10-13 23:27:00+00:00,2022-10-14 00:08:00+00:00,0.23,US/Eastern,KNYC,40.779,-73.9692,New York,New York,NY,10024.0
W-1059336,Rain,Light,2022-10-14 00:08:00+00:00,2022-10-14 03:42:00+00:00,0.32,US/Eastern,KNYC,40.779,-73.9692,New York,New York,NY,10024.0
W-1059337,Rain,Moderate,2022-10-14 03:42:00+00:00,2022-10-14 03:57:00+00:00,0.45,US/Eastern,KNYC,40.779,-73.9692,New York,New York,NY,10024.0
W-1059338,Rain,Light,2022-10-14 03:57:00+00:00,2022-10-14 05:51:00+00:00,0.31,US/Eastern,KNYC,40.779,-73.9692,New York,New York,NY,10024.0
W-1059339,Rain,Moderate,2022-10-14 05:51:00+00:00,2022-10-14 06:21:00+00:00,0.1,US/Eastern,KNYC,40.779,-73.9692,New York,New York,NY,10024.0
W-1059340,Rain,Light,2022-10-14 06:21:00+00:00,2022-10-14 06:51:00+00:00,0.16,US/Eastern,KNYC,40.779,-73.9692,New York,New York,NY,10024.0
W-1059341,Rain,Moderate,2022-10-14 06:51:00+00:00,2022-10-14 07:03:00+00:00,0.11,US/Eastern,KNYC,40.779,-73.9692,New York,New York,NY,10024.0
W-1059342,Rain,Light,2022-10-14 07:03:00+00:00,2022-10-14 09:51:00+00:00,0.28,US/Eastern,KNYC,40.779,-73.9692,New York,New York,NY,10024.0
W-1059343,Fog,Severe,2022-10-14 17:42:00+00:00,2022-10-14 17:51:00+00:00,0.0,US/Eastern,KNYC,40.779,-73.9692,New York,New York,NY,10024.0
W-1059344,Rain,Light,2022-10-18 00:51:00+00:00,2022-10-18 03:51:00+00:00,0.19,US/Eastern,KNYC,40.779,-73.9692,New York,New York,NY,10024.0
W-1059345,Rain,Light,2022-10-23 17:51:00+00:00,2022-10-23 19:51:00+00:00,0.01,US/Eastern,KNYC,40.779,-73.9692,New York,New York,NY,10024.0
W-1059346,Rain,Light,2022-10-23 22:51:00+00:00,2022-10-24 00:20:00+00:00,0.01,US/Eastern,KNYC,40.779,-73.9692,New York,New York,NY,10024.0
W-1059347,Rain,Light,2022-10-24 06:09:00+00:00,2022-10-24 06:51:00+00:00,0.0,US/Eastern,KNYC,40.779,-73.9692,New York,New York,NY,10024.0
W-1059348,Rain,Light,2022-10-24 10:51:00+00:00,2022-10-24 11:12:00+00:00,0.02,US/Eastern,KNYC,40.779,-73.9692,New York,New York,NY,10024.0
W-1059349,Rain,Moderate,2022-10-24 11:12:00+00:00,2022-10-24 12:19:00+00:00,0.26,US/Eastern,KNYC,40.779,-73.9692,New York,New York,NY,10024.0
W-1059350,Fog,Severe,2022-10-24 12:19:00+00:00,2022-10-24 12:59:00+00:00,0.0,US/Eastern,KNYC,40.779,-73.9692,New York,New York,NY,10024.0
W-1059351,Rain,Light,2022-10-24 12:59:00+00:00,2022-10-24 13:33:00+00:00,0.0,US/Eastern,KNYC,40.779,-73.9692,New York,New York,NY,10024.0
W-1059352,Fog,Severe,2022-10-24 14:11:00+00:00,2022-10-24 14:29:00+00:00,0.0,US/Eastern,KNYC,40.779,-73.9692,New York,New York,NY,10024.0
W-1059353,Fog,Severe,2022-10-24 15:00:00+00:00,2022-10-24 15:09:00+00:00,0.0,US/Eastern,KNYC,40.779,-73.9692,New York,New York,NY,10024.0
W-1059354,Fog,Severe,2022-10-24 17:07:00+00:00,2022-10-24 17:21:00+00:00,0.0,US/Eastern,KNYC,40.779,-73.9692,New York,New York,NY,10024.0
W-1059355,Rain,Light,2022-10-24 17:21:00+00:00,2022-10-24 17:30:00+00:00,0.0,US/Eastern,KNYC,40.779,-73.9692,New York,New York,NY,10024.0
W-1059356,Fog,Severe,2022-10-24 18:10:00+00:00,2022-10-24 18:25:00+00:00,0.0,US/Eastern,KNYC,40.779,-73.9692,New York,New York,NY,10024.0
W-1059357,Fog,Severe,2022-10-24 20:31:00+00:00,2022-10-24 21:31:00+00:00,0.0,US/Eastern,KNYC,40.779,-73.9692,New York,New York,NY,10024.0
W-1059358,Rain,Light,2022-10-24 23:29:00+00:00,2022-10-24 23:51:00+00:00,0.02,US/Eastern,KNYC,40.779,-73.9692,New York,New York,NY,10024.0
W-1059359,Fog,Severe,2022-10-25 00:51:00+00:00,2022-10-25 01:22:00+00:00,0.0,US/Eastern,KNYC,40.779,-73.9692,New York,New York,NY,10024.0
W-1059360,Rain,Light,2022-10-25 01:22:00+00:00,2022-10-25 02:41:00+00:00,0.01,US/Eastern,KNYC,40.779,-73.9692,New York,New York,NY,10024.0
W-1059361,Rain,Moderate,2022-10-25 02:41:00+00:00,2022-10-25 02:58:00+00:00,0.41,US/Eastern,KNYC,40.779,-73.9692,New York,New York,NY,10024.0
W-1059362,Rain,Light,2022-10-25 02:58:00+00:00,2022-10-25 03:43:00+00:00,0.12,US/Eastern,KNYC,40.779,-73.9692,New York,New York,NY,10024.0
W-1059363,Rain,Light,2022-10-25 03:51:00+00:00,2022-10-25 04:36:00+00:00,0.31,US/Eastern,KNYC,40.779,-73.9692,New York,New York,NY,10024.0
W-1059364,Rain,Moderate,2022-10-25 04:36:00+00:00,2022-10-25 05:06:00+00:00,0.45,US/Eastern,KNYC,40.779,-73.9692,New York,New York,NY,10024.0
W-1059365,Rain,Light,2022-10-25 05:51:00+00:00,2022-10-25 06:30:00+00:00,0.0,US/Eastern,KNYC,40.779,-73.9692,New York,New York,NY,10024.0
W-1059366,Fog,Severe,2022-10-25 06:30:00+00:00,2022-10-25 18:02:00+00:00,0.0,US/Eastern,KNYC,40.779,-73.9692,New York,New York,NY,10024.0
W-1059367,Fog,Severe,2022-10-26 02:39:00+00:00,2022-10-26 05:16:00+00:00,0.0,US/Eastern,KNYC,40.779,-73.9692,New York,New York,NY,10024.0
W-1059368,Fog,Severe,2022-10-26 05:59:00+00:00,2022-10-26 06:05:00+00:00,0.0,US/Eastern,KNYC,40.779,-73.9692,New York,New York,NY,10024.0
W-1059369,Fog,Severe,2022-10-26 06:19:00+00:00,2022-10-26 07:02:00+00:00,0.0,US/Eastern,KNYC,40.779,-73.9692,New York,New York,NY,10024.0
W-1059370,Fog,Severe,2022-10-26 07:10:00+00:00,2022-10-26 11:40:00+00:00,0.0,US/Eastern,KNYC,40.779,-73.9692,New York,New York,NY,10024.0
W-1059371,Fog,Severe,2022-10-26 12:00:00+00:00,2022-10-26 12:09:00+00:00,0.0,US/Eastern,KNYC,40.779,-73.9692,New York,New York,NY,10024.0
W-1059372,Fog,Moderate,2022-10-26 17:51:00+00:00,2022-10-26 18:05:00+00:00,0.0,US/Eastern,KNYC,40.779,-73.9692,New York,New York,NY,10024.0
W-1059373,Fog,Moderate,2022-10-26 18:51:00+00:00,2022-10-26 19:51:00+00:00,0.0,US/Eastern,KNYC,40.779,-73.9692,New York,New York,NY,10024.0
W-1059374,Rain,Light,2022-11-01 01:51:00+00:00,2022-11-01 02:51:00+00:00,0.01,US/Eastern,KNYC,40.779,-73.9692,New York,New York,NY,10024.0
W-1059375,Rain,Light,2022-11-01 04:26:00+00:00,2022-11-01 07:51:00+00:00,0.23,US/Eastern,KNYC,40.779,-73.9692,New York,New York,NY,10024.0
W-1059376,Rain,Light,2022-11-01 08:32:00+00:00,2022-11-01 09:25:00+00:00,0.1,US/Eastern,KNYC,40.779,-73.9692,New York,New York,NY,10024.0
W-1059377,Fog,Severe,2022-11-01 09:25:00+00:00,2022-11-01 09:34:00+00:00,0.0,US/Eastern,KNYC,40.779,-73.9692,New York,New York,NY,10024.0
W-1059378,Rain,Light,2022-11-01 09:51:00+00:00,2022-11-01 10:35:00+00:00,0.02,US/Eastern,KNYC,40.779,-73.9692,New York,New York,NY,10024.0
W-1059379,Fog,Severe,2022-11-01 10:35:00+00:00,2022-11-01 10:48:00+00:00,0.0,US/Eastern,KNYC,40.779,-73.9692,New York,New York,NY,10024.0
W-1059380,Fog,Severe,2022-11-01 10:59:00+00:00,2022-11-01 11:06:00+00:00,0.0,US/Eastern,KNYC,40.779,-73.9692,New York,New York,NY,10024.0
W-1059381,Fog,Severe,2022-11-01 11:32:00+00:00,2022-11-01 11:51:00+00:00,0.0,US/Eastern,KNYC,40.779,-73.9692,New York,New York,NY,10024.0
W-1059382,Fog,Severe,2022-11-01 13:22:00+00:00,2022-11-01 13:32:00+00:00,0.0,US/Eastern,KNYC,40.779,-73.9692,New York,New York,NY,10024.0
W-1059383,Fog,Severe,2022-11-04 13:44:00+00:00,2022-11-04 14:14:00+00:00,0.0,US/Eastern,KNYC,40.779,-73.9692,New York,New York,NY,10024.0
W-1059384,Fog,Moderate,2022-11-04 15:51:00+00:00,2022-11-04 17:51:00+00:00,0.0,US/Eastern,KNYC,40.779,-73.9692,New York,New York,NY,10024.0
W-1059385,Rain,Light,2022-11-11 15:51:00+00:00,2022-11-11 21:12:00+00:00,0.61,US/Eastern,KNYC,40.779,-73.9692,New York,New York,NY,10024.0
W-1059386,Rain,Moderate,2022-11-11 21:12:00+00:00,2022-11-11 21:51:00+00:00,0.26,US/Eastern,KNYC,40.779,-73.9692,New York,New York,NY,10024.0
W-1059387,Rain,Heavy,2022-11-11 21:51:00+00:00,2022-11-11 22:04:00+00:00,0.39,US/Eastern,KNYC,40.779,-73.9692,New York,New York,NY,10024.0
W-1059388,Rain,Moderate,2022-11-11 22:04:00+00:00,2022-11-11 23:51:00+00:00,0.8,US/Eastern,KNYC,40.779,-73.9692,New York,New York,NY,10024.0
W-1059389,Rain,Light,2022-11-12 00:51:00+00:00,2022-11-12 01:51:00+00:00,0.01,US/Eastern,KNYC,40.779,-73.9692,New York,New York,NY,10024.0
W-1059390,Fog,Severe,2022-11-12 02:13:00+00:00,2022-11-12 02:40:00+00:00,0.0,US/Eastern,KNYC,40.779,-73.9692,New York,New York,NY,10024.0
W-1059391,Rain,Light,2022-11-12 08:03:00+00:00,2022-11-12 08:51:00+00:00,0.0,US/Eastern,KNYC,40.779,-73.9692,New York,New York,NY,10024.0
W-1059392,Rain,Light,2022-11-12 09:35:00+00:00,2022-11-12 10:43:00+00:00,0.1,US/Eastern,KNYC,40.779,-73.9692,New York,New York,NY,10024.0
W-1059393,Rain,Light,2022-11-12 11:51:00+00:00,2022-11-12 12:51:00+00:00,0.03,US/Eastern,KNYC,40.779,-73.9692,New York,New York,NY,10024.0
W-1059394,Rain,Light,2022-11-13 00:51:00+00:00,2022-11-13 01:51:00+00:00,0.0,US/Eastern,KNYC,40.779,-73.9692,New York,New York,NY,10024.0
W-1059395,Rain,Light,2022-11-13 04:51:00+00:00,2022-11-13 06:51:00+00:00,0.0,US/Eastern,KNYC,40.779,-73.9692,New York,New York,NY,10024.0
W-1059396,Rain,Light,2022-11-13 07:51:00+00:00,2022-11-13 09:51:00+00:00,0.0,US/Eastern,KNYC,40.779,-73.9692,New York,New York,NY,10024.0
W-1059397,Rain,Light,2022-11-13 10:42:00+00:00,2022-11-13 12:51:00+00:00,0.03,US/Eastern,KNYC,40.779,-73.9692,New York,New York,NY,10024.0
W-1059398,Rain,Light,2022-11-13 13:18:00+00:00,2022-11-13 13:28:00+00:00,0.02,US/Eastern,KNYC,40.779,-73.9692,New York,New York,NY,10024.0
W-1059399,Rain,Light,2022-11-15 23:51:00+00:00,2022-11-16 00:51:00+00:00,0.03,US/Eastern,KNYC,40.779,-73.9692,New York,New York,NY,10024.0
W-1059400,Rain,Moderate,2022-11-16 00:51:00+00:00,2022-11-16 03:14:00+00:00,0.34,US/Eastern,KNYC,40.779,-73.9692,New York,New York,NY,10024.0
W-1059401,Rain,Light,2022-11-16 03:14:00+00:00,2022-11-16 04:44:00+00:00,0.14,US/Eastern,KNYC,40.779,-73.9692,New York,New York,NY,10024.0
W-1059402,Rain,Moderate,2022-11-16 04:44:00+00:00,2022-11-16 05:19:00+00:00,0.23,US/Eastern,KNYC,40.779,-73.9692,New York,New York,NY,10024.0
W-1059403,Rain,Light,2022-11-16 05:19:00+00:00,2022-11-16 05:40:00+00:00,0.07,US/Eastern,KNYC,40.779,-73.9692,New York,New York,NY,10024.0
W-1059404,Rain,Moderate,2022-11-16 05:40:00+00:00,2022-11-16 06:51:00+00:00,0.23,US/Eastern,KNYC,40.779,-73.9692,New York,New York,NY,10024.0
W-1059405,Rain,Light,2022-11-16 06:51:00+00:00,2022-11-16 12:49:00+00:00,0.35,US/Eastern,KNYC,40.779,-73.9692,New York,New York,NY,10024.0
W-1059406,Rain,Light,2022-11-25 11:51:00+00:00,2022-11-25 13:51:00+00:00,0.01,US/Eastern,KNYC,40.779,-73.9692,New York,New York,NY,10024.0
W-1059407,Rain,Light,2022-11-25 16:03:00+00:00,2022-11-25 16:51:00+00:00,0.0,US/Eastern,KNYC,40.779,-73.9692,New York,New York,NY,10024.0
W-1059408,Fog,Moderate,2022-11-25 17:08:00+00:00,2022-11-25 18:51:00+00:00,0.0,US/Eastern,KNYC,40.779,-73.9692,New York,New York,NY,10024.0
W-1059409,Rain,Light,2022-11-27 17:35:00+00:00,2022-11-27 19:21:00+00:00,0.09,US/Eastern,KNYC,40.779,-73.9692,New York,New York,NY,10024.0
W-1059410,Rain,Moderate,2022-11-27 19:21:00+00:00,2022-11-27 21:06:00+00:00,1.51,US/Eastern,KNYC,40.779,-73.9692,New York,New York,NY,10024.0
W-1059411,Rain,Light,2022-11-27 21:06:00+00:00,2022-11-27 21:51:00+00:00,0.0,US/Eastern,KNYC,40.779,-73.9692,New York,New York,NY,10024.0
W-1059412,Rain,Light,2022-11-27 23:13:00+00:00,2022-11-28 00:59:00+00:00,0.12,US/Eastern,KNYC,40.779,-73.9692,New York,New York,NY,10024.0
W-1059413,Rain,Moderate,2022-11-28 00:59:00+00:00,2022-11-28 01:22:00+00:00,0.53,US/Eastern,KNYC,40.779,-73.9692,New York,New York,NY,10024.0
W-1059414,Precipitation,UNK,2022-11-28 01:22:00+00:00,2022-11-28 02:09:00+00:00,0.38,US/Eastern,KNYC,40.779,-73.9692,New York,New York,NY,10024.0
W-1059415,Rain,Light,2022-11-28 12:18:00+00:00,2022-11-28 12:46:00+00:00,0.0,US/Eastern,KNYC,40.779,-73.9692,New York,New York,NY,10024.0
W-1059416,Rain,Light,2022-11-30 14:03:00+00:00,2022-11-30 14:36:00+00:00,0.0,US/Eastern,KNYC,40.779,-73.9692,New York,New York,NY,10024.0
W-1059417,Rain,Light,2022-11-30 14:51:00+00:00,2022-11-30 15:05:00+00:00,0.0,US/Eastern,KNYC,40.779,-73.9692,New York,New York,NY,10024.0
W-1059418,Rain,Light,2022-11-30 15:51:00+00:00,2022-11-30 16:51:00+00:00,0.19,US/Eastern,KNYC,40.779,-73.9692,New York,New York,NY,10024.0
W-1059419,Rain,Moderate,2022-11-30 16:51:00+00:00,2022-11-30 17:14:00+00:00,0.1,US/Eastern,KNYC,40.779,-73.9692,New York,New York,NY,10024.0
W-1059420,Rain,Light,2022-11-30 17:14:00+00:00,2022-11-30 18:51:00+00:00,0.21,US/Eastern,KNYC,40.779,-73.9692,New York,New York,NY,10024.0
W-1059421,Rain,Moderate,2022-11-30 18:51:00+00:00,2022-11-30 19:51:00+00:00,0.13,US/Eastern,KNYC,40.779,-73.9692,New York,New York,NY,10024.0
W-1059422,Rain,Light,2022-11-30 19:51:00+00:00,2022-11-30 21:51:00+00:00,0.31,US/Eastern,KNYC,40.779,-73.9692,New York,New York,NY,10024.0
W-1059423,Rain,Light,2022-11-30 22:51:00+00:00,2022-11-30 23:01:00+00:00,0.02,US/Eastern,KNYC,40.779,-73.9692,New York,New York,NY,10024.0
W-1059424,Rain,Light,2022-12-03 12:51:00+00:00,2022-12-03 16:51:00+00:00,0.6,US/Eastern,KNYC,40.779,-73.9692,New York,New York,NY,10024.0
W-1059425,Rain,Moderate,2022-12-03 16:51:00+00:00,2022-12-03 17:06:00+00:00,0.1,US/Eastern,KNYC,40.779,-73.9692,New York,New York,NY,10024.0
W-1059426,Rain,Light,2022-12-03 17:06:00+00:00,2022-12-03 17:51:00+00:00,0.17,US/Eastern,KNYC,40.779,-73.9692,New York,New York,NY,10024.0
W-1059427,Rain,Moderate,2022-12-03 17:51:00+00:00,2022-12-03 18:10:00+00:00,0.12,US/Eastern,KNYC,40.779,-73.9692,New York,New York,NY,10024.0
W-1059428,Rain,Light,2022-12-03 18:10:00+00:00,2022-12-03 19:51:00+00:00,0.05,US/Eastern,KNYC,40.779,-73.9692,New York,New York,NY,10024.0
W-1059429,Rain,Light,2022-12-03 22:19:00+00:00,2022-12-03 22:51:00+00:00,0.15,US/Eastern,KNYC,40.779,-73.9692,New York,New York,NY,10024.0
W-1059430,Rain,Light,2022-12-06 17:51:00+00:00,2022-12-06 23:25:00+00:00,0.23,US/Eastern,KNYC,40.779,-73.9692,New York,New York,NY,10024.0
W-1059431,Rain,Light,2022-12-06 23:51:00+00:00,2022-12-07 01:47:00+00:00,0.34,US/Eastern,KNYC,40.779,-73.9692,New York,New York,NY,10024.0
W-1059432,Rain,Moderate,2022-12-07 01:47:00+00:00,2022-12-07 02:08:00+00:00,0.26,US/Eastern,KNYC,40.779,-73.9692,New York,New York,NY,10024.0
W-1059433,Rain,Light,2022-12-07 02:08:00+00:00,2022-12-07 02:17:00+00:00,0.07,US/Eastern,KNYC,40.779,-73.9692,New York,New York,NY,10024.0
W-1059434,Rain,Moderate,2022-12-07 02:17:00+00:00,2022-12-07 02:58:00+00:00,0.96,US/Eastern,KNYC,40.779,-73.9692,New York,New York,NY,10024.0
W-1059435,Rain,Light,2022-12-07 02:58:00+00:00,2022-12-07 03:51:00+00:00,0.09,US/Eastern,KNYC,40.779,-73.9692,New York,New York,NY,10024.0
W-1059436,Rain,Moderate,2022-12-07 03:51:00+00:00,2022-12-07 05:21:00+00:00,0.51,US/Eastern,KNYC,40.779,-73.9692,New York,New York,NY,10024.0
W-1059437,Rain,Light,2022-12-07 05:21:00+00:00,2022-12-07 05:39:00+00:00,0.07,US/Eastern,KNYC,40.779,-73.9692,New York,New York,NY,10024.0
W-1059438,Rain,Moderate,2022-12-07 05:39:00+00:00,2022-12-07 07:51:00+00:00,0.61,US/Eastern,KNYC,40.779,-73.9692,New York,New York,NY,10024.0
W-1059439,Rain,Light,2022-12-07 10:27:00+00:00,2022-12-07 12:51:00+00:00,0.01,US/Eastern,KNYC,40.779,-73.9692,New York,New York,NY,10024.0
W-1059440,Fog,Severe,2022-12-07 12:51:00+00:00,2022-12-07 17:46:00+00:00,0.0,US/Eastern,KNYC,40.779,-73.9692,New York,New York,NY,10024.0
W-1059441,Rain,Light,2022-12-07 17:46:00+00:00,2022-12-07 17:51:00+00:00,0.0,US/Eastern,KNYC,40.779,-73.9692,New York,New York,NY,10024.0
W-1059442,Fog,Severe,2022-12-07 17:51:00+00:00,2022-12-07 18:46:00+00:00,0.0,US/Eastern,KNYC,40.779,-73.9692,New York,New York,NY,10024.0
W-1059443,Fog,Severe,2022-12-07 19:16:00+00:00,2022-12-07 19:43:00+00:00,0.0,US/Eastern,KNYC,40.779,-73.9692,New York,New York,NY,10024.0
W-1059444,Rain,Light,2022-12-11 04:51:00+00:00,2022-12-11 05:51:00+00:00,0.0,US/Eastern,KNYC,40.779,-73.9692,New York,New York,NY,10024.0
W-1059445,Rain,Light,2022-12-11 17:15:00+00:00,2022-12-11 23:29:00+00:00,0.11,US/Eastern,KNYC,40.779,-73.9692,New York,New York,NY,10024.0
W-1059446,Rain,Light,2022-12-11 23:51:00+00:00,2022-12-12 00:40:00+00:00,0.06,US/Eastern,KNYC,40.779,-73.9692,New York,New York,NY,10024.0
W-1059447,Snow,Moderate,2022-12-12 00:40:00+00:00,2022-12-12 00:51:00+00:00,0.05,US/Eastern,KNYC,40.779,-73.9692,New York,New York,NY,10024.0
W-1059448,Snow,Heavy,2022-12-12 00:51:00+00:00,2022-12-12 01:05:00+00:00,0.07,US/Eastern,KNYC,40.779,-73.9692,New York,New York,NY,10024.0
W-1059449,Snow,Light,2022-12-12 01:05:00+00:00,2022-12-12 01:51:00+00:00,0.02,US/Eastern,KNYC,40.779,-73.9692,New York,New York,NY,10024.0
W-1059450,Snow,Moderate,2022-12-12 01:51:00+00:00,2022-12-12 02:17:00+00:00,0.04,US/Eastern,KNYC,40.779,-73.9692,New York,New York,NY,10024.0
W-1059451,Snow,Light,2022-12-12 02:17:00+00:00,2022-12-12 03:51:00+00:00,0.04,US/Eastern,KNYC,40.779,-73.9692,New York,New York,NY,10024.0
W-1059452,Snow,Moderate,2022-12-12 03:51:00+00:00,2022-12-12 04:12:00+00:00,0.03,US/Eastern,KNYC,40.779,-73.9692,New York,New York,NY,10024.0
W-1059453,Snow,Light,2022-12-12 04:12:00+00:00,2022-12-12 07:00:00+00:00,0.05,US/Eastern,KNYC,40.779,-73.9692,New York,New York,NY,10024.0
W-1059454,Rain,Light,2022-12-15 19:51:00+00:00,2022-12-16 02:51:00+00:00,0.39,US/Eastern,KNYC,40.779,-73.9692,New York,New York,NY,10024.0
W-1059455,Rain,Moderate,2022-12-16 02:51:00+00:00,2022-12-16 03:51:00+00:00,0.1,US/Eastern,KNYC,40.779,-73.9692,New York,New York,NY,10024.0
W-1059456,Rain,Light,2022-12-16 03:51:00+00:00,2022-12-16 13:33:00+00:00,0.65,US/Eastern,KNYC,40.779,-73.9692,New York,New York,NY,10024.0
W-1059457,Rain,Moderate,2022-12-16 13:33:00+00:00,2022-12-16 14:38:00+00:00,0.22,US/Eastern,KNYC,40.779,-73.9692,New York,New York,NY,10024.0
W-1059458,Rain,Light,2022-12-16 14:38:00+00:00,2022-12-17 01:46:00+00:00,0.62,US/Eastern,KNYC,40.779,-73.9692,New York,New York,NY,10024.0
W-1059459,Rain,Light,2022-12-22 17:36:00+00:00,2022-12-22 19:28:00+00:00,0.05,US/Eastern,KNYC,40.779,-73.9692,New York,New York,NY,10024.0
W-1059460,Rain,Light,2022-12-22 19:51:00+00:00,2022-12-22 23:51:00+00:00,0.02,US/Eastern,KNYC,40.779,-73.9692,New York,New York,NY,10024.0
W-1059461,Rain,Light,2022-12-23 02:51:00+00:00,2022-12-23 03:51:00+00:00,0.1,US/Eastern,KNYC,40.779,-73.9692,New York,New York,NY,10024.0
W-1059462,Rain,Light,2022-12-23 04:23:00+00:00,2022-12-23 08:51:00+00:00,0.32,US/Eastern,KNYC,40.779,-73.9692,New York,New York,NY,10024.0
W-1059463,Rain,Moderate,2022-12-23 08:51:00+00:00,2022-12-23 09:00:00+00:00,0.13,US/Eastern,KNYC,40.779,-73.9692,New York,New York,NY,10024.0
W-1059464,Rain,Heavy,2022-12-23 09:00:00+00:00,2022-12-23 09:58:00+00:00,4.99,US/Eastern,KNYC,40.779,-73.9692,New York,New York,NY,10024.0
W-1059465,Rain,Light,2022-12-23 09:58:00+00:00,2022-12-23 10:23:00+00:00,0.07,US/Eastern,KNYC,40.779,-73.9692,New York,New York,NY,10024.0
W-1059466,Rain,Moderate,2022-12-23 10:23:00+00:00,2022-12-23 10:51:00+00:00,0.14,US/Eastern,KNYC,40.779,-73.9692,New York,New York,NY,10024.0
W-1059467,Rain,Light,2022-12-23 13:51:00+00:00,2022-12-23 14:22:00+00:00,0.0,US/Eastern,KNYC,40.779,-73.9692,New York,New York,NY,10024.0
W-1059468,Rain,Light,2022-12-23 14:34:00+00:00,2022-12-23 14:51:00+00:00,0.0,US/Eastern,KNYC,40.779,-73.9692,New York,New York,NY,10024.0
W-1059469,Rain,Light,2022-12-23 15:51:00+00:00,2022-12-23 18:51:00+00:00,0.14,US/Eastern,KNYC,40.779,-73.9692,New York,New York,NY,10024.0
W-1059470,Snow,Light,2022-12-23 18:51:00+00:00,2022-12-23 20:51:00+00:00,0.01,US/Eastern,KNYC,40.779,-73.9692,New York,New York,NY,10024.0
W-1059471,Fog,Severe,2022-12-28 19:27:00+00:00,2022-12-28 19:36:00+00:00,0.0,US/Eastern,KNYC,40.779,-73.9692,New York,New York,NY,10024.0
W-1059472,Rain,Light,2022-12-31 11:51:00+00:00,2022-12-31 12:38:00+00:00,0.0,US/Eastern,KNYC,40.779,-73.9692,New York,New York,NY,10024.0
W-1059473,Fog,Severe,2022-12-31 12:51:00+00:00,2022-12-31 14:06:00+00:00,0.0,US/Eastern,KNYC,40.779,-73.9692,New York,New York,NY,10024.0
W-1059474,Rain,Light,2022-12-31 16:05:00+00:00,2022-12-31 16:17:00+00:00,0.0,US/Eastern,KNYC,40.779,-73.9692,New York,New York,NY,10024.0
W-1059475,Fog,Severe,2022-12-31 16:17:00+00:00,2022-12-31 18:14:00+00:00,0.0,US/Eastern,KNYC,40.779,-73.9692,New York,New York,NY,10024.0
W-1059476,Rain,Light,2022-12-31 18:14:00+00:00,2022-12-31 21:35:00+00:00,0.07,US/Eastern,KNYC,40.779,-73.9692,New York,New York,NY,10024.0
W-1059477,Fog,Severe,2022-12-31 21:35:00+00:00,2022-12-31 22:28:00+00:00,0.0,US/Eastern,KNYC,40.779,-73.9692,New York,New York,NY,10024.0
W-1059478,Rain,Light,2022-12-31 22:38:00+00:00,2022-12-31 23:35:00+00:00,0.0,US/Eastern,KNYC,40.779,-73.9692,New York,New York,NY,10024.0
W-2030693,Fog,Moderate,2022-01-01 01:51:00+00:00,2022-01-01 02:51:00+00:00,0.0,US/Eastern,KJRB,40.7012,-74.009,New York,New York,NY,10004
W-2030694,Rain,Light,2022-01-01 08:51:00+00:00,2022-01-01 09:51:00+00:00,0.0,US/Eastern,KJRB,40.7012,-74.009,New York,New York,NY,10004
W-2030695,Rain,Light,2022-01-01 10:51:00+00:00,2022-01-01 19:51:00+00:00,0.25,US/Eastern,KJRB,40.7012,-74.009,New York,New York,NY,10004
W-2030696,Rain,Light,2022-01-01 21:51:00+00:00,2022-01-02 02:41:00+00:00,0.47,US/Eastern,KJRB,40.7012,-74.009,New York,New York,NY,10004
W-2030697,Rain,Moderate,2022-01-02 02:41:00+00:00,2022-01-02 04:22:00+00:00,1.07,US/Eastern,KJRB,40.7012,-74.009,New York,New York,NY,10004
W-2030698,Rain,Light,2022-01-02 04:22:00+00:00,2022-01-02 06:27:00+00:00,0.12,US/Eastern,KJRB,40.7012,-74.009,New York,New York,NY,10004
W-2030699,Rain,Light,2022-01-02 07:04:00+00:00,2022-01-02 07:51:00+00:00,0.0,US/Eastern,KJRB,40.7012,-74.009,New York,New York,NY,10004
W-2030700,Fog,Severe,2022-01-02 09:24:00+00:00,2022-01-02 10:00:00+00:00,0.0,US/Eastern,KJRB,40.7012,-74.009,New York,New York,NY,10004
W-2030701,Rain,Light,2022-01-02 10:51:00+00:00,2022-01-02 11:51:00+00:00,0.02,US/Eastern,KJRB,40.7012,-74.009,New York,New York,NY,10004
W-2030702,Fog,Severe,2022-01-02 11:51:00+00:00,2022-01-02 12:19:00+00:00,0.0,US/Eastern,KJRB,40.7012,-74.009,New York,New York,NY,10004
W-2030703,Fog,Severe,2022-01-02 12:32:00+00:00,2022-01-02 12:47:00+00:00,0.0,US/Eastern,KJRB,40.7012,-74.009,New York,New York,NY,10004
W-2030704,Rain,Light,2022-01-05 10:33:00+00:00,2022-01-05 13:13:00+00:00,0.06,US/Eastern,KJRB,40.7012,-74.009,New York,New York,NY,10004
W-2030705,Rain,Light,2022-01-05 13:30:00+00:00,2022-01-05 13:46:00+00:00,0.01,US/Eastern,KJRB,40.7012,-74.009,New York,New York,NY,10004
W-2030706,Fog,Severe,2022-01-05 13:46:00+00:00,2022-01-05 14:01:00+00:00,0.0,US/Eastern,KJRB,40.7012,-74.009,New York,New York,NY,10004
W-2030707,Rain,Light,2022-01-05 14:51:00+00:00,2022-01-05 17:17:00+00:00,0.54,US/Eastern,KJRB,40.7012,-74.009,New York,New York,NY,10004
W-2030708,Snow,Light,2022-01-07 06:51:00+00:00,2022-01-07 08:51:00+00:00,0.08,US/Eastern,KJRB,40.7012,-74.009,New York,New York,NY,10004
W-2030709,Snow,Heavy,2022-01-07 08:51:00+00:00,2022-01-07 09:07:00+00:00,0.1,US/Eastern,KJRB,40.7012,-74.009,New York,New York,NY,10004
W-2030710,Snow,Moderate,2022-01-07 09:07:00+00:00,2022-01-07 09:42:00+00:00,0.03,US/Eastern,KJRB,40.7012,-74.009,New York,New York,NY,10004
W-2030711,Snow,Heavy,2022-01-07 09:42:00+00:00,2022-01-07 11:01:00+00:00,0.25,US/Eastern,KJRB,40.7012,-74.009,New York,New York,NY,10004
W-2030712,Snow,Light,2022-01-07 11:01:00+00:00,2022-01-07 11:34:00+00:00,0.02,US/Eastern,KJRB,40.7012,-74.009,New York,New York,NY,10004
W-2030713,Snow,Moderate,2022-01-07 11:34:00+00:00,2022-01-07 11:51:00+00:00,0.1,US/Eastern,KJRB,40.7012,-74.009,New York,New York,NY,10004
W-2030714,Snow,Heavy,2022-01-07 11:51:00+00:00,2022-01-07 12:11:00+00:00,0.07,US/Eastern,KJRB,40.7012,-74.009,New York,New York,NY,10004
W-2030715,Snow,Light,2022-01-07 12:11:00+00:00,2022-01-07 14:11:00+00:00,0.05,US/Eastern,KJRB,40.7012,-74.009,New York,New York,NY,10004
W-2030716,Fog,Severe,2022-01-07 14:11:00+00:00,2022-01-07 14:51:00+00:00,0.0,US/Eastern,KJRB,40.7012,-74.009,New York,New York,NY,10004
W-2030717,Fog,Moderate,2022-01-07 14:51:00+00:00,2022-01-07 16:06:00+00:00,0.0,US/Eastern,KJRB,40.7012,-74.009,New York,New York,NY,10004
W-2030718,Snow,Light,2022-01-07 16:06:00+00:00,2022-01-07 16:51:00+00:00,0.0,US/Eastern,KJRB,40.7012,-74.009,New York,New York,NY,10004
W-2030719,Rain,Light,2022-01-09 15:51:00+00:00,2022-01-09 16:51:00+00:00,0.0,US/Eastern,KJRB,40.7012,-74.009,New York,New York,NY,10004
W-2030720,Rain,Light,2022-01-09 19:51:00+00:00,2022-01-10 02:31:00+00:00,0.13,US/Eastern,KJRB,40.7012,-74.009,New York,New York,NY,10004
W-2030721,Snow,Light,2022-01-11 05:51:00+00:00,2022-01-11 06:20:00+00:00,0.0,US/Eastern,KJRB,40.7012,-74.009,New York,New York,NY,10004
W-2030722,Snow,Light,2022-01-16 23:51:00+00:00,2022-01-17 01:46:00+00:00,0.09,US/Eastern,KJRB,40.7012,-74.009,New York,New York,NY,10004
W-2030723,Snow,Moderate,2022-01-17 01:46:00+00:00,2022-01-17 02:51:00+00:00,0.08,US/Eastern,KJRB,40.7012,-74.009,New York,New York,NY,10004
W-2030724,Snow,Heavy,2022-01-17 02:51:00+00:00,2022-01-17 03:09:00+00:00,0.07,US/Eastern,KJRB,40.7012,-74.009,New York,New York,NY,10004
W-2030725,Snow,Light,2022-01-17 03:09:00+00:00,2022-01-17 03:51:00+00:00,0.02,US/Eastern,KJRB,40.7012,-74.009,New York,New York,NY,10004
W-2030726,Rain,Light,2022-01-17 03:51:00+00:00,2022-01-17 04:51:00+00:00,0.09,US/Eastern,KJRB,40.7012,-74.009,New York,New York,NY,10004
W-2030727,Rain,Moderate,2022-01-17 04:51:00+00:00,2022-01-17 07:01:00+00:00,0.7,US/Eastern,KJRB,40.7012,-74.009,New York,New York,NY,10004
W-2030728,Rain,Light,2022-01-17 07:01:00+00:00,2022-01-17 07:51:00+00:00,0.09,US/Eastern,KJRB,40.7012,-74.009,New York,New York,NY,10004
W-2030729,Rain,Moderate,2022-01-17 07:51:00+00:00,2022-01-17 07:59:00+00:00,0.18,US/Eastern,KJRB,40.7012,-74.009,New York,New York,NY,10004
W-2030730,Rain,Light,2022-01-17 07:59:00+00:00,2022-01-17 08:37:00+00:00,0.06,US/Eastern,KJRB,40.7012,-74.009,New York,New York,NY,10004
W-2030731,Rain,Moderate,2022-01-17 08:37:00+00:00,2022-01-17 09:38:00+00:00,0.63,US/Eastern,KJRB,40.7012,-74.009,New York,New York,NY,10004
W-2030732,Rain,Heavy,2022-01-17 09:38:00+00:00,2022-01-17 10:00:00+00:00,0.69,US/Eastern,KJRB,40.7012,-74.009,New York,New York,NY,10004
W-2030733,Rain,Light,2022-01-17 10:00:00+00:00,2022-01-17 10:51:00+00:00,0.07,US/Eastern,KJRB,40.7012,-74.009,New York,New York,NY,10004
W-2030734,Rain,Light,2022-01-17 13:51:00+00:00,2022-01-17 14:51:00+00:00,0.0,US/Eastern,KJRB,40.7012,-74.009,New York,New York,NY,10004
W-2030735,Snow,Light,2022-01-17 21:51:00+00:00,2022-01-17 23:51:00+00:00,0.0,US/Eastern,KJRB,40.7012,-74.009,New York,New York,NY,10004
W-2030736,Rain,Light,2022-01-20 08:51:00+00:00,2022-01-20 13:51:00+00:00,0.34,US/Eastern,KJRB,40.7012,-74.009,New York,New York,NY,10004
W-2030737,Snow,Moderate,2022-01-20 13:51:00+00:00,2022-01-20 14:14:00+00:00,0.04,US/Eastern,KJRB,40.7012,-74.009,New York,New York,NY,10004
W-2030738,Snow,Light,2022-01-20 14:14:00+00:00,2022-01-20 14:51:00+00:00,0.02,US/Eastern,KJRB,40.7012,-74.009,New York,New York,NY,10004
W-2030739,Snow,Moderate,2022-01-20 14:51:00+00:00,2022-01-20 15:13:00+00:00,0.04,US/Eastern,KJRB,40.7012,-74.009,New York,New York,NY,10004
W-2030740,Snow,Light,2022-01-20 15:13:00+00:00,2022-01-20 17:11:00+00:00,0.09,US/Eastern,KJRB,40.7012,-74.009,New York,New York,NY,10004
W-2030741,Snow,Light,2022-01-24 00:37:00+00:00,2022-01-24 02:51:00+00:00,0.04,US/Eastern,KJRB,40.7012,-74.009,New York,New York,NY,10004
W-2030742,Fog,Moderate,2022-01-24 11:05:00+00:00,2022-01-24 11:21:00+00:00,0.0,US/Eastern,KJRB,40.7012,-74.009,New York,New York,NY,10004
W-2030743,Fog,Moderate,2022-01-24 11:51:00+00:00,2022-01-24 13:06:00+00:00,0.0,US/Eastern,KJRB,40.7012,-74.009,New York,New York,NY,10004
W-2030744,Fog,Moderate,2022-01-25 08:51:00+00:00,2022-01-25 09:51:00+00:00,0.0,US/Eastern,KJRB,40.7012,-74.009,New York,New York,NY,10004
W-2030745,Fog,Severe,2022-01-27 22:59:00+00:00,2022-01-27 23:08:00+00:00,0.0,US/Eastern,KJRB,40.7012,-74.009,New York,New York,NY,10004
W-2030746,Snow,Light,2022-01-28 12:45:00+00:00,2022-01-28 18:25:00+00:00,0.03,US/Eastern,KJRB,40.7012,-74.009,New York,New York,NY,10004
W-2030747,Fog,Severe,2022-01-28 18:25:00+00:00,2022-01-28 18:34:00+00:00,0.0,US/Eastern,KJRB,40.7012,-74.009,New York,New York,NY,10004
W-2030748,Fog,Moderate,2022-01-28 18:34:00+00:00,2022-01-28 19:00:00+00:00,0.0,US/Eastern,KJRB,40.7012,-74.009,New York,New York,NY,10004
W-2030749,Fog,Severe,2022-01-28 19:00:00+00:00,2022-01-28 19:16:00+00:00,0.0,US/Eastern,KJRB,40.7012,-74.009,New York,New York,NY,10004
W-2030750,Fog,Moderate,2022-01-28 19:16:00+00:00,2022-01-28 20:12:00+00:00,0.0,US/Eastern,KJRB,40.7012,-74.009,New York,New York,NY,10004
W-2030751,Snow,Light,2022-01-28 20:12:00+00:00,2022-01-28 20:22:00+00:00,0.0,US/Eastern,KJRB,40.7012,-74.009,New York,New York,NY,10004
W-2030752,Fog,Moderate,2022-01-28 20:22:00+00:00,2022-01-28 20:29:00+00:00,0.0,US/Eastern,KJRB,40.7012,-74.009,New York,New York,NY,10004
W-2030753,Snow,Light,2022-01-28 20:29:00+00:00,2022-01-28 20:39:00+00:00,0.0,US/Eastern,KJRB,40.7012,-74.009,New York,New York,NY,10004
W-2030754,Fog,Moderate,2022-01-28 20:39:00+00:00,2022-01-28 20:51:00+00:00,0.0,US/Eastern,KJRB,40.7012,-74.009,New York,New York,NY,10004
W-2030755,Snow,Light,2022-01-28 20:51:00+00:00,2022-01-28 21:51:00+00:00,0.0,US/Eastern,KJRB,40.7012,-74.009,New York,New York,NY,10004
W-2030756,Fog,Moderate,2022-01-28 22:51:00+00:00,2022-01-29 00:44:00+00:00,0.0,US/Eastern,KJRB,40.7012,-74.009,New York,New York,NY,10004
W-2030757,Snow,Light,2022-01-29 00:44:00+00:00,2022-01-29 04:51:00+00:00,0.06,US/Eastern,KJRB,40.7012,-74.009,New York,New York,NY,10004
W-2030758,Snow,Moderate,2022-01-29 04:51:00+00:00,2022-01-29 04:58:00+00:00,0.05,US/Eastern,KJRB,40.7012,-74.009,New York,New York,NY,10004
W-2030759,Snow,Light,2022-01-29 04:58:00+00:00,2022-01-29 09:51:00+00:00,0.01,US/Eastern,KJRB,40.7012,-74.009,New York,New York,NY,10004
W-2030760,Snow,Moderate,2022-01-29 09:51:00+00:00,2022-01-29 11:22:00+00:00,0.11,US/Eastern,KJRB,40.7012,-74.009,New York,New York,NY,10004
W-2030761,Snow,Light,2022-01-29 11:22:00+00:00,2022-01-29 11:51:00+00:00,0.02,US/Eastern,KJRB,40.7012,-74.009,New York,New York,NY,10004
W-2030762,Snow,Moderate,2022-01-29 11:51:00+00:00,2022-01-29 14:10:00+00:00,0.22,US/Eastern,KJRB,40.7012,-74.009,New York,New York,NY,10004
W-2030763,Snow,Light,2022-01-29 14:10:00+00:00,2022-01-29 14:25:00+00:00,0.02,US/Eastern,KJRB,40.7012,-74.009,New York,New York,NY,10004
W-2030764,Snow,Moderate,2022-01-29 14:25:00+00:00,2022-01-29 18:05:00+00:00,0.31,US/Eastern,KJRB,40.7012,-74.009,New York,New York,NY,10004
W-2030765,Snow,Light,2022-01-29 18:05:00+00:00,2022-01-29 20:51:00+00:00,0.05,US/Eastern,KJRB,40.7012,-74.009,New York,New York,NY,10004
W-2030766,Fog,Severe,2022-02-03 03:42:00+00:00,2022-02-03 03:51:00+00:00,0.0,US/Eastern,KJRB,40.7012,-74.009,New York,New York,NY,10004
W-2030767,Fog,Severe,2022-02-03 04:04:00+00:00,2022-02-03 04:59:00+00:00,0.0,US/Eastern,KJRB,40.7012,-74.009,New York,New York,NY,10004
W-2030768,Fog,Severe,2022-02-03 05:07:00+00:00,2022-02-03 07:58:00+00:00,0.0,US/Eastern,KJRB,40.7012,-74.009,New York,New York,NY,10004
W-2030769,Rain,Light,2022-02-03 10:51:00+00:00,2022-02-04 00:25:00+00:00,0.75,US/Eastern,KJRB,40.7012,-74.009,New York,New York,NY,10004
W-2030770,Rain,Light,2022-02-04 00:41:00+00:00,2022-02-04 03:51:00+00:00,0.06,US/Eastern,KJRB,40.7012,-74.009,New York,New York,NY,10004
W-2030771,Rain,Light,2022-02-04 04:51:00+00:00,2022-02-04 05:51:00+00:00,0.02,US/Eastern,KJRB,40.7012,-74.009,New York,New York,NY,10004
W-2030772,Rain,Light,2022-02-04 06:51:00+00:00,2022-02-04 07:10:00+00:00,0.0,US/Eastern,KJRB,40.7012,-74.009,New York,New York,NY,10004
W-2030773,Rain,Light,2022-02-04 07:44:00+00:00,2022-02-04 12:15:00+00:00,0.24,US/Eastern,KJRB,40.7012,-74.009,New York,New York,NY,10004
W-2030774,Rain,Light,2022-02-04 12:41:00+00:00,2022-02-04 19:21:00+00:00,0.42,US/Eastern,KJRB,40.7012,-74.009,New York,New York,NY,10004
W-2030775,Snow,Light,2022-02-05 02:46:00+00:00,2022-02-05 03:00:00+00:00,0.0,US/Eastern,KJRB,40.7012,-74.009,New York,New York,NY,10004
W-2030776,Snow,Light,2022-02-07 08:33:00+00:00,2022-02-07 08:51:00+00:00,0.0,US/Eastern,KJRB,40.7012,-74.009,New York,New York,NY,10004
W-2030777,Snow,Light,2022-02-07 12:37:00+00:00,2022-02-07 12:51:00+00:00,0.0,US/Eastern,KJRB,40.7012,-74.009,New York,New York,NY,10004
W-2030778,Rain,Light,2022-02-07 14:51:00+00:00,2022-02-07 15:31:00+00:00,0.02,US/Eastern,KJRB,40.7012,-74.009,New York,New York,NY,10004
W-2030779,Fog,Severe,2022-02-07 15:31:00+00:00,2022-02-07 15:51:00+00:00,0.0,US/Eastern,KJRB,40.7012,-74.009,New York,New York,NY,10004
W-2030780,Rain,Light,2022-02-07 15:51:00+00:00,2022-02-07 16:27:00+00:00,0.04,US/Eastern,KJRB,40.7012,-74.009,New York,New York,NY,10004
W-2030781,Fog,Severe,2022-02-07 16:27:00+00:00,2022-02-07 16:37:00+00:00,0.0,US/Eastern,KJRB,40.7012,-74.009,New York,New York,NY,10004
W-2030782,Rain,Light,2022-02-07 16:37:00+00:00,2022-02-07 17:07:00+00:00,0.06,US/Eastern,KJRB,40.7012,-74.009,New York,New York,NY,10004
W-2030783,Rain,Light,2022-02-07 17:16:00+00:00,2022-02-07 17:32:00+00:00,0.0,US/Eastern,KJRB,40.7012,-74.009,New York,New York,NY,10004
W-2030784,Rain,Light,2022-02-07 17:42:00+00:00,2022-02-07 18:38:00+00:00,0.0,US/Eastern,KJRB,40.7012,-74.009,New York,New York,NY,10004
W-2030785,Rain,Light,2022-02-07 19:17:00+00:00,2022-02-07 19:41:00+00:00,0.0,US/Eastern,KJRB,40.7012,-74.009,New York,New York,NY,10004
W-2030786,Fog,Severe,2022-02-07 19:41:00+00:00,2022-02-07 19:51:00+00:00,0.0,US/Eastern,KJRB,40.7012,-74.009,New York,New York,NY,10004
W-2030787,Rain,Light,2022-02-07 20:24:00+00:00,2022-02-07 20:51:00+00:00,0.03,US/Eastern,KJRB,40.7012,-74.009,New York,New York,NY,10004
W-2030788,Fog,Severe,2022-02-07 20:51:00+00:00,2022-02-07 20:59:00+00:00,0.0,US/Eastern,KJRB,40.7012,-74.009,New York,New York,NY,10004
W-2030789,Fog,Severe,2022-02-07 21:14:00+00:00,2022-02-07 23:51:00+00:00,0.0,US/Eastern,KJRB,40.7012,-74.009,New York,New York,NY,10004
W-2030790,Rain,Light,2022-02-08 01:51:00+00:00,2022-02-08 07:23:00+00:00,0.21,US/Eastern,KJRB,40.7012,-74.009,New York,New York,NY,10004
W-2030791,Cold,Severe,2022-02-09 11:51:00+00:00,2022-02-09 12:51:00+00:00,0.0,US/Eastern,KJRB,40.7012,-74.009,New York,New York,NY,10004
W-2030792,Snow,Light,2022-02-13 07:51:00+00:00,2022-02-13 09:23:00+00:00,0.04,US/Eastern,KJRB,40.7012,-74.009,New York,New York,NY,10004
W-2030793,Snow,Moderate,2022-02-13 09:23:00+00:00,2022-02-13 09:51:00+00:00,0.09,US/Eastern,KJRB,40.7012,-74.009,New York,New York,NY,10004
W-2030794,Snow,Heavy,2022-02-13 09:51:00+00:00,2022-02-13 09:59:00+00:00,0.07,US/Eastern,KJRB,40.7012,-74.009,New York,New York,NY,10004
W-2030795,Snow,Light,2022-02-13 09:59:00+00:00,2022-02-13 10:40:00+00:00,0.04,US/Eastern,KJRB,40.7012,-74.009,New York,New York,NY,10004
W-2030796,Snow,Moderate,2022-02-13 10:40:00+00:00,2022-02-13 11:07:00+00:00,0.07,US/Eastern,KJRB,40.7012,-74.009,New York,New York,NY,10004
W-2030797,Snow,Light,2022-02-13 11:07:00+00:00,2022-02-13 13:51:00+00:00,0.07,US/Eastern,KJRB,40.7012,-74.009,New York,New York,NY,10004
W-2030798,Snow,Moderate,2022-02-13 13:51:00+00:00,2022-02-13 13:55:00+00:00,0.03,US/Eastern,KJRB,40.7012,-74.009,New York,New York,NY,10004
W-2030799,Snow,Light,2022-02-13 13:55:00+00:00,2022-02-13 15:18:00+00:00,0.0,US/Eastern,KJRB,40.7012,-74.009,New York,New York,NY,10004
W-2030800,Cold,Severe,2022-02-13 15:18:00+00:00,2022-02-13 15:51:00+00:00,0.0,US/Eastern,KJRB,40.7012,-74.009,New York,New York,NY,10004
W-2030801,Snow,Light,2022-02-13 15:51:00+00:00,2022-02-13 19:24:00+00:00,0.07,US/Eastern,KJRB,40.7012,-74.009,New York,New York,NY,10004
W-2030802,Snow,Light,2022-02-13 19:51:00+00:00,2022-02-13 21:51:00+00:00,0.0,US/Eastern,KJRB,40.7012,-74.009,New York,New York,NY,10004
W-2030803,Cold,Severe,2022-02-15 16:51:00+00:00,2022-02-15 17:51:00+00:00,0.0,US/Eastern,KJRB,40.7012,-74.009,New York,New York,NY,10004
W-2030804,Rain,Light,2022-02-18 02:51:00+00:00,2022-02-18 03:40:00+00:00,0.03,US/Eastern,KJRB,40.7012,-74.009,New York,New York,NY,10004
W-2030805,Rain,Moderate,2022-02-18 03:40:00+00:00,2022-02-18 05:51:00+00:00,0.41,US/Eastern,KJRB,40.7012,-74.009,New York,New York,NY,10004
W-2030806,Rain,Light,2022-02-18 05:51:00+00:00,2022-02-18 06:51:00+00:00,0.22,US/Eastern,KJRB,40.7012,-74.009,New York,New York,NY,10004
W-2030807,Rain,Moderate,2022-02-18 06:51:00+00:00,2022-02-18 07:51:00+00:00,0.1,US/Eastern,KJRB,40.7012,-74.009,New York,New York,NY,10004
W-2030808,Rain,Light,2022-02-18 11:33:00+00:00,2022-02-18 11:41:00+00:00,0.0,US/Eastern,KJRB,40.7012,-74.009,New York,New York,NY,10004
W-2030809,Rain,Moderate,2022-02-18 11:41:00+00:00,2022-02-18 11:51:00+00:00,0.32,US/Eastern,KJRB,40.7012,-74.009,New York,New York,NY,10004
W-2030810,Snow,Light,2022-02-19 20:16:00+00:00,2022-02-19 20:39:00+00:00,0.0,US/Eastern,KJRB,40.7012,-74.009,New York,New York,NY,10004
W-2030811,Cold,Severe,2022-02-21 00:51:00+00:00,2022-02-21 01:51:00+00:00,0.0,US/Eastern,KJRB,40.7012,-74.009,New York,New York,NY,10004
W-2030812,Fog,Severe,2022-02-22 11:58:00+00:00,2022-02-22 12:22:00+00:00,0.0,US/Eastern,KJRB,40.7012,-74.009,New York,New York,NY,10004
W-2030813,Rain,Light,2022-02-22 18:51:00+00:00,2022-02-22 20:51:00+00:00,0.11,US/Eastern,KJRB,40.7012,-74.009,New York,New York,NY,10004
W-2030814,Rain,Light,2022-02-22 21:42:00+00:00,2022-02-23 00:51:00+00:00,0.23,US/Eastern,KJRB,40.7012,-74.009,New York,New York,NY,10004
W-2030815,Cold,Severe,2022-02-23 01:59:00+00:00,2022-02-23 02:51:00+00:00,0.0,US/Eastern,KJRB,40.7012,-74.009,New York,New York,NY,10004
W-2030816,Rain,Light,2022-02-25 06:27:00+00:00,2022-02-25 07:42:00+00:00,0.05,US/Eastern,KJRB,40.7012,-74.009,New York,New York,NY,10004
W-2030817,Fog,Severe,2022-02-25 17:23:00+00:00,2022-02-25 17:46:00+00:00,0.0,US/Eastern,KJRB,40.7012,-74.009,New York,New York,NY,10004
W-2030818,Rain,Light,2022-02-25 21:22:00+00:00,2022-02-25 21:51:00+00:00,0.0,US/Eastern,KJRB,40.7012,-74.009,New York,New York,NY,10004
W-2030819,Rain,Light,2022-03-03 07:51:00+00:00,2022-03-03 10:35:00+00:00,0.03,US/Eastern,KJRB,40.7012,-74.009,New York,New York,NY,10004
W-2030820,Fog,Moderate,2022-03-06 12:51:00+00:00,2022-03-06 13:51:00+00:00,0.0,US/Eastern,KJRB,40.7012,-74.009,New York,New York,NY,10004
W-2030821,Rain,Light,2022-03-06 14:19:00+00:00,2022-03-06 14:38:00+00:00,0.0,US/Eastern,KJRB,40.7012,-74.009,New York,New York,NY,10004
W-2030822,Rain,Light,2022-03-06 14:51:00+00:00,2022-03-06 15:58:00+00:00,0.2,US/Eastern,KJRB,40.7012,-74.009,New York,New York,NY,10004
W-2030823,Rain,Light,2022-03-06 16:34:00+00:00,2022-03-06 16:43:00+00:00,0.0,US/Eastern,KJRB,40.7012,-74.009,New York,New York,NY,10004
W-2030824,Rain,Light,2022-03-06 17:51:00+00:00,2022-03-06 18:39:00+00:00,0.0,US/Eastern,KJRB,40.7012,-74.009,New York,New York,NY,10004
W-2030825,Rain,Light,2022-03-07 21:51:00+00:00,2022-03-07 22:51:00+00:00,0.02,US/Eastern,KJRB,40.7012,-74.009,New York,New York,NY,10004
W-2030826,Rain,Light,2022-03-08 02:51:00+00:00,2022-03-08 03:51:00+00:00,0.0,US/Eastern,KJRB,40.7012,-74.009,New York,New York,NY,10004
W-2030827,Rain,Light,2022-03-09 11:32:00+00:00,2022-03-09 12:51:00+00:00,0.01,US/Eastern,KJRB,40.7012,-74.009,New York,New York,NY,10004
W-2030828,Rain,Light,2022-03-09 13:33:00+00:00,2022-03-09 15:21:00+00:00,0.06,US/Eastern,KJRB,40.7012,-74.009,New York,New York,NY,10004
W-2030829,Snow,Moderate,2022-03-09 15:21:00+00:00,2022-03-09 15:59:00+00:00,0.09,US/Eastern,KJRB,40.7012,-74.009,New York,New York,NY,10004
W-2030830,Snow,Light,2022-03-09 15:59:00+00:00,2022-03-09 16:22:00+00:00,0.03,US/Eastern,KJRB,40.7012,-74.009,New York,New York,NY,10004
W-2030831,Snow,Moderate,2022-03-09 16:22:00+00:00,2022-03-09 16:58:00+00:00,0.09,US/Eastern,KJRB,40.7012,-74.009,New York,New York,NY,10004
W-2030832,Snow,Light,2022-03-09 16:58:00+00:00,2022-03-09 18:48:00+00:00,0.02,US/Eastern,KJRB,40.7012,-74.009,New York,New York,NY,10004
W-2030833,Snow,Heavy,2022-03-09 18:48:00+00:00,2022-03-09 19:23:00+00:00,0.19,US/Eastern,KJRB,40.7012,-74.009,New York,New York,NY,10004
W-2030834,Snow,Moderate,2022-03-09 19:23:00+00:00,2022-03-09 19:51:00+00:00,0.11,US/Eastern,KJRB,40.7012,-74.009,New York,New York,NY,10004
W-2030835,Rain,Moderate,2022-03-09 19:51:00+00:00,2022-03-09 20:51:00+00:00,0.11,US/Eastern,KJRB,40.7012,-74.009,New York,New York,NY,10004
W-2030836,Snow,Heavy,2022-03-09 20:51:00+00:00,2022-03-09 21:51:00+00:00,0.07,US/Eastern,KJRB,40.7012,-74.009,New York,New York,NY,10004
W-2030837,Snow,Moderate,2022-03-09 21:51:00+00:00,2022-03-09 22:30:00+00:00,0.04,US/Eastern,KJRB,40.7012,-74.009,New York,New York,NY,10004
W-2030838,Snow,Light,2022-03-09 22:30:00+00:00,2022-03-09 22:51:00+00:00,0.03,US/Eastern,KJRB,40.7012,-74.009,New York,New York,NY,10004
W-2030839,Snow,Moderate,2022-03-09 22:51:00+00:00,2022-03-09 23:51:00+00:00,0.03,US/Eastern,KJRB,40.7012,-74.009,New York,New York,NY,10004
W-2030840,Fog,Severe,2022-03-10 12:12:00+00:00,2022-03-10 12:25:00+00:00,0.0,US/Eastern,KJRB,40.7012,-74.009,New York,New York,NY,10004
W-2030841,Fog,Moderate,2022-03-10 14:51:00+00:00,2022-03-10 16:51:00+00:00,0.0,US/Eastern,KJRB,40.7012,-74.009,New York,New York,NY,10004
W-2030842,Rain,Light,2022-03-12 10:01:00+00:00,2022-03-12 10:51:00+00:00,0.01,US/Eastern,KJRB,40.7012,-74.009,New York,New York,NY,10004
W-2030843,Rain,Light,2022-03-12 12:34:00+00:00,2022-03-12 13:51:00+00:00,0.15,US/Eastern,KJRB,40.7012,-74.009,New York,New York,NY,10004
W-2030844,Rain,Moderate,2022-03-12 13:51:00+00:00,2022-03-12 13:56:00+00:00,0.14,US/Eastern,KJRB,40.7012,-74.009,New York,New York,NY,10004
W-2030845,Rain,Light,2022-03-12 13:56:00+00:00,2022-03-12 14:38:00+00:00,0.25,US/Eastern,KJRB,40.7012,-74.009,New York,New York,NY,10004
W-2030846,Rain,Moderate,2022-03-12 14:38:00+00:00,2022-03-12 15:11:00+00:00,0.36,US/Eastern,KJRB,40.7012,-74.009,New York,New York,NY,10004
W-2030847,Snow,Light,2022-03-12 15:11:00+00:00,2022-03-12 15:22:00+00:00,0.01,US/Eastern,KJRB,40.7012,-74.009,New York,New York,NY,10004
W-2030848,Snow,Moderate,2022-03-12 15:22:00+00:00,2022-03-12 15:39:00+00:00,0.03,US/Eastern,KJRB,40.7012,-74.009,New York,New York,NY,10004
W-2030849,Snow,Heavy,2022-03-12 15:39:00+00:00,2022-03-12 15:51:00+00:00,0.18,US/Eastern,KJRB,40.7012,-74.009,New York,New York,NY,10004
W-2030850,Rain,Moderate,2022-03-12 15:51:00+00:00,2022-03-12 16:03:00+00:00,0.11,US/Eastern,KJRB,40.7012,-74.009,New York,New York,NY,10004
W-2030851,Rain,Light,2022-03-12 16:03:00+00:00,2022-03-12 16:32:00+00:00,0.05,US/Eastern,KJRB,40.7012,-74.009,New York,New York,NY,10004
W-2030852,Snow,Moderate,2022-03-12 16:32:00+00:00,2022-03-12 16:49:00+00:00,0.04,US/Eastern,KJRB,40.7012,-74.009,New York,New York,NY,10004
W-2030853,Rain,Light,2022-03-12 16:49:00+00:00,2022-03-12 17:05:00+00:00,0.1,US/Eastern,KJRB,40.7012,-74.009,New York,New York,NY,10004
W-2030854,Snow,Light,2022-03-12 17:05:00+00:00,2022-03-12 17:41:00+00:00,0.01,US/Eastern,KJRB,40.7012,-74.009,New York,New York,NY,10004
W-2030855,Snow,Light,2022-03-12 21:25:00+00:00,2022-03-12 23:05:00+00:00,0.0,US/Eastern,KJRB,40.7012,-74.009,New York,New York,NY,10004
W-2030856,Rain,Light,2022-03-16 02:51:00+00:00,2022-03-16 05:51:00+00:00,0.0,US/Eastern,KJRB,40.7012,-74.009,New York,New York,NY,10004
W-2030857,Fog,Severe,2022-03-17 08:26:00+00:00,2022-03-17 10:33:00+00:00,0.0,US/Eastern,KJRB,40.7012,-74.009,New York,New York,NY,10004
W-2030858,Fog,Severe,2022-03-17 12:39:00+00:00,2022-03-17 13:51:00+00:00,0.0,US/Eastern,KJRB,40.7012,-74.009,New York,New York,NY,10004
W-2030859,Rain,Light,2022-03-17 13:51:00+00:00,2022-03-17 15:19:00+00:00,0.05,US/Eastern,KJRB,40.7012,-74.009,New York,New York,NY,10004
W-2030860,Rain,Light,2022-03-17 15:51:00+00:00,2022-03-17 17:51:00+00:00,0.0,US/Eastern,KJRB,40.7012,-74.009,New York,New York,NY,10004
W-2030861,Rain,Light,2022-03-17 18:45:00+00:00,2022-03-17 19:46:00+00:00,0.05,US/Eastern,KJRB,40.7012,-74.009,New York,New York,NY,10004
W-2030862,Fog,Severe,2022-03-17 19:46:00+00:00,2022-03-18 06:34:00+00:00,0.0,US/Eastern,KJRB,40.7012,-74.009,New York,New York,NY,10004
W-2030863,Fog,Severe,2022-03-19 08:41:00+00:00,2022-03-19 10:31:00+00:00,0.0,US/Eastern,KJRB,40.7012,-74.009,New York,New York,NY,10004
W-2030864,Cold,Severe,2022-03-19 10:31:00+00:00,2022-03-19 10:49:00+00:00,0.0,US/Eastern,KJRB,40.7012,-74.009,New York,New York,NY,10004
W-2030865,Fog,Severe,2022-03-19 10:51:00+00:00,2022-03-19 13:34:00+00:00,0.0,US/Eastern,KJRB,40.7012,-74.009,New York,New York,NY,10004
W-2030866,Rain,Light,2022-03-20 02:51:00+00:00,2022-03-20 05:51:00+00:00,0.05,US/Eastern,KJRB,40.7012,-74.009,New York,New York,NY,10004
W-2030867,Fog,Severe,2022-03-21 20:51:00+00:00,2022-03-21 21:03:00+00:00,0.0,US/Eastern,KJRB,40.7012,-74.009,New York,New York,NY,10004
W-2030868,Rain,Light,2022-03-23 21:51:00+00:00,2022-03-23 22:51:00+00:00,0.0,US/Eastern,KJRB,40.7012,-74.009,New York,New York,NY,10004
W-2030869,Rain,Light,2022-03-23 23:51:00+00:00,2022-03-24 00:51:00+00:00,0.0,US/Eastern,KJRB,40.7012,-74.009,New York,New York,NY,10004
W-2030870,Rain,Light,2022-03-24 01:51:00+00:00,2022-03-24 02:51:00+00:00,0.01,US/Eastern,KJRB,40.7012,-74.009,New York,New York,NY,10004
W-2030871,Rain,Light,2022-03-24 03:51:00+00:00,2022-03-24 12:51:00+00:00,0.56,US/Eastern,KJRB,40.7012,-74.009,New York,New York,NY,10004
W-2030872,Rain,Light,2022-03-24 14:51:00+00:00,2022-03-24 15:51:00+00:00,0.0,US/Eastern,KJRB,40.7012,-74.009,New York,New York,NY,10004
W-2030873,Rain,Light,2022-03-25 03:10:00+00:00,2022-03-25 03:28:00+00:00,0.0,US/Eastern,KJRB,40.7012,-74.009,New York,New York,NY,10004
W-2030874,Rain,Moderate,2022-03-25 03:28:00+00:00,2022-03-25 03:59:00+00:00,0.28,US/Eastern,KJRB,40.7012,-74.009,New York,New York,NY,10004
W-2030875,Rain,Light,2022-03-25 03:59:00+00:00,2022-03-25 04:25:00+00:00,0.06,US/Eastern,KJRB,40.7012,-74.009,New York,New York,NY,10004
W-2030876,Rain,Moderate,2022-03-25 04:25:00+00:00,2022-03-25 04:41:00+00:00,0.45,US/Eastern,KJRB,40.7012,-74.009,New York,New York,NY,10004
W-2030877,Rain,Heavy,2022-03-25 04:41:00+00:00,2022-03-25 04:58:00+00:00,0.94,US/Eastern,KJRB,40.7012,-74.009,New York,New York,NY,10004
W-2030878,Rain,Light,2022-03-25 04:58:00+00:00,2022-03-25 05:40:00+00:00,0.13,US/Eastern,KJRB,40.7012,-74.009,New York,New York,NY,10004
W-2030879,Rain,Moderate,2022-03-25 05:40:00+00:00,2022-03-25 06:03:00+00:00,0.38,US/Eastern,KJRB,40.7012,-74.009,New York,New York,NY,10004
W-2030880,Rain,Light,2022-03-25 06:03:00+00:00,2022-03-25 07:29:00+00:00,0.07,US/Eastern,KJRB,40.7012,-74.009,New York,New York,NY,10004
W-2030881,Rain,Light,2022-03-26 16:51:00+00:00,2022-03-26 17:51:00+00:00,0.0,US/Eastern,KJRB,40.7012,-74.009,New York,New York,NY,10004
W-2030882,Fog,Severe,2022-03-31 10:17:00+00:00,2022-03-31 11:28:00+00:00,0.0,US/Eastern,KJRB,40.7012,-74.009,New York,New York,NY,10004
W-2030883,Fog,Severe,2022-03-31 12:10:00+00:00,2022-03-31 13:08:00+00:00,0.0,US/Eastern,KJRB,40.7012,-74.009,New York,New York,NY,10004
W-2030884,Fog,Moderate,2022-03-31 14:18:00+00:00,2022-03-31 15:51:00+00:00,0.0,US/Eastern,KJRB,40.7012,-74.009,New York,New York,NY,10004
W-2030885,Cold,Severe,2022-03-31 23:51:00+00:00,2022-04-01 00:29:00+00:00,0.0,US/Eastern,KJRB,40.7012,-74.009,New York,New York,NY,10004
W-2030886,Rain,Light,2022-04-01 02:51:00+00:00,2022-04-01 03:21:00+00:00,0.0,US/Eastern,KJRB,40.7012,-74.009,New York,New York,NY,10004
W-2030887,Rain,Light,2022-04-01 04:44:00+00:00,2022-04-01 05:51:00+00:00,0.12,US/Eastern,KJRB,40.7012,-74.009,New York,New York,NY,10004
W-2030888,Rain,Light,2022-04-01 07:28:00+00:00,2022-04-01 07:45:00+00:00,0.17,US/Eastern,KJRB,40.7012,-74.009,New York,New York,NY,10004
W-2030889,Rain,Moderate,2022-04-01 07:45:00+00:00,2022-04-01 07:53:00+00:00,0.23,US/Eastern,KJRB,40.7012,-74.009,New York,New York,NY,10004
W-2030890,Rain,Light,2022-04-01 07:53:00+00:00,2022-04-01 08:51:00+00:00,0.13,US/Eastern,KJRB,40.7012,-74.009,New York,New York,NY,10004
W-2030891,Rain,Light,2022-04-01 10:51:00+00:00,2022-04-01 11:51:00+00:00,0.06,US/Eastern,KJRB,40.7012,-74.009,New York,New York,NY,10004
W-2030892,Cold,Severe,2022-04-01 22:51:00+00:00,2022-04-01 23:51:00+00:00,0.0,US/Eastern,KJRB,40.7012,-74.009,New York,New York,NY,10004
W-2030893,Rain,Light,2022-04-03 14:51:00+00:00,2022-04-03 18:51:00+00:00,0.12,US/Eastern,KJRB,40.7012,-74.009,New York,New York,NY,10004
W-2030894,Rain,Light,2022-04-03 22:51:00+00:00,2022-04-03 23:51:00+00:00,0.0,US/Eastern,KJRB,40.7012,-74.009,New York,New York,NY,10004
W-2030895,Rain,Light,2022-04-06 03:51:00+00:00,2022-04-06 16:51:00+00:00,0.65,US/Eastern,KJRB,40.7012,-74.009,New York,New York,NY,10004
W-2030896,Rain,Light,2022-04-06 17:30:00+00:00,2022-04-06 17:51:00+00:00,0.0,US/Eastern,KJRB,40.7012,-74.009,New York,New York,NY,10004
W-2030897,Rain,Light,2022-04-07 17:24:00+00:00,2022-04-08 02:51:00+00:00,1.15,US/Eastern,KJRB,40.7012,-74.009,New York,New York,NY,10004
W-2030898,Rain,Light,2022-04-08 03:18:00+00:00,2022-04-08 04:04:00+00:00,0.14,US/Eastern,KJRB,40.7012,-74.009,New York,New York,NY,10004
W-2030899,Rain,Moderate,2022-04-08 04:04:00+00:00,2022-04-08 04:25:00+00:00,0.33,US/Eastern,KJRB,40.7012,-74.009,New York,New York,NY,10004
W-2030900,Rain,Heavy,2022-04-08 04:25:00+00:00,2022-04-08 05:00:00+00:00,1.58,US/Eastern,KJRB,40.7012,-74.009,New York,New York,NY,10004
W-2030901,Rain,Light,2022-04-08 05:00:00+00:00,2022-04-08 07:07:00+00:00,0.21,US/Eastern,KJRB,40.7012,-74.009,New York,New York,NY,10004
W-2030902,Rain,Light,2022-04-08 07:27:00+00:00,2022-04-08 07:34:00+00:00,0.0,US/Eastern,KJRB,40.7012,-74.009,New York,New York,NY,10004
W-2030903,Fog,Severe,2022-04-08 07:34:00+00:00,2022-04-08 08:08:00+00:00,0.0,US/Eastern,KJRB,40.7012,-74.009,New York,New York,NY,10004
W-2030904,Fog,Severe,2022-04-08 08:49:00+00:00,2022-04-08 09:20:00+00:00,0.0,US/Eastern,KJRB,40.7012,-74.009,New York,New York,NY,10004
W-2030905,Rain,Light,2022-04-09 07:51:00+00:00,2022-04-09 08:51:00+00:00,0.0,US/Eastern,KJRB,40.7012,-74.009,New York,New York,NY,10004
W-2030906,Rain,Light,2022-04-09 10:51:00+00:00,2022-04-09 11:51:00+00:00,0.0,US/Eastern,KJRB,40.7012,-74.009,New York,New York,NY,10004
W-2030907,Rain,Light,2022-04-09 15:51:00+00:00,2022-04-09 16:51:00+00:00,0.0,US/Eastern,KJRB,40.7012,-74.009,New York,New York,NY,10004
W-2030908,Rain,Light,2022-04-09 23:11:00+00:00,2022-04-09 23:18:00+00:00,0.02,US/Eastern,KJRB,40.7012,-74.009,New York,New York,NY,10004
W-2030909,Rain,Light,2022-04-12 12:51:00+00:00,2022-04-12 15:51:00+00:00,0.05,US/Eastern,KJRB,40.7012,-74.009,New York,New York,NY,10004
W-2030910,Rain,Light,2022-04-14 23:51:00+00:00,2022-04-15 01:51:00+00:00,0.15,US/Eastern,KJRB,40.7012,-74.009,New York,New York,NY,10004
W-2030911,Rain,Light,2022-04-15 03:51:00+00:00,2022-04-15 04:51:00+00:00,0.0,US/Eastern,KJRB,40.7012,-74.009,New York,New York,NY,10004
W-2030912,Rain,Light,2022-04-17 01:51:00+00:00,2022-04-17 03:51:00+00:00,0.12,US/Eastern,KJRB,40.7012,-74.009,New York,New York,NY,10004
W-2030913,Rain,Moderate,2022-04-17 03:51:00+00:00,2022-04-17 04:03:00+00:00,0.11,US/Eastern,KJRB,40.7012,-74.009,New York,New York,NY,10004
W-2030914,Rain,Light,2022-04-17 04:03:00+00:00,2022-04-17 04:51:00+00:00,0.02,US/Eastern,KJRB,40.7012,-74.009,New York,New York,NY,10004
W-2030915,Rain,Light,2022-04-19 01:51:00+00:00,2022-04-19 03:51:00+00:00,0.09,US/Eastern,KJRB,40.7012,-74.009,New York,New York,NY,10004
W-2030916,Rain,Moderate,2022-04-19 03:51:00+00:00,2022-04-19 05:00:00+00:00,0.7,US/Eastern,KJRB,40.7012,-74.009,New York,New York,NY,10004
W-2030917,Rain,Light,2022-04-19 05:00:00+00:00,2022-04-19 05:31:00+00:00,0.05,US/Eastern,KJRB,40.7012,-74.009,New York,New York,NY,10004
W-2030918,Rain,Moderate,2022-04-19 05:31:00+00:00,2022-04-19 05:51:00+00:00,0.44,US/Eastern,KJRB,40.7012,-74.009,New York,New York,NY,10004
W-2030919,Rain,Heavy,2022-04-19 05:51:00+00:00,2022-04-19 08:07:00+00:00,1.34,US/Eastern,KJRB,40.7012,-74.009,New York,New York,NY,10004
W-2030920,Rain,Light,2022-04-19 08:07:00+00:00,2022-04-19 08:15:00+00:00,0.08,US/Eastern,KJRB,40.7012,-74.009,New York,New York,NY,10004
W-2030921,Rain,Moderate,2022-04-19 08:15:00+00:00,2022-04-19 09:02:00+00:00,0.45,US/Eastern,KJRB,40.7012,-74.009,New York,New York,NY,10004
W-2030922,Rain,Light,2022-04-19 09:02:00+00:00,2022-04-19 11:51:00+00:00,0.27,US/Eastern,KJRB,40.7012,-74.009,New York,New York,NY,10004
W-2030923,Fog,Severe,2022-04-23 20:51:00+00:00,2022-04-23 20:59:00+00:00,0.0,US/Eastern,KJRB,40.7012,-74.009,New York,New York,NY,10004
W-2030924,Rain,Light,2022-04-26 22:51:00+00:00,2022-04-27 00:51:00+00:00,0.0,US/Eastern,KJRB,40.7012,-74.009,New York,New York,NY,10004
W-2030925,Rain,Light,2022-05-02 04:51:00+00:00,2022-05-02 05:51:00+00:00,0.0,US/Eastern,KJRB,40.7012,-74.009,New York,New York,NY,10004
W-2030926,Rain,Light,2022-05-02 11:01:00+00:00,2022-05-02 11:11:00+00:00,0.01,US/Eastern,KJRB,40.7012,-74.009,New York,New York,NY,10004
W-2030927,Rain,Moderate,2022-05-02 11:11:00+00:00,2022-05-02 11:14:00+00:00,0.17,US/Eastern,KJRB,40.7012,-74.009,New York,New York,NY,10004
W-2030928,Rain,Light,2022-05-02 11:14:00+00:00,2022-05-02 11:22:00+00:00,0.0,US/Eastern,KJRB,40.7012,-74.009,New York,New York,NY,10004
W-2030929,Rain,Moderate,2022-05-02 11:22:00+00:00,2022-05-02 12:42:00+00:00,0.61,US/Eastern,KJRB,40.7012,-74.009,New York,New York,NY,10004
W-2030930,Rain,Light,2022-05-02 12:42:00+00:00,2022-05-02 13:51:00+00:00,0.01,US/Eastern,KJRB,40.7012,-74.009,New York,New York,NY,10004
W-2030931,Fog,Severe,2022-05-02 16:27:00+00:00,2022-05-02 16:51:00+00:00,0.0,US/Eastern,KJRB,40.7012,-74.009,New York,New York,NY,10004
W-2030932,Rain,Light,2022-05-02 16:51:00+00:00,2022-05-02 17:51:00+00:00,0.0,US/Eastern,KJRB,40.7012,-74.009,New York,New York,NY,10004
W-2030933,Fog,Severe,2022-05-02 17:51:00+00:00,2022-05-02 19:26:00+00:00,0.0,US/Eastern,KJRB,40.7012,-74.009,New York,New York,NY,10004
W-2030934,Fog,Severe,2022-05-02 21:33:00+00:00,2022-05-02 21:51:00+00:00,0.0,US/Eastern,KJRB,40.7012,-74.009,New York,New York,NY,10004
W-2030935,Rain,Light,2022-05-02 21:51:00+00:00,2022-05-02 22:14:00+00:00,0.0,US/Eastern,KJRB,40.7012,-74.009,New York,New York,NY,10004
W-2030936,Fog,Severe,2022-05-03 00:04:00+00:00,2022-05-03 00:23:00+00:00,0.0,US/Eastern,KJRB,40.7012,-74.009,New York,New York,NY,10004
W-2030937,Rain,Light,2022-05-04 08:51:00+00:00,2022-05-04 09:51:00+00:00,0.02,US/Eastern,KJRB,40.7012,-74.009,New York,New York,NY,10004
W-2030938,Rain,Light,2022-05-04 10:51:00+00:00,2022-05-04 11:43:00+00:00,0.01,US/Eastern,KJRB,40.7012,-74.009,New York,New York,NY,10004
W-2030939,Rain,Light,2022-05-04 11:51:00+00:00,2022-05-04 12:51:00+00:00,0.01,US/Eastern,KJRB,40.7012,-74.009,New York,New York,NY,10004
W-2030940,Rain,Light,2022-05-04 13:51:00+00:00,2022-05-04 15:51:00+00:00,0.03,US/Eastern,KJRB,40.7012,-74.009,New York,New York,NY,10004
W-2030941,Rain,Light,2022-05-06 12:51:00+00:00,2022-05-06 20:51:00+00:00,0.21,US/Eastern,KJRB,40.7012,-74.009,New York,New York,NY,10004
W-2030942,Cold,Severe,2022-05-06 20:51:00+00:00,2022-05-06 21:51:00+00:00,0.0,US/Eastern,KJRB,40.7012,-74.009,New York,New York,NY,10004
W-2030943,Rain,Light,2022-05-06 21:51:00+00:00,2022-05-07 17:32:00+00:00,1.37,US/Eastern,KJRB,40.7012,-74.009,New York,New York,NY,10004
W-2030944,Rain,Moderate,2022-05-07 17:32:00+00:00,2022-05-07 19:01:00+00:00,0.72,US/Eastern,KJRB,40.7012,-74.009,New York,New York,NY,10004
W-2030945,Rain,Light,2022-05-07 19:01:00+00:00,2022-05-08 01:51:00+00:00,0.32,US/Eastern,KJRB,40.7012,-74.009,New York,New York,NY,10004
W-2030946,Rain,Light,2022-05-08 03:51:00+00:00,2022-05-08 04:51:00+00:00,0.0,US/Eastern,KJRB,40.7012,-74.009,New York,New York,NY,10004
W-2030947,Rain,Light,2022-05-08 05:51:00+00:00,2022-05-08 09:51:00+00:00,0.0,US/Eastern,KJRB,40.7012,-74.009,New York,New York,NY,10004
W-2030948,Rain,Light,2022-05-08 10:51:00+00:00,2022-05-08 11:51:00+00:00,0.0,US/Eastern,KJRB,40.7012,-74.009,New York,New York,NY,10004
W-2030949,Rain,Light,2022-05-08 13:51:00+00:00,2022-05-08 14:51:00+00:00,0.0,US/Eastern,KJRB,40.7012,-74.009,New York,New York,NY,10004
W-2030950,Fog,Severe,2022-05-13 07:00:00+00:00,2022-05-13 07:07:00+00:00,0.0,US/Eastern,KJRB,40.7012,-74.009,New York,New York,NY,10004
W-2030951,Fog,Severe,2022-05-13 07:23:00+00:00,2022-05-13 07:59:00+00:00,0.0,US/Eastern,KJRB,40.7012,-74.009,New York,New York,NY,10004
W-2030952,Rain,Light,2022-05-13 21:51:00+00:00,2022-05-13 22:21:00+00:00,0.0,US/Eastern,KJRB,40.7012,-74.009,New York,New York,NY,10004
W-2030953,Rain,Light,2022-05-13 23:51:00+00:00,2022-05-14 00:51:00+00:00,0.02,US/Eastern,KJRB,40.7012,-74.009,New York,New York,NY,10004
W-2030954,Fog,Severe,2022-05-14 02:10:00+00:00,2022-05-14 02:31:00+00:00,0.0,US/Eastern,KJRB,40.7012,-74.009,New York,New York,NY,10004
W-2030955,Fog,Severe,2022-05-14 12:41:00+00:00,2022-05-14 13:10:00+00:00,0.0,US/Eastern,KJRB,40.7012,-74.009,New York,New York,NY,10004
W-2030956,Fog,Moderate,2022-05-14 15:51:00+00:00,2022-05-14 16:51:00+00:00,0.0,US/Eastern,KJRB,40.7012,-74.009,New York,New York,NY,10004
W-2030957,Rain,Light,2022-05-14 21:22:00+00:00,2022-05-15 00:51:00+00:00,0.12,US/Eastern,KJRB,40.7012,-74.009,New York,New York,NY,10004
W-2030958,Fog,Severe,2022-05-15 02:40:00+00:00,2022-05-15 03:03:00+00:00,0.0,US/Eastern,KJRB,40.7012,-74.009,New York,New York,NY,10004
W-2030959,Rain,Light,2022-05-15 03:51:00+00:00,2022-05-15 04:22:00+00:00,0.06,US/Eastern,KJRB,40.7012,-74.009,New York,New York,NY,10004
W-2030960,Rain,Moderate,2022-05-15 04:22:00+00:00,2022-05-15 04:51:00+00:00,0.44,US/Eastern,KJRB,40.7012,-74.009,New York,New York,NY,10004
W-2030961,Rain,Light,2022-05-15 06:17:00+00:00,2022-05-15 06:44:00+00:00,0.0,US/Eastern,KJRB,40.7012,-74.009,New York,New York,NY,10004
W-2030962,Fog,Severe,2022-05-15 06:44:00+00:00,2022-05-15 07:01:00+00:00,0.0,US/Eastern,KJRB,40.7012,-74.009,New York,New York,NY,10004
W-2030963,Fog,Severe,2022-05-15 07:23:00+00:00,2022-05-15 07:34:00+00:00,0.0,US/Eastern,KJRB,40.7012,-74.009,New York,New York,NY,10004
W-2030964,Rain,Light,2022-05-15 07:44:00+00:00,2022-05-15 08:51:00+00:00,0.24,US/Eastern,KJRB,40.7012,-74.009,New York,New York,NY,10004
W-2030965,Fog,Severe,2022-05-15 10:49:00+00:00,2022-05-15 13:27:00+00:00,0.0,US/Eastern,KJRB,40.7012,-74.009,New York,New York,NY,10004
W-2030966,Rain,Light,2022-05-16 18:36:00+00:00,2022-05-16 19:51:00+00:00,0.14,US/Eastern,KJRB,40.7012,-74.009,New York,New York,NY,10004
W-2030967,Rain,Light,2022-05-16 23:51:00+00:00,2022-05-17 01:51:00+00:00,0.02,US/Eastern,KJRB,40.7012,-74.009,New York,New York,NY,10004
W-2030968,Rain,Light,2022-05-19 05:51:00+00:00,2022-05-19 09:51:00+00:00,0.27,US/Eastern,KJRB,40.7012,-74.009,New York,New York,NY,10004
W-2030969,Rain,Moderate,2022-05-19 09:51:00+00:00,2022-05-19 10:10:00+00:00,0.13,US/Eastern,KJRB,40.7012,-74.009,New York,New York,NY,10004
W-2030970,Rain,Light,2022-05-19 10:10:00+00:00,2022-05-19 10:24:00+00:00,0.09,US/Eastern,KJRB,40.7012,-74.009,New York,New York,NY,10004
W-2030971,Rain,Moderate,2022-05-19 10:24:00+00:00,2022-05-19 10:58:00+00:00,0.57,US/Eastern,KJRB,40.7012,-74.009,New York,New York,NY,10004
W-2030972,Rain,Light,2022-05-19 10:58:00+00:00,2022-05-19 11:15:00+00:00,0.12,US/Eastern,KJRB,40.7012,-74.009,New York,New York,NY,10004
W-2030973,Rain,Moderate,2022-05-19 11:15:00+00:00,2022-05-19 12:00:00+00:00,0.62,US/Eastern,KJRB,40.7012,-74.009,New York,New York,NY,10004
W-2030974,Rain,Light,2022-05-19 12:00:00+00:00,2022-05-19 14:40:00+00:00,0.14,US/Eastern,KJRB,40.7012,-74.009,New York,New York,NY,10004
W-2030975,Rain,Light,2022-05-19 14:51:00+00:00,2022-05-19 15:19:00+00:00,0.01,US/Eastern,KJRB,40.7012,-74.009,New York,New York,NY,10004
W-2030976,Fog,Severe,2022-05-20 08:35:00+00:00,2022-05-20 09:04:00+00:00,0.0,US/Eastern,KJRB,40.7012,-74.009,New York,New York,NY,10004
W-2030977,Fog,Severe,2022-05-20 09:12:00+00:00,2022-05-20 13:18:00+00:00,0.0,US/Eastern,KJRB,40.7012,-74.009,New York,New York,NY,10004
W-2030978,Fog,Moderate,2022-05-20 13:35:00+00:00,2022-05-20 15:51:00+00:00,0.0,US/Eastern,KJRB,40.7012,-74.009,New York,New York,NY,10004
W-2030979,Rain,Light,2022-05-20 21:03:00+00:00,2022-05-20 21:51:00+00:00,0.0,US/Eastern,KJRB,40.7012,-74.009,New York,New York,NY,10004
W-2030980,Fog,Moderate,2022-05-20 21:51:00+00:00,2022-05-20 22:03:00+00:00,0.0,US/Eastern,KJRB,40.7012,-74.009,New York,New York,NY,10004
W-2030981,Rain,Light,2022-05-20 22:03:00+00:00,2022-05-20 22:29:00+00:00,0.06,US/Eastern,KJRB,40.7012,-74.009,New York,New York,NY,10004
W-2030982,Rain,Moderate,2022-05-20 22:29:00+00:00,2022-05-20 22:46:00+00:00,0.43,US/Eastern,KJRB,40.7012,-74.009,New York,New York,NY,10004
W-2030983,Rain,Heavy,2022-05-20 22:46:00+00:00,2022-05-20 23:19:00+00:00,0.32,US/Eastern,KJRB,40.7012,-74.009,New York,New York,NY,10004
W-2030984,Rain,Light,2022-05-20 23:19:00+00:00,2022-05-21 00:26:00+00:00,0.13,US/Eastern,KJRB,40.7012,-74.009,New York,New York,NY,10004
W-2030985,Fog,Severe,2022-05-21 00:26:00+00:00,2022-05-21 14:25:00+00:00,0.0,US/Eastern,KJRB,40.7012,-74.009,New York,New York,NY,10004
W-2030986,Rain,Light,2022-05-27 22:26:00+00:00,2022-05-27 22:33:00+00:00,0.0,US/Eastern,KJRB,40.7012,-74.009,New York,New York,NY,10004
W-2030987,Cold,Severe,2022-05-27 22:33:00+00:00,2022-05-27 22:40:00+00:00,0.0,US/Eastern,KJRB,40.7012,-74.009,New York,New York,NY,10004
W-2030988,Rain,Light,2022-05-27 22:40:00+00:00,2022-05-27 22:51:00+00:00,0.0,US/Eastern,KJRB,40.7012,-74.009,New York,New York,NY,10004
W-2030989,Rain,Moderate,2022-05-27 22:51:00+00:00,2022-05-27 23:51:00+00:00,0.25,US/Eastern,KJRB,40.7012,-74.009,New York,New York,NY,10004
W-2030990,Rain,Light,2022-05-28 05:20:00+00:00,2022-05-28 06:51:00+00:00,0.2,US/Eastern,KJRB,40.7012,-74.009,New York,New York,NY,10004
W-2030991,Rain,Light,2022-05-28 17:35:00+00:00,2022-05-28 17:47:00+00:00,0.02,US/Eastern,KJRB,40.7012,-74.009,New York,New York,NY,10004
W-2030992,Rain,Moderate,2022-05-28 17:47:00+00:00,2022-05-28 18:09:00+00:00,0.22,US/Eastern,KJRB,40.7012,-74.009,New York,New York,NY,10004
W-2030993,Rain,Heavy,2022-05-28 18:09:00+00:00,2022-05-28 18:15:00+00:00,0.52,US/Eastern,KJRB,40.7012,-74.009,New York,New York,NY,10004
W-2030994,Cold,Severe,2022-05-28 18:15:00+00:00,2022-05-28 18:51:00+00:00,0.0,US/Eastern,KJRB,40.7012,-74.009,New York,New York,NY,10004
W-2030995,Precipitation,UNK,2022-05-28 18:51:00+00:00,2022-05-28 19:51:00+00:00,0.53,US/Eastern,KJRB,40.7012,-74.009,New York,New York,NY,10004
W-2030996,Rain,Light,2022-05-29 01:51:00+00:00,2022-05-29 02:51:00+00:00,0.0,US/Eastern,KJRB,40.7012,-74.009,New York,New York,NY,10004
W-2030997,Rain,Light,2022-06-01 08:51:00+00:00,2022-06-01 09:51:00+00:00,0.0,US/Eastern,KJRB,40.7012,-74.009,New York,New York,NY,10004
W-2030998,Rain,Light,2022-06-01 22:51:00+00:00,2022-06-01 23:17:00+00:00,0.04,US/Eastern,KJRB,40.7012,-74.009,New York,New York,NY,10004
W-2030999,Rain,Light,2022-06-02 00:51:00+00:00,2022-06-02 01:14:00+00:00,0.03,US/Eastern,KJRB,40.7012,-74.009,New York,New York,NY,10004
W-2031000,Rain,Moderate,2022-06-02 01:14:00+00:00,2022-06-02 01:29:00+00:00,0.15,US/Eastern,KJRB,40.7012,-74.009,New York,New York,NY,10004
W-2031001,Rain,Heavy,2022-06-02 01:29:00+00:00,2022-06-02 02:30:00+00:00,1.9,US/Eastern,KJRB,40.7012,-74.009,New York,New York,NY,10004
W-2031002,Rain,Light,2022-06-02 03:04:00+00:00,2022-06-02 03:48:00+00:00,0.08,US/Eastern,KJRB,40.7012,-74.009,New York,New York,NY,10004
W-2031003,Rain,Moderate,2022-06-02 03:48:00+00:00,2022-06-02 04:13:00+00:00,0.34,US/Eastern,KJRB,40.7012,-74.009,New York,New York,NY,10004
W-2031004,Rain,Light,2022-06-02 04:13:00+00:00,2022-06-02 05:51:00+00:00,0.26,US/Eastern,KJRB,40.7012,-74.009,New York,New York,NY,10004
W-2031005,Fog,Severe,2022-06-02 07:11:00+00:00,2022-06-02 08:31:00+00:00,0.0,US/Eastern,KJRB,40.7012,-74.009,New York,New York,NY,10004
W-2031006,Fog,Severe,2022-06-02 08:39:00+00:00,2022-06-02 09:02:00+00:00,0.0,US/Eastern,KJRB,40.7012,-74.009,New York,New York,NY,10004
W-2031007,Rain,Light,2022-06-02 09:02:00+00:00,2022-06-02 09:42:00+00:00,0.0,US/Eastern,KJRB,40.7012,-74.009,New York,New York,NY,10004
W-2031008,Fog,Severe,2022-06-02 09:53:00+00:00,2022-06-02 10:01:00+00:00,0.0,US/Eastern,KJRB,40.7012,-74.009,New York,New York,NY,10004
W-2031009,Rain,Light,2022-06-02 21:29:00+00:00,2022-06-02 21:43:00+00:00,0.0,US/Eastern,KJRB,40.7012,-74.009,New York,New York,NY,10004
W-2031010,Rain,Moderate,2022-06-02 21:43:00+00:00,2022-06-02 22:51:00+00:00,0.92,US/Eastern,KJRB,40.7012,-74.009,New York,New York,NY,10004
W-2031011,Precipitation,UNK,2022-06-02 22:51:00+00:00,2022-06-02 23:08:00+00:00,0.25,US/Eastern,KJRB,40.7012,-74.009,New York,New York,NY,10004
W-2031012,Rain,Light,2022-06-02 23:27:00+00:00,2022-06-02 23:36:00+00:00,0.0,US/Eastern,KJRB,40.7012,-74.009,New York,New York,NY,10004
W-2031013,Fog,Severe,2022-06-02 23:36:00+00:00,2022-06-02 23:51:00+00:00,0.0,US/Eastern,KJRB,40.7012,-74.009,New York,New York,NY,10004
W-2031014,Rain,Light,2022-06-02 23:51:00+00:00,2022-06-03 00:10:00+00:00,0.0,US/Eastern,KJRB,40.7012,-74.009,New York,New York,NY,10004
W-2031015,Fog,Severe,2022-06-03 00:10:00+00:00,2022-06-03 00:56:00+00:00,0.0,US/Eastern,KJRB,40.7012,-74.009,New York,New York,NY,10004
W-2031016,Fog,Severe,2022-06-03 01:04:00+00:00,2022-06-03 01:49:00+00:00,0.0,US/Eastern,KJRB,40.7012,-74.009,New York,New York,NY,10004
W-2031017,Fog,Severe,2022-06-03 02:06:00+00:00,2022-06-03 02:51:00+00:00,0.0,US/Eastern,KJRB,40.7012,-74.009,New York,New York,NY,10004
W-2031018,Fog,Severe,2022-06-03 04:09:00+00:00,2022-06-03 07:24:00+00:00,0.0,US/Eastern,KJRB,40.7012,-74.009,New York,New York,NY,10004
W-2031019,Rain,Light,2022-06-03 07:24:00+00:00,2022-06-03 07:35:00+00:00,0.0,US/Eastern,KJRB,40.7012,-74.009,New York,New York,NY,10004
W-2031020,Fog,Severe,2022-06-03 07:43:00+00:00,2022-06-03 08:17:00+00:00,0.0,US/Eastern,KJRB,40.7012,-74.009,New York,New York,NY,10004
W-2031021,Fog,Severe,2022-06-03 08:28:00+00:00,2022-06-03 08:43:00+00:00,0.0,US/Eastern,KJRB,40.7012,-74.009,New York,New York,NY,10004
W-2031022,Fog,Severe,2022-06-03 09:36:00+00:00,2022-06-03 09:59:00+00:00,0.0,US/Eastern,KJRB,40.7012,-74.009,New York,New York,NY,10004
W-2031023,Rain,Light,2022-06-08 01:51:00+00:00,2022-06-08 03:51:00+00:00,0.03,US/Eastern,KJRB,40.7012,-74.009,New York,New York,NY,10004
W-2031024,Rain,Light,2022-06-08 05:51:00+00:00,2022-06-08 06:51:00+00:00,0.03,US/Eastern,KJRB,40.7012,-74.009,New York,New York,NY,10004
W-2031025,Rain,Light,2022-06-08 07:51:00+00:00,2022-06-08 09:51:00+00:00,0.02,US/Eastern,KJRB,40.7012,-74.009,New York,New York,NY,10004
W-2031026,Rain,Light,2022-06-09 06:51:00+00:00,2022-06-09 07:33:00+00:00,0.08,US/Eastern,KJRB,40.7012,-74.009,New York,New York,NY,10004
W-2031027,Rain,Moderate,2022-06-09 07:33:00+00:00,2022-06-09 08:07:00+00:00,0.53,US/Eastern,KJRB,40.7012,-74.009,New York,New York,NY,10004
W-2031028,Rain,Light,2022-06-09 08:07:00+00:00,2022-06-09 10:23:00+00:00,0.34,US/Eastern,KJRB,40.7012,-74.009,New York,New York,NY,10004
W-2031029,Rain,Heavy,2022-06-09 10:23:00+00:00,2022-06-09 10:31:00+00:00,0.35,US/Eastern,KJRB,40.7012,-74.009,New York,New York,NY,10004
W-2031030,Rain,Light,2022-06-09 10:31:00+00:00,2022-06-09 10:38:00+00:00,0.0,US/Eastern,KJRB,40.7012,-74.009,New York,New York,NY,10004
W-2031031,Rain,Heavy,2022-06-09 10:38:00+00:00,2022-06-09 10:58:00+00:00,0.77,US/Eastern,KJRB,40.7012,-74.009,New York,New York,NY,10004
W-2031032,Rain,Light,2022-06-09 10:58:00+00:00,2022-06-09 11:36:00+00:00,0.1,US/Eastern,KJRB,40.7012,-74.009,New York,New York,NY,10004
W-2031033,Fog,Severe,2022-06-10 20:28:00+00:00,2022-06-10 20:40:00+00:00,0.0,US/Eastern,KJRB,40.7012,-74.009,New York,New York,NY,10004
W-2031034,Rain,Light,2022-06-12 12:51:00+00:00,2022-06-12 14:51:00+00:00,0.03,US/Eastern,KJRB,40.7012,-74.009,New York,New York,NY,10004
W-2031035,Rain,Light,2022-06-12 15:16:00+00:00,2022-06-12 15:26:00+00:00,0.0,US/Eastern,KJRB,40.7012,-74.009,New York,New York,NY,10004
W-2031036,Rain,Light,2022-06-12 15:51:00+00:00,2022-06-12 17:51:00+00:00,0.02,US/Eastern,KJRB,40.7012,-74.009,New York,New York,NY,10004
W-2031037,Rain,Light,2022-06-13 05:51:00+00:00,2022-06-13 06:51:00+00:00,0.0,US/Eastern,KJRB,40.7012,-74.009,New York,New York,NY,10004
W-2031038,Rain,Light,2022-06-16 11:44:00+00:00,2022-06-16 12:44:00+00:00,0.11,US/Eastern,KJRB,40.7012,-74.009,New York,New York,NY,10004
W-2031039,Rain,Moderate,2022-06-16 12:44:00+00:00,2022-06-16 13:03:00+00:00,0.31,US/Eastern,KJRB,40.7012,-74.009,New York,New York,NY,10004
W-2031040,Rain,Light,2022-06-16 13:03:00+00:00,2022-06-16 13:51:00+00:00,0.11,US/Eastern,KJRB,40.7012,-74.009,New York,New York,NY,10004
W-2031041,Rain,Light,2022-06-21 23:51:00+00:00,2022-06-22 00:51:00+00:00,0.02,US/Eastern,KJRB,40.7012,-74.009,New York,New York,NY,10004
W-2031042,Rain,Light,2022-06-22 01:51:00+00:00,2022-06-22 02:51:00+00:00,0.0,US/Eastern,KJRB,40.7012,-74.009,New York,New York,NY,10004
W-2031043,Fog,Severe,2022-06-22 20:26:00+00:00,2022-06-22 20:36:00+00:00,0.0,US/Eastern,KJRB,40.7012,-74.009,New York,New York,NY,10004
W-2031044,Rain,Light,2022-06-22 20:36:00+00:00,2022-06-22 20:51:00+00:00,0.0,US/Eastern,KJRB,40.7012,-74.009,New York,New York,NY,10004
W-2031045,Rain,Light,2022-06-22 22:36:00+00:00,2022-06-22 23:09:00+00:00,0.01,US/Eastern,KJRB,40.7012,-74.009,New York,New York,NY,10004
W-2031046,Rain,Light,2022-06-23 03:51:00+00:00,2022-06-23 04:48:00+00:00,0.0,US/Eastern,KJRB,40.7012,-74.009,New York,New York,NY,10004
W-2031047,Rain,Light,2022-06-24 01:51:00+00:00,2022-06-24 02:41:00+00:00,0.08,US/Eastern,KJRB,40.7012,-74.009,New York,New York,NY,10004
W-2031048,Fog,Severe,2022-06-24 10:47:00+00:00,2022-06-24 11:02:00+00:00,0.0,US/Eastern,KJRB,40.7012,-74.009,New York,New York,NY,10004
W-2031049,Fog,Severe,2022-06-24 11:09:00+00:00,2022-06-24 11:31:00+00:00,0.0,US/Eastern,KJRB,40.7012,-74.009,New York,New York,NY,10004
W-2031050,Fog,Moderate,2022-06-24 13:51:00+00:00,2022-06-24 14:51:00+00:00,0.0,US/Eastern,KJRB,40.7012,-74.009,New York,New York,NY,10004
W-2031051,Rain,Light,2022-06-27 14:51:00+00:00,2022-06-27 15:51:00+00:00,0.01,US/Eastern,KJRB,40.7012,-74.009,New York,New York,NY,10004
W-2031052,Rain,Light,2022-06-27 17:10:00+00:00,2022-06-27 17:51:00+00:00,0.08,US/Eastern,KJRB,40.7012,-74.009,New York,New York,NY,10004
W-2031053,Rain,Light,2022-06-27 19:01:00+00:00,2022-06-27 20:13:00+00:00,0.09,US/Eastern,KJRB,40.7012,-74.009,New York,New York,NY,10004
W-2031054,Rain,Moderate,2022-06-27 20:13:00+00:00,2022-06-27 20:51:00+00:00,0.54,US/Eastern,KJRB,40.7012,-74.009,New York,New York,NY,10004
W-2031055,Fog,Severe,2022-06-30 00:59:00+00:00,2022-06-30 01:08:00+00:00,0.0,US/Eastern,KJRB,40.7012,-74.009,New York,New York,NY,10004
W-2031056,Fog,Moderate,2022-07-01 12:51:00+00:00,2022-07-01 13:51:00+00:00,0.0,US/Eastern,KJRB,40.7012,-74.009,New York,New York,NY,10004
W-2031057,Rain,Light,2022-07-05 22:44:00+00:00,2022-07-05 23:51:00+00:00,0.06,US/Eastern,KJRB,40.7012,-74.009,New York,New York,NY,10004
W-2031058,Rain,Light,2022-07-06 01:29:00+00:00,2022-07-06 02:38:00+00:00,0.14,US/Eastern,KJRB,40.7012,-74.009,New York,New York,NY,10004
W-2031059,Fog,Moderate,2022-07-06 12:51:00+00:00,2022-07-06 13:51:00+00:00,0.0,US/Eastern,KJRB,40.7012,-74.009,New York,New York,NY,10004
W-2031060,Rain,Moderate,2022-07-08 20:24:00+00:00,2022-07-08 21:01:00+00:00,0.57,US/Eastern,KJRB,40.7012,-74.009,New York,New York,NY,10004
W-2031061,Fog,Severe,2022-07-08 21:01:00+00:00,2022-07-08 21:37:00+00:00,0.0,US/Eastern,KJRB,40.7012,-74.009,New York,New York,NY,10004
W-2031062,Rain,Light,2022-07-08 22:03:00+00:00,2022-07-08 22:51:00+00:00,0.0,US/Eastern,KJRB,40.7012,-74.009,New York,New York,NY,10004
W-2031063,Fog,Severe,2022-07-11 13:19:00+00:00,2022-07-11 14:04:00+00:00,0.0,US/Eastern,KJRB,40.7012,-74.009,New York,New York,NY,10004
W-2031064,Rain,Light,2022-07-16 19:48:00+00:00,2022-07-16 19:57:00+00:00,0.08,US/Eastern,KJRB,40.7012,-74.009,New York,New York,NY,10004
W-2031065,Rain,Heavy,2022-07-16 19:57:00+00:00,2022-07-16 20:03:00+00:00,0.39,US/Eastern,KJRB,40.7012,-74.009,New York,New York,NY,10004
W-2031066,Rain,Light,2022-07-16 20:03:00+00:00,2022-07-16 20:11:00+00:00,0.0,US/Eastern,KJRB,40.7012,-74.009,New York,New York,NY,10004
W-2031067,Rain,Heavy,2022-07-16 20:11:00+00:00,2022-07-16 20:23:00+00:00,1.98,US/Eastern,KJRB,40.7012,-74.009,New York,New York,NY,10004
W-2031068,Rain,Light,2022-07-16 20:23:00+00:00,2022-07-16 20:28:00+00:00,0.0,US/Eastern,KJRB,40.7012,-74.009,New York,New York,NY,10004
W-2031069,Rain,Heavy,2022-07-16 20:28:00+00:00,2022-07-16 20:51:00+00:00,1.02,US/Eastern,KJRB,40.7012,-74.009,New York,New York,NY,10004
W-2031070,Precipitation,UNK,2022-07-16 20:51:00+00:00,2022-07-16 21:51:00+00:00,1.02,US/Eastern,KJRB,40.7012,-74.009,New York,New York,NY,10004
W-2031071,Rain,Light,2022-07-17 03:51:00+00:00,2022-07-17 04:51:00+00:00,0.0,US/Eastern,KJRB,40.7012,-74.009,New York,New York,NY,10004
W-2031072,Rain,Light,2022-07-17 05:51:00+00:00,2022-07-17 06:15:00+00:00,0.01,US/Eastern,KJRB,40.7012,-74.009,New York,New York,NY,10004
W-2031073,Rain,Light,2022-07-17 08:51:00+00:00,2022-07-17 09:51:00+00:00,0.0,US/Eastern,KJRB,40.7012,-74.009,New York,New York,NY,10004
W-2031074,Rain,Light,2022-07-18 11:58:00+00:00,2022-07-18 12:02:00+00:00,0.02,US/Eastern,KJRB,40.7012,-74.009,New York,New York,NY,10004
W-2031075,Rain,Moderate,2022-07-18 12:02:00+00:00,2022-07-18 12:13:00+00:00,0.1,US/Eastern,KJRB,40.7012,-74.009,New York,New York,NY,10004
W-2031076,Rain,Heavy,2022-07-18 12:13:00+00:00,2022-07-18 12:25:00+00:00,2.37,US/Eastern,KJRB,40.7012,-74.009,New York,New York,NY,10004
W-2031077,Precipitation,UNK,2022-07-18 12:25:00+00:00,2022-07-18 12:43:00+00:00,0.79,US/Eastern,KJRB,40.7012,-74.009,New York,New York,NY,10004
W-2031078,Rain,Light,2022-07-18 12:43:00+00:00,2022-07-18 12:51:00+00:00,0.0,US/Eastern,KJRB,40.7012,-74.009,New York,New York,NY,10004
W-2031079,Rain,Heavy,2022-07-18 12:51:00+00:00,2022-07-18 12:56:00+00:00,0.84,US/Eastern,KJRB,40.7012,-74.009,New York,New York,NY,10004
W-2031080,Fog,Severe,2022-07-18 14:51:00+00:00,2022-07-18 14:58:00+00:00,0.0,US/Eastern,KJRB,40.7012,-74.009,New York,New York,NY,10004
W-2031081,Fog,Severe,2022-07-18 15:14:00+00:00,2022-07-18 15:26:00+00:00,0.0,US/Eastern,KJRB,40.7012,-74.009,New York,New York,NY,10004
W-2031082,Rain,Light,2022-07-18 15:37:00+00:00,2022-07-18 15:51:00+00:00,0.02,US/Eastern,KJRB,40.7012,-74.009,New York,New York,NY,10004
W-2031083,Fog,Severe,2022-07-18 16:11:00+00:00,2022-07-18 16:22:00+00:00,0.0,US/Eastern,KJRB,40.7012,-74.009,New York,New York,NY,10004
W-2031084,Rain,Light,2022-07-18 17:26:00+00:00,2022-07-18 17:36:00+00:00,0.0,US/Eastern,KJRB,40.7012,-74.009,New York,New York,NY,10004
W-2031085,Rain,Moderate,2022-07-18 17:36:00+00:00,2022-07-18 17:49:00+00:00,0.1,US/Eastern,KJRB,40.7012,-74.009,New York,New York,NY,10004
W-2031086,Rain,Light,2022-07-18 17:49:00+00:00,2022-07-18 17:51:00+00:00,0.0,US/Eastern,KJRB,40.7012,-74.009,New York,New York,NY,10004
W-2031087,Rain,Moderate,2022-07-18 17:51:00+00:00,2022-07-18 17:59:00+00:00,0.12,US/Eastern,KJRB,40.7012,-74.009,New York,New York,NY,10004
W-2031088,Fog,Severe,2022-07-18 17:59:00+00:00,2022-07-18 18:06:00+00:00,0.0,US/Eastern,KJRB,40.7012,-74.009,New York,New York,NY,10004
W-2031089,Rain,Light,2022-07-18 18:06:00+00:00,2022-07-18 18:17:00+00:00,0.0,US/Eastern,KJRB,40.7012,-74.009,New York,New York,NY,10004
W-2031090,Rain,Light,2022-07-18 20:08:00+00:00,2022-07-18 20:33:00+00:00,0.01,US/Eastern,KJRB,40.7012,-74.009,New York,New York,NY,10004
W-2031091,Rain,Moderate,2022-07-18 20:33:00+00:00,2022-07-18 20:40:00+00:00,0.15,US/Eastern,KJRB,40.7012,-74.009,New York,New York,NY,10004
W-2031092,Rain,Heavy,2022-07-18 20:40:00+00:00,2022-07-18 20:47:00+00:00,0.36,US/Eastern,KJRB,40.7012,-74.009,New York,New York,NY,10004
W-2031093,Rain,Light,2022-07-18 20:47:00+00:00,2022-07-18 20:51:00+00:00,0.0,US/Eastern,KJRB,40.7012,-74.009,New York,New York,NY,10004
W-2031094,Rain,Heavy,2022-07-18 20:51:00+00:00,2022-07-18 20:55:00+00:00,0.73,US/Eastern,KJRB,40.7012,-74.009,New York,New York,NY,10004
W-2031095,Rain,Light,2022-07-18 20:55:00+00:00,2022-07-18 21:09:00+00:00,0.01,US/Eastern,KJRB,40.7012,-74.009,New York,New York,NY,10004
W-2031096,Rain,Light,2022-07-18 22:02:00+00:00,2022-07-18 22:40:00+00:00,0.03,US/Eastern,KJRB,40.7012,-74.009,New York,New York,NY,10004
W-2031097,Fog,Severe,2022-07-18 22:40:00+00:00,2022-07-18 22:51:00+00:00,0.0,US/Eastern,KJRB,40.7012,-74.009,New York,New York,NY,10004
W-2031098,Rain,Light,2022-07-18 23:54:00+00:00,2022-07-19 00:08:00+00:00,0.0,US/Eastern,KJRB,40.7012,-74.009,New York,New York,NY,10004
W-2031099,Rain,Moderate,2022-07-19 00:08:00+00:00,2022-07-19 00:26:00+00:00,0.24,US/Eastern,KJRB,40.7012,-74.009,New York,New York,NY,10004
W-2031100,Rain,Light,2022-07-21 18:14:00+00:00,2022-07-21 18:49:00+00:00,0.1,US/Eastern,KJRB,40.7012,-74.009,New York,New York,NY,10004
W-2031101,Rain,Moderate,2022-07-21 18:49:00+00:00,2022-07-21 19:51:00+00:00,0.32,US/Eastern,KJRB,40.7012,-74.009,New York,New York,NY,10004
W-2031102,Rain,Light,2022-07-22 23:51:00+00:00,2022-07-23 00:51:00+00:00,0.0,US/Eastern,KJRB,40.7012,-74.009,New York,New York,NY,10004
W-2031103,Rain,Light,2022-07-25 17:58:00+00:00,2022-07-25 18:02:00+00:00,0.0,US/Eastern,KJRB,40.7012,-74.009,New York,New York,NY,10004
W-2031104,Rain,Moderate,2022-07-25 18:02:00+00:00,2022-07-25 18:06:00+00:00,0.19,US/Eastern,KJRB,40.7012,-74.009,New York,New York,NY,10004
W-2031105,Rain,Heavy,2022-07-25 18:06:00+00:00,2022-07-25 19:51:00+00:00,2.98,US/Eastern,KJRB,40.7012,-74.009,New York,New York,NY,10004
W-2031106,Rain,Light,2022-07-28 08:39:00+00:00,2022-07-28 09:51:00+00:00,0.02,US/Eastern,KJRB,40.7012,-74.009,New York,New York,NY,10004
W-2031107,Rain,Light,2022-07-30 01:51:00+00:00,2022-07-30 02:40:00+00:00,0.08,US/Eastern,KJRB,40.7012,-74.009,New York,New York,NY,10004
W-2031108,Rain,Light,2022-07-30 02:51:00+00:00,2022-07-30 03:51:00+00:00,0.09,US/Eastern,KJRB,40.7012,-74.009,New York,New York,NY,10004
W-2031109,Rain,Light,2022-07-30 08:51:00+00:00,2022-07-30 09:51:00+00:00,0.0,US/Eastern,KJRB,40.7012,-74.009,New York,New York,NY,10004
W-2031110,Rain,Light,2022-08-01 05:51:00+00:00,2022-08-01 06:51:00+00:00,0.0,US/Eastern,KJRB,40.7012,-74.009,New York,New York,NY,10004
W-2031111,Rain,Light,2022-08-01 07:51:00+00:00,2022-08-01 08:12:00+00:00,0.03,US/Eastern,KJRB,40.7012,-74.009,New York,New York,NY,10004
W-2031112,Rain,Moderate,2022-08-01 08:12:00+00:00,2022-08-01 09:04:00+00:00,0.64,US/Eastern,KJRB,40.7012,-74.009,New York,New York,NY,10004
W-2031113,Rain,Light,2022-08-01 09:04:00+00:00,2022-08-01 09:51:00+00:00,0.1,US/Eastern,KJRB,40.7012,-74.009,New York,New York,NY,10004
W-2031114,Rain,Moderate,2022-08-01 09:51:00+00:00,2022-08-01 11:51:00+00:00,0.33,US/Eastern,KJRB,40.7012,-74.009,New York,New York,NY,10004
W-2031115,Fog,Severe,2022-08-01 14:51:00+00:00,2022-08-01 15:51:00+00:00,0.0,US/Eastern,KJRB,40.7012,-74.009,New York,New York,NY,10004
W-2031116,Fog,Severe,2022-08-01 16:01:00+00:00,2022-08-01 16:22:00+00:00,0.0,US/Eastern,KJRB,40.7012,-74.009,New York,New York,NY,10004
W-2031117,Fog,Severe,2022-08-01 17:13:00+00:00,2022-08-01 17:34:00+00:00,0.0,US/Eastern,KJRB,40.7012,-74.009,New York,New York,NY,10004
W-2031118,Fog,Severe,2022-08-01 17:51:00+00:00,2022-08-01 18:20:00+00:00,0.0,US/Eastern,KJRB,40.7012,-74.009,New York,New York,NY,10004
W-2031119,Rain,Light,2022-08-07 19:12:00+00:00,2022-08-07 19:21:00+00:00,0.0,US/Eastern,KJRB,40.7012,-74.009,New York,New York,NY,10004
W-2031120,Rain,Moderate,2022-08-07 19:21:00+00:00,2022-08-07 19:34:00+00:00,0.3,US/Eastern,KJRB,40.7012,-74.009,New York,New York,NY,10004
W-2031121,Rain,Moderate,2022-08-07 19:51:00+00:00,2022-08-07 20:51:00+00:00,0.16,US/Eastern,KJRB,40.7012,-74.009,New York,New York,NY,10004
W-2031122,Rain,Light,2022-08-09 23:51:00+00:00,2022-08-10 00:12:00+00:00,0.05,US/Eastern,KJRB,40.7012,-74.009,New York,New York,NY,10004
W-2031123,Rain,Light,2022-08-11 11:51:00+00:00,2022-08-11 13:51:00+00:00,0.19,US/Eastern,KJRB,40.7012,-74.009,New York,New York,NY,10004
W-2031124,Rain,Light,2022-08-18 02:28:00+00:00,2022-08-18 02:36:00+00:00,0.0,US/Eastern,KJRB,40.7012,-74.009,New York,New York,NY,10004
W-2031125,Rain,Moderate,2022-08-18 02:36:00+00:00,2022-08-18 02:41:00+00:00,0.28,US/Eastern,KJRB,40.7012,-74.009,New York,New York,NY,10004
W-2031126,Rain,Heavy,2022-08-18 02:41:00+00:00,2022-08-18 03:51:00+00:00,1.02,US/Eastern,KJRB,40.7012,-74.009,New York,New York,NY,10004
W-2031127,Rain,Light,2022-08-22 08:51:00+00:00,2022-08-22 09:58:00+00:00,0.0,US/Eastern,KJRB,40.7012,-74.009,New York,New York,NY,10004
W-2031128,Rain,Light,2022-08-22 16:51:00+00:00,2022-08-22 17:38:00+00:00,0.07,US/Eastern,KJRB,40.7012,-74.009,New York,New York,NY,10004
W-2031129,Rain,Moderate,2022-08-22 17:38:00+00:00,2022-08-22 17:53:00+00:00,0.34,US/Eastern,KJRB,40.7012,-74.009,New York,New York,NY,10004
W-2031130,Rain,Light,2022-08-22 17:53:00+00:00,2022-08-22 18:35:00+00:00,0.01,US/Eastern,KJRB,40.7012,-74.009,New York,New York,NY,10004
W-2031131,Rain,Light,2022-08-22 21:51:00+00:00,2022-08-22 23:51:00+00:00,0.0,US/Eastern,KJRB,40.7012,-74.009,New York,New York,NY,10004
W-2031132,Rain,Light,2022-08-23 03:51:00+00:00,2022-08-23 05:08:00+00:00,0.12,US/Eastern,KJRB,40.7012,-74.009,New York,New York,NY,10004
W-2031133,Fog,Severe,2022-08-23 05:16:00+00:00,2022-08-23 05:39:00+00:00,0.0,US/Eastern,KJRB,40.7012,-74.009,New York,New York,NY,10004
W-2031134,Fog,Severe,2022-08-23 08:51:00+00:00,2022-08-23 09:19:00+00:00,0.0,US/Eastern,KJRB,40.7012,-74.009,New York,New York,NY,10004
W-2031135,Fog,Severe,2022-08-23 09:53:00+00:00,2022-08-23 10:02:00+00:00,0.0,US/Eastern,KJRB,40.7012,-74.009,New York,New York,NY,10004
W-2031136,Fog,Severe,2022-08-23 10:41:00+00:00,2022-08-23 11:13:00+00:00,0.0,US/Eastern,KJRB,40.7012,-74.009,New York,New York,NY,10004
W-2031137,Fog,Severe,2022-08-23 11:23:00+00:00,2022-08-23 13:38:00+00:00,0.0,US/Eastern,KJRB,40.7012,-74.009,New York,New York,NY,10004
W-2031138,Fog,Severe,2022-08-23 13:51:00+00:00,2022-08-23 14:11:00+00:00,0.0,US/Eastern,KJRB,40.7012,-74.009,New York,New York,NY,10004
W-2031139,Fog,Severe,2022-08-23 14:30:00+00:00,2022-08-23 14:40:00+00:00,0.0,US/Eastern,KJRB,40.7012,-74.009,New York,New York,NY,10004
W-2031140,Rain,Light,2022-08-26 18:54:00+00:00,2022-08-26 19:00:00+00:00,0.01,US/Eastern,KJRB,40.7012,-74.009,New York,New York,NY,10004
W-2031141,Rain,Moderate,2022-08-26 19:00:00+00:00,2022-08-26 19:30:00+00:00,0.37,US/Eastern,KJRB,40.7012,-74.009,New York,New York,NY,10004
W-2031142,Fog,Severe,2022-08-26 19:30:00+00:00,2022-08-26 19:42:00+00:00,0.0,US/Eastern,KJRB,40.7012,-74.009,New York,New York,NY,10004
W-2031143,Precipitation,UNK,2022-08-26 19:42:00+00:00,2022-08-26 20:51:00+00:00,0.48,US/Eastern,KJRB,40.7012,-74.009,New York,New York,NY,10004
W-2031144,Rain,Light,2022-08-31 02:51:00+00:00,2022-08-31 06:09:00+00:00,0.12,US/Eastern,KJRB,40.7012,-74.009,New York,New York,NY,10004
W-2031145,Rain,Light,2022-08-31 06:51:00+00:00,2022-08-31 07:51:00+00:00,0.0,US/Eastern,KJRB,40.7012,-74.009,New York,New York,NY,10004
W-2031146,Fog,Severe,2022-09-01 13:29:00+00:00,2022-09-01 13:44:00+00:00,0.0,US/Eastern,KJRB,40.7012,-74.009,New York,New York,NY,10004
W-2031147,Fog,Severe,2022-09-01 13:51:00+00:00,2022-09-01 13:59:00+00:00,0.0,US/Eastern,KJRB,40.7012,-74.009,New York,New York,NY,10004
W-2031148,Rain,Light,2022-09-04 21:51:00+00:00,2022-09-04 22:51:00+00:00,0.0,US/Eastern,KJRB,40.7012,-74.009,New York,New York,NY,10004
W-2031149,Rain,Light,2022-09-05 04:51:00+00:00,2022-09-05 05:51:00+00:00,0.0,US/Eastern,KJRB,40.7012,-74.009,New York,New York,NY,10004
W-2031150,Rain,Light,2022-09-05 23:41:00+00:00,2022-09-05 23:58:00+00:00,0.06,US/Eastern,KJRB,40.7012,-74.009,New York,New York,NY,10004
W-2031151,Rain,Light,2022-09-06 03:51:00+00:00,2022-09-06 09:51:00+00:00,0.03,US/Eastern,KJRB,40.7012,-74.009,New York,New York,NY,10004
W-2031152,Rain,Light,2022-09-06 10:51:00+00:00,2022-09-06 16:23:00+00:00,0.47,US/Eastern,KJRB,40.7012,-74.009,New York,New York,NY,10004
W-2031153,Rain,Moderate,2022-09-06 16:23:00+00:00,2022-09-06 16:57:00+00:00,0.53,US/Eastern,KJRB,40.7012,-74.009,New York,New York,NY,10004
W-2031154,Rain,Light,2022-09-06 16:57:00+00:00,2022-09-06 21:06:00+00:00,0.2,US/Eastern,KJRB,40.7012,-74.009,New York,New York,NY,10004
W-2031155,Rain,Light,2022-09-06 21:39:00+00:00,2022-09-07 00:00:00+00:00,0.38,US/Eastern,KJRB,40.7012,-74.009,New York,New York,NY,10004
W-2031156,Fog,Severe,2022-09-07 00:00:00+00:00,2022-09-07 00:37:00+00:00,0.0,US/Eastern,KJRB,40.7012,-74.009,New York,New York,NY,10004
W-2031157,Rain,Light,2022-09-07 00:46:00+00:00,2022-09-07 00:58:00+00:00,0.0,US/Eastern,KJRB,40.7012,-74.009,New York,New York,NY,10004
W-2031158,Fog,Severe,2022-09-07 00:58:00+00:00,2022-09-07 01:22:00+00:00,0.0,US/Eastern,KJRB,40.7012,-74.009,New York,New York,NY,10004
W-2031159,Rain,Light,2022-09-07 01:22:00+00:00,2022-09-07 01:51:00+00:00,0.0,US/Eastern,KJRB,40.7012,-74.009,New York,New York,NY,10004
W-2031160,Rain,Light,2022-09-07 02:11:00+00:00,2022-09-07 03:13:00+00:00,0.09,US/Eastern,KJRB,40.7012,-74.009,New York,New York,NY,10004
W-2031161,Rain,Light,2022-09-07 05:14:00+00:00,2022-09-07 05:51:00+00:00,0.0,US/Eastern,KJRB,40.7012,-74.009,New York,New York,NY,10004
W-2031162,Rain,Light,2022-09-11 16:51:00+00:00,2022-09-11 20:51:00+00:00,0.08,US/Eastern,KJRB,40.7012,-74.009,New York,New York,NY,10004
W-2031163,Rain,Light,2022-09-11 21:51:00+00:00,2022-09-11 23:13:00+00:00,0.01,US/Eastern,KJRB,40.7012,-74.009,New York,New York,NY,10004
W-2031164,Rain,Light,2022-09-11 23:51:00+00:00,2022-09-12 00:41:00+00:00,0.02,US/Eastern,KJRB,40.7012,-74.009,New York,New York,NY,10004
W-2031165,Rain,Light,2022-09-12 01:12:00+00:00,2022-09-12 06:51:00+00:00,0.4,US/Eastern,KJRB,40.7012,-74.009,New York,New York,NY,10004
W-2031166,Rain,Moderate,2022-09-12 06:51:00+00:00,2022-09-12 07:38:00+00:00,0.42,US/Eastern,KJRB,40.7012,-74.009,New York,New York,NY,10004
W-2031167,Rain,Light,2022-09-12 08:31:00+00:00,2022-09-12 08:51:00+00:00,0.0,US/Eastern,KJRB,40.7012,-74.009,New York,New York,NY,10004
W-2031168,Fog,Severe,2022-09-12 08:51:00+00:00,2022-09-12 08:59:00+00:00,0.0,US/Eastern,KJRB,40.7012,-74.009,New York,New York,NY,10004
W-2031169,Rain,Light,2022-09-12 08:59:00+00:00,2022-09-12 09:11:00+00:00,0.01,US/Eastern,KJRB,40.7012,-74.009,New York,New York,NY,10004
W-2031170,Fog,Severe,2022-09-12 09:34:00+00:00,2022-09-12 09:51:00+00:00,0.0,US/Eastern,KJRB,40.7012,-74.009,New York,New York,NY,10004
W-2031171,Rain,Light,2022-09-13 03:51:00+00:00,2022-09-13 05:29:00+00:00,0.07,US/Eastern,KJRB,40.7012,-74.009,New York,New York,NY,10004
W-2031172,Rain,Moderate,2022-09-13 05:29:00+00:00,2022-09-13 05:41:00+00:00,0.24,US/Eastern,KJRB,40.7012,-74.009,New York,New York,NY,10004
W-2031173,Rain,Heavy,2022-09-13 05:41:00+00:00,2022-09-13 05:51:00+00:00,0.51,US/Eastern,KJRB,40.7012,-74.009,New York,New York,NY,10004
W-2031174,Fog,Severe,2022-09-13 05:51:00+00:00,2022-09-13 05:58:00+00:00,0.0,US/Eastern,KJRB,40.7012,-74.009,New York,New York,NY,10004
W-2031175,Rain,Light,2022-09-13 05:58:00+00:00,2022-09-13 06:07:00+00:00,0.01,US/Eastern,KJRB,40.7012,-74.009,New York,New York,NY,10004
W-2031176,Rain,Light,2022-09-13 06:23:00+00:00,2022-09-13 06:29:00+00:00,0.02,US/Eastern,KJRB,40.7012,-74.009,New York,New York,NY,10004
W-2031177,Rain,Moderate,2022-09-13 06:29:00+00:00,2022-09-13 06:51:00+00:00,0.41,US/Eastern,KJRB,40.7012,-74.009,New York,New York,NY,10004
W-2031178,Fog,Severe,2022-09-13 07:11:00+00:00,2022-09-13 07:34:00+00:00,0.0,US/Eastern,KJRB,40.7012,-74.009,New York,New York,NY,10004
W-2031179,Rain,Light,2022-09-13 07:34:00+00:00,2022-09-13 07:51:00+00:00,0.07,US/Eastern,KJRB,40.7012,-74.009,New York,New York,NY,10004
W-2031180,Rain,Moderate,2022-09-13 07:51:00+00:00,2022-09-13 08:13:00+00:00,0.11,US/Eastern,KJRB,40.7012,-74.009,New York,New York,NY,10004
W-2031181,Rain,Light,2022-09-13 08:13:00+00:00,2022-09-13 08:43:00+00:00,0.1,US/Eastern,KJRB,40.7012,-74.009,New York,New York,NY,10004
W-2031182,Fog,Severe,2022-09-13 08:43:00+00:00,2022-09-13 08:51:00+00:00,0.0,US/Eastern,KJRB,40.7012,-74.009,New York,New York,NY,10004
W-2031183,Rain,Light,2022-09-13 08:51:00+00:00,2022-09-13 09:07:00+00:00,0.05,US/Eastern,KJRB,40.7012,-74.009,New York,New York,NY,10004
W-2031184,Fog,Severe,2022-09-13 09:14:00+00:00,2022-09-13 09:32:00+00:00,0.0,US/Eastern,KJRB,40.7012,-74.009,New York,New York,NY,10004
W-2031185,Rain,Light,2022-09-13 09:32:00+00:00,2022-09-13 10:36:00+00:00,0.19,US/Eastern,KJRB,40.7012,-74.009,New York,New York,NY,10004
W-2031186,Fog,Severe,2022-09-13 10:36:00+00:00,2022-09-13 10:51:00+00:00,0.0,US/Eastern,KJRB,40.7012,-74.009,New York,New York,NY,10004
W-2031187,Fog,Severe,2022-09-13 11:18:00+00:00,2022-09-13 11:40:00+00:00,0.0,US/Eastern,KJRB,40.7012,-74.009,New York,New York,NY,10004
W-2031188,Rain,Light,2022-09-13 11:40:00+00:00,2022-09-13 11:48:00+00:00,0.0,US/Eastern,KJRB,40.7012,-74.009,New York,New York,NY,10004
W-2031189,Rain,Light,2022-09-19 22:22:00+00:00,2022-09-19 22:43:00+00:00,0.09,US/Eastern,KJRB,40.7012,-74.009,New York,New York,NY,10004
W-2031190,Rain,Moderate,2022-09-19 22:43:00+00:00,2022-09-19 23:51:00+00:00,0.25,US/Eastern,KJRB,40.7012,-74.009,New York,New York,NY,10004
W-2031191,Rain,Light,2022-09-22 12:35:00+00:00,2022-09-22 13:43:00+00:00,0.07,US/Eastern,KJRB,40.7012,-74.009,New York,New York,NY,10004
W-2031192,Rain,Light,2022-09-22 16:21:00+00:00,2022-09-22 16:31:00+00:00,0.07,US/Eastern,KJRB,40.7012,-74.009,New York,New York,NY,10004
W-2031193,Rain,Moderate,2022-09-22 16:31:00+00:00,2022-09-22 16:51:00+00:00,0.72,US/Eastern,KJRB,40.7012,-74.009,New York,New York,NY,10004
W-2031194,Precipitation,UNK,2022-09-22 16:51:00+00:00,2022-09-22 17:03:00+00:00,0.24,US/Eastern,KJRB,40.7012,-74.009,New York,New York,NY,10004
W-2031195,Rain,Light,2022-09-22 17:03:00+00:00,2022-09-22 17:20:00+00:00,0.02,US/Eastern,KJRB,40.7012,-74.009,New York,New York,NY,10004
W-2031196,Rain,Moderate,2022-09-22 17:20:00+00:00,2022-09-22 17:51:00+00:00,0.27,US/Eastern,KJRB,40.7012,-74.009,New York,New York,NY,10004
W-2031197,Rain,Light,2022-09-22 18:27:00+00:00,2022-09-22 20:51:00+00:00,0.02,US/Eastern,KJRB,40.7012,-74.009,New York,New York,NY,10004
W-2031198,Rain,Light,2022-09-26 02:28:00+00:00,2022-09-26 02:51:00+00:00,0.04,US/Eastern,KJRB,40.7012,-74.009,New York,New York,NY,10004
W-2031199,Rain,Heavy,2022-09-26 02:51:00+00:00,2022-09-26 03:06:00+00:00,0.45,US/Eastern,KJRB,40.7012,-74.009,New York,New York,NY,10004
W-2031200,Rain,Moderate,2022-09-26 03:06:00+00:00,2022-09-26 03:32:00+00:00,0.45,US/Eastern,KJRB,40.7012,-74.009,New York,New York,NY,10004
W-2031201,Rain,Heavy,2022-09-26 03:32:00+00:00,2022-09-26 04:51:00+00:00,2.49,US/Eastern,KJRB,40.7012,-74.009,New York,New York,NY,10004
W-2031202,Rain,Light,2022-10-01 06:51:00+00:00,2022-10-01 08:51:00+00:00,0.02,US/Eastern,KJRB,40.7012,-74.009,New York,New York,NY,10004
W-2031203,Rain,Light,2022-10-01 09:51:00+00:00,2022-10-01 11:41:00+00:00,0.11,US/Eastern,KJRB,40.7012,-74.009,New York,New York,NY,10004
W-2031204,Rain,Moderate,2022-10-01 11:41:00+00:00,2022-10-01 12:51:00+00:00,0.35,US/Eastern,KJRB,40.7012,-74.009,New York,New York,NY,10004
W-2031205,Rain,Light,2022-10-01 12:51:00+00:00,2022-10-01 14:17:00+00:00,0.09,US/Eastern,KJRB,40.7012,-74.009,New York,New York,NY,10004
W-2031206,Rain,Light,2022-10-01 15:51:00+00:00,2022-10-01 16:30:00+00:00,0.07,US/Eastern,KJRB,40.7012,-74.009,New York,New York,NY,10004
W-2031207,Rain,Moderate,2022-10-01 16:30:00+00:00,2022-10-01 16:57:00+00:00,0.81,US/Eastern,KJRB,40.7012,-74.009,New York,New York,NY,10004
W-2031208,Rain,Light,2022-10-01 16:57:00+00:00,2022-10-01 17:51:00+00:00,0.0,US/Eastern,KJRB,40.7012,-74.009,New York,New York,NY,10004
W-2031209,Rain,Light,2022-10-01 22:51:00+00:00,2022-10-02 00:33:00+00:00,0.01,US/Eastern,KJRB,40.7012,-74.009,New York,New York,NY,10004
W-2031210,Rain,Light,2022-10-02 17:51:00+00:00,2022-10-02 18:22:00+00:00,0.0,US/Eastern,KJRB,40.7012,-74.009,New York,New York,NY,10004
W-2031211,Rain,Light,2022-10-02 19:51:00+00:00,2022-10-02 22:51:00+00:00,0.0,US/Eastern,KJRB,40.7012,-74.009,New York,New York,NY,10004
W-2031212,Rain,Light,2022-10-03 01:51:00+00:00,2022-10-03 02:51:00+00:00,0.0,US/Eastern,KJRB,40.7012,-74.009,New York,New York,NY,10004
W-2031213,Rain,Light,2022-10-03 03:51:00+00:00,2022-10-03 04:51:00+00:00,0.0,US/Eastern,KJRB,40.7012,-74.009,New York,New York,NY,10004
W-2031214,Rain,Light,2022-10-03 05:51:00+00:00,2022-10-03 06:51:00+00:00,0.0,US/Eastern,KJRB,40.7012,-74.009,New York,New York,NY,10004
W-2031215,Rain,Light,2022-10-03 08:51:00+00:00,2022-10-03 10:51:00+00:00,0.01,US/Eastern,KJRB,40.7012,-74.009,New York,New York,NY,10004
W-2031216,Rain,Light,2022-10-03 17:51:00+00:00,2022-10-03 18:51:00+00:00,0.01,US/Eastern,KJRB,40.7012,-74.009,New York,New York,NY,10004
W-2031217,Rain,Light,2022-10-03 19:51:00+00:00,2022-10-03 23:51:00+00:00,0.12,US/Eastern,KJRB,40.7012,-74.009,New York,New York,NY,10004
W-2031218,Rain,Moderate,2022-10-03 23:51:00+00:00,2022-10-04 00:51:00+00:00,0.11,US/Eastern,KJRB,40.7012,-74.009,New York,New York,NY,10004
W-2031219,Rain,Light,2022-10-04 00:51:00+00:00,2022-10-04 07:51:00+00:00,0.32,US/Eastern,KJRB,40.7012,-74.009,New York,New York,NY,10004
W-2031220,Rain,Heavy,2022-10-04 07:51:00+00:00,2022-10-04 08:13:00+00:00,0.39,US/Eastern,KJRB,40.7012,-74.009,New York,New York,NY,10004
W-2031221,Rain,Moderate,2022-10-04 08:13:00+00:00,2022-10-04 08:30:00+00:00,0.25,US/Eastern,KJRB,40.7012,-74.009,New York,New York,NY,10004
W-2031222,Rain,Heavy,2022-10-04 08:30:00+00:00,2022-10-04 09:30:00+00:00,1.9,US/Eastern,KJRB,40.7012,-74.009,New York,New York,NY,10004
W-2031223,Rain,Light,2022-10-04 09:30:00+00:00,2022-10-04 09:41:00+00:00,0.06,US/Eastern,KJRB,40.7012,-74.009,New York,New York,NY,10004
W-2031224,Rain,Moderate,2022-10-04 09:41:00+00:00,2022-10-04 10:27:00+00:00,0.38,US/Eastern,KJRB,40.7012,-74.009,New York,New York,NY,10004
W-2031225,Rain,Light,2022-10-04 10:27:00+00:00,2022-10-04 10:51:00+00:00,0.08,US/Eastern,KJRB,40.7012,-74.009,New York,New York,NY,10004
W-2031226,Rain,Moderate,2022-10-04 10:51:00+00:00,2022-10-04 11:35:00+00:00,0.14,US/Eastern,KJRB,40.7012,-74.009,New York,New York,NY,10004
W-2031227,Rain,Light,2022-10-04 11:35:00+00:00,2022-10-04 11:51:00+00:00,0.07,US/Eastern,KJRB,40.7012,-74.009,New York,New York,NY,10004
W-2031228,Rain,Moderate,2022-10-04 11:51:00+00:00,2022-10-04 12:28:00+00:00,0.1,US/Eastern,KJRB,40.7012,-74.009,New York,New York,NY,10004
W-2031229,Rain,Light,2022-10-04 12:28:00+00:00,2022-10-04 15:51:00+00:00,0.33,US/Eastern,KJRB,40.7012,-74.009,New York,New York,NY,10004
W-2031230,Rain,Light,2022-10-04 16:51:00+00:00,2022-10-04 21:51:00+00:00,0.19,US/Eastern,KJRB,40.7012,-74.009,New York,New York,NY,10004
W-2031231,Rain,Light,2022-10-05 03:51:00+00:00,2022-10-05 04:37:00+00:00,0.02,US/Eastern,KJRB,40.7012,-74.009,New York,New York,NY,10004
W-2031232,Rain,Light,2022-10-05 05:32:00+00:00,2022-10-05 05:51:00+00:00,0.19,US/Eastern,KJRB,40.7012,-74.009,New York,New York,NY,10004
W-2031233,Rain,Moderate,2022-10-05 05:51:00+00:00,2022-10-05 06:51:00+00:00,0.1,US/Eastern,KJRB,40.7012,-74.009,New York,New York,NY,10004
W-2031234,Rain,Light,2022-10-05 09:51:00+00:00,2022-10-05 10:34:00+00:00,0.02,US/Eastern,KJRB,40.7012,-74.009,New York,New York,NY,10004
W-2031235,Rain,Moderate,2022-10-05 10:34:00+00:00,2022-10-05 11:01:00+00:00,0.31,US/Eastern,KJRB,40.7012,-74.009,New York,New York,NY,10004
W-2031236,Rain,Light,2022-10-05 11:01:00+00:00,2022-10-05 11:51:00+00:00,0.0,US/Eastern,KJRB,40.7012,-74.009,New York,New York,NY,10004
W-2031237,Rain,Light,2022-10-05 13:27:00+00:00,2022-10-05 15:51:00+00:00,0.05,US/Eastern,KJRB,40.7012,-74.009,New York,New York,NY,10004
W-2031238,Rain,Light,2022-10-05 21:51:00+00:00,2022-10-05 23:44:00+00:00,0.08,US/Eastern,KJRB,40.7012,-74.009,New York,New York,NY,10004
W-2031239,Rain,Light,2022-10-13 18:51:00+00:00,2022-10-13 19:51:00+00:00,0.02,US/Eastern,KJRB,40.7012,-74.009,New York,New York,NY,10004
W-2031240,Rain,Light,2022-10-13 21:51:00+00:00,2022-10-13 23:27:00+00:00,0.42,US/Eastern,KJRB,40.7012,-74.009,New York,New York,NY,10004
W-2031241,Rain,Moderate,2022-10-13 23:27:00+00:00,2022-10-14 00:08:00+00:00,0.23,US/Eastern,KJRB,40.7012,-74.009,New York,New York,NY,10004
W-2031242,Rain,Light,2022-10-14 00:08:00+00:00,2022-10-14 03:42:00+00:00,0.32,US/Eastern,KJRB,40.7012,-74.009,New York,New York,NY,10004
W-2031243,Rain,Moderate,2022-10-14 03:42:00+00:00,2022-10-14 03:57:00+00:00,0.45,US/Eastern,KJRB,40.7012,-74.009,New York,New York,NY,10004
W-2031244,Rain,Light,2022-10-14 03:57:00+00:00,2022-10-14 05:51:00+00:00,0.31,US/Eastern,KJRB,40.7012,-74.009,New York,New York,NY,10004
W-2031245,Rain,Moderate,2022-10-14 05:51:00+00:00,2022-10-14 06:21:00+00:00,0.1,US/Eastern,KJRB,40.7012,-74.009,New York,New York,NY,10004
W-2031246,Rain,Light,2022-10-14 06:21:00+00:00,2022-10-14 06:51:00+00:00,0.16,US/Eastern,KJRB,40.7012,-74.009,New York,New York,NY,10004
W-2031247,Rain,Moderate,2022-10-14 06:51:00+00:00,2022-10-14 07:03:00+00:00,0.11,US/Eastern,KJRB,40.7012,-74.009,New York,New York,NY,10004
W-2031248,Rain,Light,2022-10-14 07:03:00+00:00,2022-10-14 09:51:00+00:00,0.28,US/Eastern,KJRB,40.7012,-74.009,New York,New York,NY,10004
W-2031249,Fog,Severe,2022-10-14 17:42:00+00:00,2022-10-14 17:51:00+00:00,0.0,US/Eastern,KJRB,40.7012,-74.009,New York,New York,NY,10004
W-2031250,Rain,Light,2022-10-18 00:51:00+00:00,2022-10-18 03:51:00+00:00,0.19,US/Eastern,KJRB,40.7012,-74.009,New York,New York,NY,10004
W-2031251,Rain,Light,2022-10-23 17:51:00+00:00,2022-10-23 19:51:00+00:00,0.01,US/Eastern,KJRB,40.7012,-74.009,New York,New York,NY,10004
W-2031252,Rain,Light,2022-10-23 22:51:00+00:00,2022-10-24 00:20:00+00:00,0.01,US/Eastern,KJRB,40.7012,-74.009,New York,New York,NY,10004
W-2031253,Rain,Light,2022-10-24 06:09:00+00:00,2022-10-24 06:51:00+00:00,0.0,US/Eastern,KJRB,40.7012,-74.009,New York,New York,NY,10004
W-2031254,Rain,Light,2022-10-24 10:51:00+00:00,2022-10-24 11:12:00+00:00,0.02,US/Eastern,KJRB,40.7012,-74.009,New York,New York,NY,10004
W-2031255,Rain,Moderate,2022-10-24 11:12:00+00:00,2022-10-24 12:19:00+00:00,0.26,US/Eastern,KJRB,40.7012,-74.009,New York,New York,NY,10004
W-2031256,Fog,Severe,2022-10-24 12:19:00+00:00,2022-10-24 12:59:00+00:00,0.0,US/Eastern,KJRB,40.7012,-74.009,New York,New York,NY,10004
W-2031257,Rain,Light,2022-10-24 12:59:00+00:00,2022-10-24 13:33:00+00:00,0.0,US/Eastern,KJRB,40.7012,-74.009,New York,New York,NY,10004
W-2031258,Fog,Severe,2022-10-24 14:11:00+00:00,2022-10-24 14:29:00+00:00,0.0,US/Eastern,KJRB,40.7012,-74.009,New York,New York,NY,10004
W-2031259,Fog,Severe,2022-10-24 15:00:00+00:00,2022-10-24 15:09:00+00:00,0.0,US/Eastern,KJRB,40.7012,-74.009,New York,New York,NY,10004
W-2031260,Fog,Severe,2022-10-24 17:07:00+00:00,2022-10-24 17:21:00+00:00,0.0,US/Eastern,KJRB,40.7012,-74.009,New York,New York,NY,10004
W-2031261,Rain,Light,2022-10-24 17:21:00+00:00,2022-10-24 17:30:00+00:00,0.0,US/Eastern,KJRB,40.7012,-74.009,New York,New York,NY,10004
W-2031262,Fog,Severe,2022-10-24 18:10:00+00:00,2022-10-24 18:25:00+00:00,0.0,US/Eastern,KJRB,40.7012,-74.009,New York,New York,NY,10004
W-2031263,Fog,Severe,2022-10-24 20:31:00+00:00,2022-10-24 21:31:00+00:00,0.0,US/Eastern,KJRB,40.7012,-74.009,New York,New York,NY,10004
W-2031264,Rain,Light,2022-10-24 23:29:00+00:00,2022-10-24 23:51:00+00:00,0.02,US/Eastern,KJRB,40.7012,-74.009,New York,New York,NY,10004
W-2031265,Fog,Severe,2022-10-25 00:51:00+00:00,2022-10-25 01:22:00+00:00,0.0,US/Eastern,KJRB,40.7012,-74.009,New York,New York,NY,10004
W-2031266,Rain,Light,2022-10-25 01:22:00+00:00,2022-10-25 02:41:00+00:00,0.01,US/Eastern,KJRB,40.7012,-74.009,New York,New York,NY,10004
W-2031267,Rain,Moderate,2022-10-25 02:41:00+00:00,2022-10-25 02:58:00+00:00,0.41,US/Eastern,KJRB,40.7012,-74.009,New York,New York,NY,10004
W-2031268,Rain,Light,2022-10-25 02:58:00+00:00,2022-10-25 03:43:00+00:00,0.12,US/Eastern,KJRB,40.7012,-74.009,New York,New York,NY,10004
W-2031269,Rain,Light,2022-10-25 03:51:00+00:00,2022-10-25 04:36:00+00:00,0.31,US/Eastern,KJRB,40.7012,-74.009,New York,New York,NY,10004
W-2031270,Rain,Moderate,2022-10-25 04:36:00+00:00,2022-10-25 05:06:00+00:00,0.45,US/Eastern,KJRB,40.7012,-74.009,New York,New York,NY,10004
W-2031271,Rain,Light,2022-10-25 05:51:00+00:00,2022-10-25 06:30:00+00:00,0.0,US/Eastern,KJRB,40.7012,-74.009,New York,New York,NY,10004
W-2031272,Fog,Severe,2022-10-25 06:30:00+00:00,2022-10-25 18:02:00+00:00,0.0,US/Eastern,KJRB,40.7012,-74.009,New York,New York,NY,10004
W-2031273,Fog,Severe,2022-10-26 02:39:00+00:00,2022-10-26 05:16:00+00:00,0.0,US/Eastern,KJRB,40.7012,-74.009,New York,New York,NY,10004
W-2031274,Fog,Severe,2022-10-26 05:59:00+00:00,2022-10-26 06:05:00+00:00,0.0,US/Eastern,KJRB,40.7012,-74.009,New York,New York,NY,10004
W-2031275,Fog,Severe,2022-10-26 06:19:00+00:00,2022-10-26 07:02:00+00:00,0.0,US/Eastern,KJRB,40.7012,-74.009,New York,New York,NY,10004
W-2031276,Fog,Severe,2022-10-26 07:10:00+00:00,2022-10-26 11:40:00+00:00,0.0,US/Eastern,KJRB,40.7012,-74.009,New York,New York,NY,10004
W-2031277,Fog,Severe,2022-10-26 12:00:00+00:00,2022-10-26 12:09:00+00:00,0.0,US/Eastern,KJRB,40.7012,-74.009,New York,New York,NY,10004
W-2031278,Fog,Moderate,2022-10-26 17:51:00+00:00,2022-10-26 18:05:00+00:00,0.0,US/Eastern,KJRB,40.7012,-74.009,New York,New York,NY,10004
W-2031279,Fog,Moderate,2022-10-26 18:51:00+00:00,2022-10-26 19:51:00+00:00,0.0,US/Eastern,KJRB,40.7012,-74.009,New York,New York,NY,10004
W-2031280,Rain,Light,2022-11-01 01:51:00+00:00,2022-11-01 02:51:00+00:00,0.01,US/Eastern,KJRB,40.7012,-74.009,New York,New York,NY,10004
W-2031281,Rain,Light,2022-11-01 04:26:00+00:00,2022-11-01 07:51:00+00:00,0.23,US/Eastern,KJRB,40.7012,-74.009,New York,New York,NY,10004
W-2031282,Rain,Light,2022-11-01 08:32:00+00:00,2022-11-01 09:25:00+00:00,0.1,US/Eastern,KJRB,40.7012,-74.009,New York,New York,NY,10004
W-2031283,Fog,Severe,2022-11-01 09:25:00+00:00,2022-11-01 09:34:00+00:00,0.0,US/Eastern,KJRB,40.7012,-74.009,New York,New York,NY,10004
W-2031284,Rain,Light,2022-11-01 09:51:00+00:00,2022-11-01 10:35:00+00:00,0.02,US/Eastern,KJRB,40.7012,-74.009,New York,New York,NY,10004
W-2031285,Fog,Severe,2022-11-01 10:35:00+00:00,2022-11-01 10:48:00+00:00,0.0,US/Eastern,KJRB,40.7012,-74.009,New York,New York,NY,10004
W-2031286,Fog,Severe,2022-11-01 10:59:00+00:00,2022-11-01 11:06:00+00:00,0.0,US/Eastern,KJRB,40.7012,-74.009,New York,New York,NY,10004
W-2031287,Fog,Severe,2022-11-01 11:32:00+00:00,2022-11-01 11:51:00+00:00,0.0,US/Eastern,KJRB,40.7012,-74.009,New York,New York,NY,10004
W-2031288,Fog,Severe,2022-11-01 13:22:00+00:00,2022-11-01 13:32:00+00:00,0.0,US/Eastern,KJRB,40.7012,-74.009,New York,New York,NY,10004
W-2031289,Fog,Severe,2022-11-04 13:44:00+00:00,2022-11-04 14:14:00+00:00,0.0,US/Eastern,KJRB,40.7012,-74.009,New York,New York,NY,10004
W-2031290,Fog,Moderate,2022-11-04 15:51:00+00:00,2022-11-04 17:51:00+00:00,0.0,US/Eastern,KJRB,40.7012,-74.009,New York,New York,NY,10004
W-2031291,Rain,Light,2022-11-11 15:51:00+00:00,2022-11-11 21:12:00+00:00,0.61,US/Eastern,KJRB,40.7012,-74.009,New York,New York,NY,10004
W-2031292,Rain,Moderate,2022-11-11 21:12:00+00:00,2022-11-11 21:51:00+00:00,0.26,US/Eastern,KJRB,40.7012,-74.009,New York,New York,NY,10004
W-2031293,Rain,Heavy,2022-11-11 21:51:00+00:00,2022-11-11 22:04:00+00:00,0.39,US/Eastern,KJRB,40.7012,-74.009,New York,New York,NY,10004
W-2031294,Rain,Moderate,2022-11-11 22:04:00+00:00,2022-11-11 23:51:00+00:00,0.8,US/Eastern,KJRB,40.7012,-74.009,New York,New York,NY,10004
W-2031295,Rain,Light,2022-11-12 00:51:00+00:00,2022-11-12 01:51:00+00:00,0.01,US/Eastern,KJRB,40.7012,-74.009,New York,New York,NY,10004
W-2031296,Fog,Severe,2022-11-12 02:13:00+00:00,2022-11-12 02:40:00+00:00,0.0,US/Eastern,KJRB,40.7012,-74.009,New York,New York,NY,10004
W-2031297,Rain,Light,2022-11-12 08:03:00+00:00,2022-11-12 08:51:00+00:00,0.0,US/Eastern,KJRB,40.7012,-74.009,New York,New York,NY,10004
W-2031298,Rain,Light,2022-11-12 09:35:00+00:00,2022-11-12 10:43:00+00:00,0.1,US/Eastern,KJRB,40.7012,-74.009,New York,New York,NY,10004
W-2031299,Rain,Light,2022-11-12 11:51:00+00:00,2022-11-12 12:51:00+00:00,0.03,US/Eastern,KJRB,40.7012,-74.009,New York,New York,NY,10004
W-2031300,Rain,Light,2022-11-13 00:51:00+00:00,2022-11-13 01:51:00+00:00,0.0,US/Eastern,KJRB,40.7012,-74.009,New York,New York,NY,10004
W-2031301,Rain,Light,2022-11-13 04:51:00+00:00,2022-11-13 06:51:00+00:00,0.0,US/Eastern,KJRB,40.7012,-74.009,New York,New York,NY,10004
W-2031302,Rain,Light,2022-11-13 07:51:00+00:00,2022-11-13 09:51:00+00:00,0.0,US/Eastern,KJRB,40.7012,-74.009,New York,New York,NY,10004
W-2031303,Rain,Light,2022-11-13 10:42:00+00:00,2022-11-13 12:51:00+00:00,0.03,US/Eastern,KJRB,40.7012,-74.009,New York,New York,NY,10004
W-2031304,Rain,Light,2022-11-13 13:18:00+00:00,2022-11-13 13:28:00+00:00,0.02,US/Eastern,KJRB,40.7012,-74.009,New York,New York,NY,10004
W-2031305,Rain,Light,2022-11-15 23:51:00+00:00,2022-11-16 00:51:00+00:00,0.03,US/Eastern,KJRB,40.7012,-74.009,New York,New York,NY,10004
W-2031306,Rain,Moderate,2022-11-16 00:51:00+00:00,2022-11-16 03:14:00+00:00,0.34,US/Eastern,KJRB,40.7012,-74.009,New York,New York,NY,10004
W-2031307,Rain,Light,2022-11-16 03:14:00+00:00,2022-11-16 04:44:00+00:00,0.14,US/Eastern,KJRB,40.7012,-74.009,New York,New York,NY,10004
W-2031308,Rain,Moderate,2022-11-16 04:44:00+00:00,2022-11-16 05:19:00+00:00,0.23,US/Eastern,KJRB,40.7012,-74.009,New York,New York,NY,10004
W-2031309,Rain,Light,2022-11-16 05:19:00+00:00,2022-11-16 05:40:00+00:00,0.07,US/Eastern,KJRB,40.7012,-74.009,New York,New York,NY,10004
W-2031310,Rain,Moderate,2022-11-16 05:40:00+00:00,2022-11-16 06:51:00+00:00,0.23,US/Eastern,KJRB,40.7012,-74.009,New York,New York,NY,10004
W-2031311,Rain,Light,2022-11-16 06:51:00+00:00,2022-11-16 12:49:00+00:00,0.35,US/Eastern,KJRB,40.7012,-74.009,New York,New York,NY,10004
W-2031312,Rain,Light,2022-11-25 11:51:00+00:00,2022-11-25 13:51:00+00:00,0.01,US/Eastern,KJRB,40.7012,-74.009,New York,New York,NY,10004
W-2031313,Rain,Light,2022-11-25 16:03:00+00:00,2022-11-25 16:51:00+00:00,0.0,US/Eastern,KJRB,40.7012,-74.009,New York,New York,NY,10004
W-2031314,Fog,Moderate,2022-11-25 17:08:00+00:00,2022-11-25 18:51:00+00:00,0.0,US/Eastern,KJRB,40.7012,-74.009,New York,New York,NY,10004
W-2031315,Rain,Light,2022-11-27 17:35:00+00:00,2022-11-27 19:21:00+00:00,0.09,US/Eastern,KJRB,40.7012,-74.009,New York,New York,NY,10004
W-2031316,Rain,Moderate,2022-11-27 19:21:00+00:00,2022-11-27 21:06:00+00:00,1.51,US/Eastern,KJRB,40.7012,-74.009,New York,New York,NY,10004
W-2031317,Rain,Light,2022-11-27 21:06:00+00:00,2022-11-27 21:51:00+00:00,0.0,US/Eastern,KJRB,40.7012,-74.009,New York,New York,NY,10004
W-2031318,Rain,Light,2022-11-27 23:13:00+00:00,2022-11-28 00:59:00+00:00,0.12,US/Eastern,KJRB,40.7012,-74.009,New York,New York,NY,10004
W-2031319,Rain,Moderate,2022-11-28 00:59:00+00:00,2022-11-28 01:22:00+00:00,0.53,US/Eastern,KJRB,40.7012,-74.009,New York,New York,NY,10004
W-2031320,Precipitation,UNK,2022-11-28 01:22:00+00:00,2022-11-28 02:09:00+00:00,0.38,US/Eastern,KJRB,40.7012,-74.009,New York,New York,NY,10004
W-2031321,Rain,Light,2022-11-28 12:18:00+00:00,2022-11-28 12:46:00+00:00,0.0,US/Eastern,KJRB,40.7012,-74.009,New York,New York,NY,10004
W-2031322,Rain,Light,2022-11-30 14:03:00+00:00,2022-11-30 14:36:00+00:00,0.0,US/Eastern,KJRB,40.7012,-74.009,New York,New York,NY,10004
W-2031323,Rain,Light,2022-11-30 14:51:00+00:00,2022-11-30 15:05:00+00:00,0.0,US/Eastern,KJRB,40.7012,-74.009,New York,New York,NY,10004
W-2031324,Rain,Light,2022-11-30 15:51:00+00:00,2022-11-30 16:51:00+00:00,0.19,US/Eastern,KJRB,40.7012,-74.009,New York,New York,NY,10004
W-2031325,Rain,Moderate,2022-11-30 16:51:00+00:00,2022-11-30 17:14:00+00:00,0.1,US/Eastern,KJRB,40.7012,-74.009,New York,New York,NY,10004
W-2031326,Rain,Light,2022-11-30 17:14:00+00:00,2022-11-30 18:51:00+00:00,0.21,US/Eastern,KJRB,40.7012,-74.009,New York,New York,NY,10004
W-2031327,Rain,Moderate,2022-11-30 18:51:00+00:00,2022-11-30 19:51:00+00:00,0.13,US/Eastern,KJRB,40.7012,-74.009,New York,New York,NY,10004
W-2031328,Rain,Light,2022-11-30 19:51:00+00:00,2022-11-30 21:51:00+00:00,0.31,US/Eastern,KJRB,40.7012,-74.009,New York,New York,NY,10004
W-2031329,Rain,Light,2022-11-30 22:51:00+00:00,2022-11-30 23:01:00+00:00,0.02,US/Eastern,KJRB,40.7012,-74.009,New York,New York,NY,10004
W-2031330,Rain,Light,2022-12-03 12:51:00+00:00,2022-12-03 16:51:00+00:00,0.6,US/Eastern,KJRB,40.7012,-74.009,New York,New York,NY,10004
W-2031331,Rain,Moderate,2022-12-03 16:51:00+00:00,2022-12-03 17:06:00+00:00,0.1,US/Eastern,KJRB,40.7012,-74.009,New York,New York,NY,10004
W-2031332,Rain,Light,2022-12-03 17:06:00+00:00,2022-12-03 17:51:00+00:00,0.17,US/Eastern,KJRB,40.7012,-74.009,New York,New York,NY,10004
W-2031333,Rain,Moderate,2022-12-03 17:51:00+00:00,2022-12-03 18:10:00+00:00,0.12,US/Eastern,KJRB,40.7012,-74.009,New York,New York,NY,10004
W-2031334,Rain,Light,2022-12-03 18:10:00+00:00,2022-12-03 19:51:00+00:00,0.05,US/Eastern,KJRB,40.7012,-74.009,New York,New York,NY,10004
W-2031335,Rain,Light,2022-12-03 22:19:00+00:00,2022-12-03 22:51:00+00:00,0.15,US/Eastern,KJRB,40.7012,-74.009,New York,New York,NY,10004
W-2031336,Rain,Light,2022-12-06 17:51:00+00:00,2022-12-06 23:25:00+00:00,0.23,US/Eastern,KJRB,40.7012,-74.009,New York,New York,NY,10004
W-2031337,Rain,Light,2022-12-06 23:51:00+00:00,2022-12-07 01:47:00+00:00,0.34,US/Eastern,KJRB,40.7012,-74.009,New York,New York,NY,10004
W-2031338,Rain,Moderate,2022-12-07 01:47:00+00:00,2022-12-07 02:08:00+00:00,0.26,US/Eastern,KJRB,40.7012,-74.009,New York,New York,NY,10004
W-2031339,Rain,Light,2022-12-07 02:08:00+00:00,2022-12-07 02:17:00+00:00,0.07,US/Eastern,KJRB,40.7012,-74.009,New York,New York,NY,10004
W-2031340,Rain,Moderate,2022-12-07 02:17:00+00:00,2022-12-07 02:58:00+00:00,0.96,US/Eastern,KJRB,40.7012,-74.009,New York,New York,NY,10004
W-2031341,Rain,Light,2022-12-07 02:58:00+00:00,2022-12-07 03:51:00+00:00,0.09,US/Eastern,KJRB,40.7012,-74.009,New York,New York,NY,10004
W-2031342,Rain,Moderate,2022-12-07 03:51:00+00:00,2022-12-07 05:21:00+00:00,0.51,US/Eastern,KJRB,40.7012,-74.009,New York,New York,NY,10004
W-2031343,Rain,Light,2022-12-07 05:21:00+00:00,2022-12-07 05:39:00+00:00,0.07,US/Eastern,KJRB,40.7012,-74.009,New York,New York,NY,10004
W-2031344,Rain,Moderate,2022-12-07 05:39:00+00:00,2022-12-07 07:51:00+00:00,0.61,US/Eastern,KJRB,40.7012,-74.009,New York,New York,NY,10004
W-2031345,Rain,Light,2022-12-07 10:27:00+00:00,2022-12-07 12:51:00+00:00,0.01,US/Eastern,KJRB,40.7012,-74.009,New York,New York,NY,10004
W-2031346,Fog,Severe,2022-12-07 12:51:00+00:00,2022-12-07 17:46:00+00:00,0.0,US/Eastern,KJRB,40.7012,-74.009,New York,New York,NY,10004
W-2031347,Rain,Light,2022-12-07 17:46:00+00:00,2022-12-07 17:51:00+00:00,0.0,US/Eastern,KJRB,40.7012,-74.009,New York,New York,NY,10004
W-2031348,Fog,Severe,2022-12-07 17:51:00+00:00,2022-12-07 18:46:00+00:00,0.0,US/Eastern,KJRB,40.7012,-74.009,New York,New York,NY,10004
W-2031349,Fog,Severe,2022-12-07 19:16:00+00:00,2022-12-07 19:43:00+00:00,0.0,US/Eastern,KJRB,40.7012,-74.009,New York,New York,NY,10004
W-2031350,Rain,Light,2022-12-11 04:51:00+00:00,2022-12-11 05:51:00+00:00,0.0,US/Eastern,KJRB,40.7012,-74.009,New York,New York,NY,10004
W-2031351,Rain,Light,2022-12-11 17:15:00+00:00,2022-12-11 23:29:00+00:00,0.11,US/Eastern,KJRB,40.7012,-74.009,New York,New York,NY,10004
W-2031352,Rain,Light,2022-12-11 23:51:00+00:00,2022-12-12 00:40:00+00:00,0.06,US/Eastern,KJRB,40.7012,-74.009,New York,New York,NY,10004
W-2031353,Snow,Moderate,2022-12-12 00:40:00+00:00,2022-12-12 00:51:00+00:00,0.05,US/Eastern,KJRB,40.7012,-74.009,New York,New York,NY,10004
W-2031354,Snow,Heavy,2022-12-12 00:51:00+00:00,2022-12-12 01:05:00+00:00,0.07,US/Eastern,KJRB,40.7012,-74.009,New York,New York,NY,10004
W-2031355,Snow,Light,2022-12-12 01:05:00+00:00,2022-12-12 01:51:00+00:00,0.02,US/Eastern,KJRB,40.7012,-74.009,New York,New York,NY,10004
W-2031356,Snow,Moderate,2022-12-12 01:51:00+00:00,2022-12-12 02:17:00+00:00,0.04,US/Eastern,KJRB,40.7012,-74.009,New York,New York,NY,10004
W-2031357,Snow,Light,2022-12-12 02:17:00+00:00,2022-12-12 03:51:00+00:00,0.04,US/Eastern,KJRB,40.7012,-74.009,New York,New York,NY,10004
W-2031358,Snow,Moderate,2022-12-12 03:51:00+00:00,2022-12-12 04:12:00+00:00,0.03,US/Eastern,KJRB,40.7012,-74.009,New York,New York,NY,10004
W-2031359,Snow,Light,2022-12-12 04:12:00+00:00,2022-12-12 07:00:00+00:00,0.05,US/Eastern,KJRB,40.7012,-74.009,New York,New York,NY,10004
W-2031360,Rain,Light,2022-12-15 19:51:00+00:00,2022-12-16 02:51:00+00:00,0.39,US/Eastern,KJRB,40.7012,-74.009,New York,New York,NY,10004
W-2031361,Rain,Moderate,2022-12-16 02:51:00+00:00,2022-12-16 03:51:00+00:00,0.1,US/Eastern,KJRB,40.7012,-74.009,New York,New York,NY,10004
W-2031362,Rain,Light,2022-12-16 03:51:00+00:00,2022-12-16 13:33:00+00:00,0.65,US/Eastern,KJRB,40.7012,-74.009,New York,New York,NY,10004
W-2031363,Rain,Moderate,2022-12-16 13:33:00+00:00,2022-12-16 14:38:00+00:00,0.22,US/Eastern,KJRB,40.7012,-74.009,New York,New York,NY,10004
W-2031364,Rain,Light,2022-12-16 14:38:00+00:00,2022-12-17 01:46:00+00:00,0.62,US/Eastern,KJRB,40.7012,-74.009,New York,New York,NY,10004
W-2031365,Rain,Light,2022-12-22 17:36:00+00:00,2022-12-22 19:28:00+00:00,0.05,US/Eastern,KJRB,40.7012,-74.009,New York,New York,NY,10004
W-2031366,Rain,Light,2022-12-22 19:51:00+00:00,2022-12-22 23:51:00+00:00,0.02,US/Eastern,KJRB,40.7012,-74.009,New York,New York,NY,10004
W-2031367,Rain,Light,2022-12-23 02:51:00+00:00,2022-12-23 03:51:00+00:00,0.1,US/Eastern,KJRB,40.7012,-74.009,New York,New York,NY,10004
W-2031368,Rain,Light,2022-12-23 04:23:00+00:00,2022-12-23 08:51:00+00:00,0.32,US/Eastern,KJRB,40.7012,-74.009,New York,New York,NY,10004
W-2031369,Rain,Moderate,2022-12-23 08:51:00+00:00,2022-12-23 09:00:00+00:00,0.13,US/Eastern,KJRB,40.7012,-74.009,New York,New York,NY,10004
W-2031370,Rain,Heavy,2022-12-23 09:00:00+00:00,2022-12-23 09:58:00+00:00,4.99,US/Eastern,KJRB,40.7012,-74.009,New York,New York,NY,10004
W-2031371,Rain,Light,2022-12-23 09:58:00+00:00,2022-12-23 10:23:00+00:00,0.07,US/Eastern,KJRB,40.7012,-74.009,New York,New York,NY,10004
W-2031372,Rain,Moderate,2022-12-23 10:23:00+00:00,2022-12-23 10:51:00+00:00,0.14,US/Eastern,KJRB,40.7012,-74.009,New York,New York,NY,10004
W-2031373,Rain,Light,2022-12-23 13:51:00+00:00,2022-12-23 14:22:00+00:00,0.0,US/Eastern,KJRB,40.7012,-74.009,New York,New York,NY,10004
W-2031374,Rain,Light,2022-12-23 14:34:00+00:00,2022-12-23 14:51:00+00:00,0.0,US/Eastern,KJRB,40.7012,-74.009,New York,New York,NY,10004
W-2031375,Rain,Light,2022-12-23 15:51:00+00:00,2022-12-23 18:51:00+00:00,0.14,US/Eastern,KJRB,40.7012,-74.009,New York,New York,NY,10004
W-2031376,Snow,Light,2022-12-23 18:51:00+00:00,2022-12-23 20:51:00+00:00,0.01,US/Eastern,KJRB,40.7012,-74.009,New York,New York,NY,10004
W-2031377,Fog,Severe,2022-12-28 19:27:00+00:00,2022-12-28 19:36:00+00:00,0.0,US/Eastern,KJRB,40.7012,-74.009,New York,New York,NY,10004
W-2031378,Rain,Light,2022-12-31 11:51:00+00:00,2022-12-31 12:38:00+00:00,0.0,US/Eastern,KJRB,40.7012,-74.009,New York,New York,NY,10004
W-2031379,Fog,Severe,2022-12-31 12:51:00+00:00,2022-12-31 14:06:00+00:00,0.0,US/Eastern,KJRB,40.7012,-74.009,New York,New York,NY,10004
W-2031380,Rain,Light,2022-12-31 16:05:00+00:00,2022-12-31 16:17:00+00:00,0.0,US/Eastern,KJRB,40.7012,-74.009,New York,New York,NY,10004
W-2031381,Fog,Severe,2022-12-31 16:17:00+00:00,2022-12-31 18:14:00+00:00,0.0,US/Eastern,KJRB,40.7012,-74.009,New York,New York,NY,10004
W-2031382,Rain,Light,2022-12-31 18:14:00+00:00,2022-12-31 21:35:00+00:00,0.07,US/Eastern,KJRB,40.7012,-74.009,New York,New York,NY,10004
W-2031383,Fog,Severe,2022-12-31 21:35:00+00:00,2022-12-31 22:28:00+00:00,0.0,US/Eastern,KJRB,40.7012,-74.009,New York,New York,NY,10004
W-2031384,Rain,Light,2022-12-31 22:38:00+00:00,2022-12-31 23:35:00+00:00,0.0,US/Eastern,KJRB,40.7012,-74.009,New York,New York,NY,10004
